{"type":"FeatureCollection","features":[{"type":"Feature","geometry":{"type":"Point","coordinates":[146.6768,-41.9607]},"properties":{"d":"2026-10-05","t":"0258","frp":18.0,"b":340.3,"c":1,"s":"N21","n":0}},{"type":"Feature","geometry":{"type":"Point","coordinates":[146.677,-41.9583]},"properties":{"d":"2026-10-05","t":"0258","frp":14.6,"b":347.4,"c":1,"s":"N21","n":0}},{"type":"Feature","geometry":{"type":"Point","coordinates":[149.0032,-28.608]},"properties":{"d":"2026-10-05","t":"0302","frp":10.0,"b":351.3,"c":1,"s":"N21","n":0}},{"type":"Feature","geometry":{"type":"Point","coordinates":[149.0079,-28.6076]},"properties":{"d":"2026-10-05","t":"0302","frp":12.5,"b":338.2,"c":1,"s":"N21","n":0}},{"type":"Feature","geometry":{"type":"Point","coordinates":[149.0126,-28.6073]},"properties":{"d":"2026-10-05","t":"0302","frp":12.5,"b":353.4,"c":1,"s":"N21","n":0}},{"type":"Feature","geometry":{"type":"Point","coordinates":[149.0173,-28.607]},"properties":{"d":"2026-10-05","t":"0302","frp":21.5,"b":355.1,"c":1,"s":"N21","n":0}},{"type":"Feature","geometry":{"type":"Point","coordinates":[149.022,-28.6067]},"properties":{"d":"2026-10-05","t":"0302","frp":21.5,"b":367.0,"c":2,"s":"N21","n":0}},{"type":"Feature","geometry":{"type":"Point","coordinates":[149.0027,-28.6021]},"properties":{"d":"2026-10-05","t":"0302","frp":15.2,"b":355.0,"c":1,"s":"N21","n":0}},{"type":"Feature","geometry":{"type":"Point","coordinates":[149.0075,-28.6018]},"properties":{"d":"2026-10-05","t":"0302","frp":14.3,"b":367.0,"c":2,"s":"N21","n":0}},{"type":"Feature","geometry":{"type":"Point","coordinates":[149.0122,-28.6014]},"properties":{"d":"2026-10-05","t":"0302","frp":14.3,"b":367.0,"c":2,"s":"N21","n":0}},{"type":"Feature","geometry":{"type":"Point","coordinates":[149.0169,-28.6011]},"properties":{"d":"2026-10-05","t":"0302","frp":13.8,"b":367.0,"c":2,"s":"N21","n":0}},{"type":"Feature","geometry":{"type":"Point","coordinates":[149.0216,-28.6008]},"properties":{"d":"2026-10-05","t":"0302","frp":13.8,"b":354.4,"c":1,"s":"N21","n":0}},{"type":"Feature","geometry":{"type":"Point","coordinates":[149.0023,-28.5962]},"properties":{"d":"2026-10-05","t":"0302","frp":15.2,"b":339.6,"c":1,"s":"N21","n":0}},{"type":"Feature","geometry":{"type":"Point","coordinates":[149.007,-28.5959]},"properties":{"d":"2026-10-05","t":"0302","frp":14.3,"b":341.3,"c":1,"s":"N21","n":0}},{"type":"Feature","geometry":{"type":"Point","coordinates":[149.0117,-28.5956]},"properties":{"d":"2026-10-05","t":"0302","frp":14.3,"b":334.2,"c":1,"s":"N21","n":0}},{"type":"Feature","geometry":{"type":"Point","coordinates":[149.0164,-28.5953]},"properties":{"d":"2026-10-05","t":"0302","frp":13.8,"b":367.0,"c":2,"s":"N21","n":0}},{"type":"Feature","geometry":{"type":"Point","coordinates":[149.0211,-28.5949]},"properties":{"d":"2026-10-05","t":"0302","frp":13.8,"b":350.3,"c":1,"s":"N21","n":0}},{"type":"Feature","geometry":{"type":"Point","coordinates":[152.4956,-26.4917]},"properties":{"d":"2026-10-05","t":"0302","frp":6.6,"b":339.7,"c":1,"s":"N21","n":0}},{"type":"Feature","geometry":{"type":"Point","coordinates":[149.2826,-26.468]},"properties":{"d":"2026-10-05","t":"0302","frp":15.5,"b":367.0,"c":2,"s":"N21","n":0}},{"type":"Feature","geometry":{"type":"Point","coordinates":[149.1274,-25.4302]},"properties":{"d":"2026-10-05","t":"0302","frp":2.9,"b":330.8,"c":1,"s":"N21","n":0}},{"type":"Feature","geometry":{"type":"Point","coordinates":[147.5813,-25.4246]},"properties":{"d":"2026-10-05","t":"0302","frp":4.8,"b":331.6,"c":1,"s":"N21","n":0}},{"type":"Feature","geometry":{"type":"Point","coordinates":[149.0676,-25.4065]},"properties":{"d":"2026-10-05","t":"0302","frp":5.0,"b":339.8,"c":1,"s":"N21","n":0}},{"type":"Feature","geometry":{"type":"Point","coordinates":[152.1202,-25.2171]},"properties":{"d":"2026-10-05","t":"0302","frp":9.0,"b":330.5,"c":1,"s":"N21","n":0}},{"type":"Feature","geometry":{"type":"Point","coordinates":[152.1166,-25.2157]},"properties":{"d":"2026-10-05","t":"0302","frp":6.4,"b":330.0,"c":1,"s":"N21","n":0}},{"type":"Feature","geometry":{"type":"Point","coordinates":[147.9181,-25.1962]},"properties":{"d":"2026-10-05","t":"0302","frp":14.1,"b":337.4,"c":1,"s":"N21","n":0}},{"type":"Feature","geometry":{"type":"Point","coordinates":[147.9229,-25.1959]},"properties":{"d":"2026-10-05","t":"0302","frp":14.1,"b":351.4,"c":1,"s":"N21","n":0}},{"type":"Feature","geometry":{"type":"Point","coordinates":[147.9278,-25.1955]},"properties":{"d":"2026-10-05","t":"0302","frp":24.5,"b":344.9,"c":1,"s":"N21","n":0}},{"type":"Feature","geometry":{"type":"Point","coordinates":[147.9373,-25.1948]},"properties":{"d":"2026-10-05","t":"0302","frp":16.4,"b":367.0,"c":2,"s":"N21","n":0}},{"type":"Feature","geometry":{"type":"Point","coordinates":[147.9128,-25.1905]},"properties":{"d":"2026-10-05","t":"0302","frp":17.7,"b":349.4,"c":1,"s":"N21","n":0}},{"type":"Feature","geometry":{"type":"Point","coordinates":[147.9177,-25.1902]},"properties":{"d":"2026-10-05","t":"0302","frp":14.1,"b":348.9,"c":1,"s":"N21","n":0}},{"type":"Feature","geometry":{"type":"Point","coordinates":[147.9224,-25.1898]},"properties":{"d":"2026-10-05","t":"0302","frp":14.1,"b":367.0,"c":2,"s":"N21","n":0}},{"type":"Feature","geometry":{"type":"Point","coordinates":[147.9271,-25.1895]},"properties":{"d":"2026-10-05","t":"0302","frp":24.5,"b":367.0,"c":2,"s":"N21","n":0}},{"type":"Feature","geometry":{"type":"Point","coordinates":[147.9318,-25.1891]},"properties":{"d":"2026-10-05","t":"0302","frp":24.5,"b":367.0,"c":2,"s":"N21","n":0}},{"type":"Feature","geometry":{"type":"Point","coordinates":[147.9367,-25.1888]},"properties":{"d":"2026-10-05","t":"0302","frp":16.4,"b":334.0,"c":1,"s":"N21","n":0}},{"type":"Feature","geometry":{"type":"Point","coordinates":[147.9264,-25.1834]},"properties":{"d":"2026-10-05","t":"0302","frp":12.1,"b":339.5,"c":1,"s":"N21","n":0}},{"type":"Feature","geometry":{"type":"Point","coordinates":[147.9561,-25.1731]},"properties":{"d":"2026-10-05","t":"0302","frp":22.3,"b":351.3,"c":1,"s":"N21","n":0}},{"type":"Feature","geometry":{"type":"Point","coordinates":[147.9501,-25.1695]},"properties":{"d":"2026-10-05","t":"0302","frp":22.2,"b":367.0,"c":2,"s":"N21","n":0}},{"type":"Feature","geometry":{"type":"Point","coordinates":[147.955,-25.1692]},"properties":{"d":"2026-10-05","t":"0302","frp":50.5,"b":367.0,"c":2,"s":"N21","n":0}},{"type":"Feature","geometry":{"type":"Point","coordinates":[147.9506,-25.1674]},"properties":{"d":"2026-10-05","t":"0302","frp":36.6,"b":367.0,"c":2,"s":"N21","n":0}},{"type":"Feature","geometry":{"type":"Point","coordinates":[147.9556,-25.1671]},"properties":{"d":"2026-10-05","t":"0302","frp":22.3,"b":367.0,"c":2,"s":"N21","n":0}},{"type":"Feature","geometry":{"type":"Point","coordinates":[147.7562,-25.1651]},"properties":{"d":"2026-10-05","t":"0302","frp":14.5,"b":344.9,"c":1,"s":"N21","n":0}},{"type":"Feature","geometry":{"type":"Point","coordinates":[147.7655,-25.1644]},"properties":{"d":"2026-10-05","t":"0302","frp":11.7,"b":348.7,"c":1,"s":"N21","n":0}},{"type":"Feature","geometry":{"type":"Point","coordinates":[147.7572,-25.1642]},"properties":{"d":"2026-10-05","t":"0302","frp":16.4,"b":367.0,"c":2,"s":"N21","n":0}},{"type":"Feature","geometry":{"type":"Point","coordinates":[147.9446,-25.1639]},"properties":{"d":"2026-10-05","t":"0302","frp":22.2,"b":331.0,"c":1,"s":"N21","n":0}},{"type":"Feature","geometry":{"type":"Point","coordinates":[147.7665,-25.1635]},"properties":{"d":"2026-10-05","t":"0302","frp":7.4,"b":350.6,"c":1,"s":"N21","n":0}},{"type":"Feature","geometry":{"type":"Point","coordinates":[147.7559,-25.159]},"properties":{"d":"2026-10-05","t":"0302","frp":5.9,"b":337.2,"c":1,"s":"N21","n":0}},{"type":"Feature","geometry":{"type":"Point","coordinates":[147.7452,-25.1344]},"properties":{"d":"2026-10-05","t":"0302","frp":7.6,"b":332.3,"c":1,"s":"N21","n":0}},{"type":"Feature","geometry":{"type":"Point","coordinates":[147.7937,-25.1308]},"properties":{"d":"2026-10-05","t":"0302","frp":6.2,"b":334.7,"c":1,"s":"N21","n":0}},{"type":"Feature","geometry":{"type":"Point","coordinates":[147.7492,-25.1279]},"properties":{"d":"2026-10-05","t":"0302","frp":10.5,"b":355.2,"c":1,"s":"N21","n":0}},{"type":"Feature","geometry":{"type":"Point","coordinates":[147.7787,-25.1258]},"properties":{"d":"2026-10-05","t":"0302","frp":14.6,"b":336.6,"c":1,"s":"N21","n":0}},{"type":"Feature","geometry":{"type":"Point","coordinates":[147.7836,-25.1254]},"properties":{"d":"2026-10-05","t":"0302","frp":12.4,"b":335.3,"c":1,"s":"N21","n":0}},{"type":"Feature","geometry":{"type":"Point","coordinates":[147.7487,-25.1218]},"properties":{"d":"2026-10-05","t":"0302","frp":10.5,"b":339.9,"c":1,"s":"N21","n":0}},{"type":"Feature","geometry":{"type":"Point","coordinates":[147.7536,-25.1215]},"properties":{"d":"2026-10-05","t":"0302","frp":24.7,"b":342.4,"c":1,"s":"N21","n":0}},{"type":"Feature","geometry":{"type":"Point","coordinates":[147.7684,-25.1204]},"properties":{"d":"2026-10-05","t":"0302","frp":17.2,"b":339.9,"c":1,"s":"N21","n":0}},{"type":"Feature","geometry":{"type":"Point","coordinates":[147.7734,-25.12]},"properties":{"d":"2026-10-05","t":"0302","frp":14.6,"b":341.0,"c":1,"s":"N21","n":0}},{"type":"Feature","geometry":{"type":"Point","coordinates":[147.7833,-25.1193]},"properties":{"d":"2026-10-05","t":"0302","frp":12.4,"b":367.0,"c":2,"s":"N21","n":0}},{"type":"Feature","geometry":{"type":"Point","coordinates":[147.788,-25.1189]},"properties":{"d":"2026-10-05","t":"0302","frp":12.4,"b":341.2,"c":1,"s":"N21","n":0}},{"type":"Feature","geometry":{"type":"Point","coordinates":[147.7929,-25.1186]},"properties":{"d":"2026-10-05","t":"0302","frp":14.9,"b":333.7,"c":1,"s":"N21","n":0}},{"type":"Feature","geometry":{"type":"Point","coordinates":[148.1711,-24.4577]},"properties":{"d":"2026-10-05","t":"0302","frp":5.3,"b":332.2,"c":1,"s":"N21","n":0}},{"type":"Feature","geometry":{"type":"Point","coordinates":[148.962,-24.4211]},"properties":{"d":"2026-10-05","t":"0302","frp":3.1,"b":331.4,"c":0,"s":"N21","n":0}},{"type":"Feature","geometry":{"type":"Point","coordinates":[149.5445,-24.163]},"properties":{"d":"2026-10-05","t":"0302","frp":2.4,"b":333.6,"c":1,"s":"N21","n":0}},{"type":"Feature","geometry":{"type":"Point","coordinates":[149.4691,-24.1259]},"properties":{"d":"2026-10-05","t":"0302","frp":5.0,"b":340.5,"c":1,"s":"N21","n":0}},{"type":"Feature","geometry":{"type":"Point","coordinates":[149.4914,-24.1185]},"properties":{"d":"2026-10-05","t":"0302","frp":1.9,"b":334.2,"c":1,"s":"N21","n":0}},{"type":"Feature","geometry":{"type":"Point","coordinates":[149.2417,-24.0512]},"properties":{"d":"2026-10-05","t":"0302","frp":8.5,"b":367.0,"c":2,"s":"N21","n":0}},{"type":"Feature","geometry":{"type":"Point","coordinates":[149.2336,-24.0463]},"properties":{"d":"2026-10-05","t":"0302","frp":5.0,"b":339.9,"c":1,"s":"N21","n":0}},{"type":"Feature","geometry":{"type":"Point","coordinates":[149.221,-24.0363]},"properties":{"d":"2026-10-05","t":"0302","frp":12.1,"b":367.0,"c":2,"s":"N21","n":0}},{"type":"Feature","geometry":{"type":"Point","coordinates":[149.2248,-24.0359]},"properties":{"d":"2026-10-05","t":"0302","frp":12.1,"b":344.6,"c":1,"s":"N21","n":0}},{"type":"Feature","geometry":{"type":"Point","coordinates":[149.2203,-24.0308]},"properties":{"d":"2026-10-05","t":"0302","frp":12.1,"b":367.0,"c":2,"s":"N21","n":0}},{"type":"Feature","geometry":{"type":"Point","coordinates":[149.2237,-24.0249]},"properties":{"d":"2026-10-05","t":"0302","frp":51.1,"b":351.7,"c":1,"s":"N21","n":0}},{"type":"Feature","geometry":{"type":"Point","coordinates":[149.227,-24.019]},"properties":{"d":"2026-10-05","t":"0302","frp":39.2,"b":367.0,"c":2,"s":"N21","n":0}},{"type":"Feature","geometry":{"type":"Point","coordinates":[149.4265,-23.8834]},"properties":{"d":"2026-10-05","t":"0302","frp":4.0,"b":331.1,"c":1,"s":"N21","n":0}},{"type":"Feature","geometry":{"type":"Point","coordinates":[148.332,-23.3015]},"properties":{"d":"2026-10-05","t":"0302","frp":2.0,"b":333.5,"c":1,"s":"N21","n":0}},{"type":"Feature","geometry":{"type":"Point","coordinates":[148.5911,-23.0502]},"properties":{"d":"2026-10-05","t":"0302","frp":3.2,"b":330.1,"c":0,"s":"N21","n":0}},{"type":"Feature","geometry":{"type":"Point","coordinates":[150.3781,-22.6295]},"properties":{"d":"2026-10-05","t":"0302","frp":2.1,"b":332.3,"c":1,"s":"N21","n":0}},{"type":"Feature","geometry":{"type":"Point","coordinates":[150.3774,-22.6245]},"properties":{"d":"2026-10-05","t":"0302","frp":7.5,"b":367.0,"c":2,"s":"N21","n":0}},{"type":"Feature","geometry":{"type":"Point","coordinates":[149.3649,-21.775]},"properties":{"d":"2026-10-05","t":"0304","frp":7.9,"b":333.5,"c":1,"s":"N21","n":0}},{"type":"Feature","geometry":{"type":"Point","coordinates":[149.3683,-21.7746]},"properties":{"d":"2026-10-05","t":"0304","frp":8.8,"b":367.0,"c":2,"s":"N21","n":0}},{"type":"Feature","geometry":{"type":"Point","coordinates":[149.3717,-21.7743]},"properties":{"d":"2026-10-05","t":"0304","frp":8.8,"b":367.0,"c":2,"s":"N21","n":0}},{"type":"Feature","geometry":{"type":"Point","coordinates":[149.3712,-21.769]},"properties":{"d":"2026-10-05","t":"0304","frp":8.8,"b":330.4,"c":1,"s":"N21","n":0}},{"type":"Feature","geometry":{"type":"Point","coordinates":[146.2247,-19.6291]},"properties":{"d":"2026-10-05","t":"0304","frp":8.7,"b":350.7,"c":1,"s":"N21","n":0}},{"type":"Feature","geometry":{"type":"Point","coordinates":[146.2264,-19.6258]},"properties":{"d":"2026-10-05","t":"0304","frp":7.3,"b":345.0,"c":1,"s":"N21","n":0}},{"type":"Feature","geometry":{"type":"Point","coordinates":[146.2201,-19.6136]},"properties":{"d":"2026-10-05","t":"0304","frp":3.5,"b":331.5,"c":0,"s":"N21","n":0}},{"type":"Feature","geometry":{"type":"Point","coordinates":[145.69,-18.6859]},"properties":{"d":"2026-10-05","t":"0304","frp":9.3,"b":343.6,"c":1,"s":"N21","n":0}},{"type":"Feature","geometry":{"type":"Point","coordinates":[145.0872,-16.481]},"properties":{"d":"2026-10-05","t":"0304","frp":10.9,"b":333.0,"c":1,"s":"N21","n":0}},{"type":"Feature","geometry":{"type":"Point","coordinates":[145.0911,-16.4801]},"properties":{"d":"2026-10-05","t":"0304","frp":7.9,"b":340.9,"c":1,"s":"N21","n":0}},{"type":"Feature","geometry":{"type":"Point","coordinates":[145.1052,-16.4726]},"properties":{"d":"2026-10-05","t":"0304","frp":10.9,"b":333.9,"c":1,"s":"N21","n":0}},{"type":"Feature","geometry":{"type":"Point","coordinates":[145.1028,-16.4724]},"properties":{"d":"2026-10-05","t":"0304","frp":9.2,"b":337.8,"c":1,"s":"N21","n":0}},{"type":"Feature","geometry":{"type":"Point","coordinates":[145.0996,-16.4666]},"properties":{"d":"2026-10-05","t":"0304","frp":13.2,"b":339.8,"c":1,"s":"N21","n":0}},{"type":"Feature","geometry":{"type":"Point","coordinates":[145.1017,-16.4659]},"properties":{"d":"2026-10-05","t":"0304","frp":16.0,"b":348.0,"c":1,"s":"N21","n":0}},{"type":"Feature","geometry":{"type":"Point","coordinates":[145.1139,-16.4652]},"properties":{"d":"2026-10-05","t":"0304","frp":11.8,"b":333.4,"c":1,"s":"N21","n":0}},{"type":"Feature","geometry":{"type":"Point","coordinates":[145.1113,-16.465]},"properties":{"d":"2026-10-05","t":"0304","frp":11.7,"b":331.7,"c":1,"s":"N21","n":0}},{"type":"Feature","geometry":{"type":"Point","coordinates":[145.0879,-16.4611]},"properties":{"d":"2026-10-05","t":"0304","frp":13.2,"b":336.4,"c":1,"s":"N21","n":0}},{"type":"Feature","geometry":{"type":"Point","coordinates":[145.0847,-16.4609]},"properties":{"d":"2026-10-05","t":"0304","frp":9.4,"b":331.4,"c":1,"s":"N21","n":0}},{"type":"Feature","geometry":{"type":"Point","coordinates":[145.0941,-16.4605]},"properties":{"d":"2026-10-05","t":"0304","frp":13.2,"b":367.0,"c":2,"s":"N21","n":0}},{"type":"Feature","geometry":{"type":"Point","coordinates":[145.0911,-16.4603]},"properties":{"d":"2026-10-05","t":"0304","frp":9.4,"b":353.2,"c":1,"s":"N21","n":0}},{"type":"Feature","geometry":{"type":"Point","coordinates":[145.0987,-16.4601]},"properties":{"d":"2026-10-05","t":"0304","frp":13.2,"b":344.6,"c":1,"s":"N21","n":0}},{"type":"Feature","geometry":{"type":"Point","coordinates":[145.0966,-16.4597]},"properties":{"d":"2026-10-05","t":"0304","frp":16.0,"b":348.4,"c":1,"s":"N21","n":0}},{"type":"Feature","geometry":{"type":"Point","coordinates":[144.2043,-15.7648]},"properties":{"d":"2026-10-05","t":"0304","frp":5.2,"b":330.4,"c":1,"s":"N21","n":0}},{"type":"Feature","geometry":{"type":"Point","coordinates":[144.202,-15.7512]},"properties":{"d":"2026-10-05","t":"0304","frp":14.4,"b":351.5,"c":1,"s":"N21","n":0}},{"type":"Feature","geometry":{"type":"Point","coordinates":[144.6293,-15.6183]},"properties":{"d":"2026-10-05","t":"0304","frp":8.1,"b":333.9,"c":1,"s":"N21","n":0}},{"type":"Feature","geometry":{"type":"Point","coordinates":[144.6353,-15.611]},"properties":{"d":"2026-10-05","t":"0304","frp":8.1,"b":333.4,"c":1,"s":"N21","n":0}},{"type":"Feature","geometry":{"type":"Point","coordinates":[144.6405,-15.5903]},"properties":{"d":"2026-10-05","t":"0304","frp":8.9,"b":336.7,"c":1,"s":"N21","n":0}},{"type":"Feature","geometry":{"type":"Point","coordinates":[144.637,-15.5728]},"properties":{"d":"2026-10-05","t":"0304","frp":17.1,"b":340.6,"c":1,"s":"N21","n":0}},{"type":"Feature","geometry":{"type":"Point","coordinates":[144.6301,-15.5601]},"properties":{"d":"2026-10-05","t":"0304","frp":16.1,"b":333.4,"c":1,"s":"N21","n":0}},{"type":"Feature","geometry":{"type":"Point","coordinates":[144.6306,-15.5577]},"properties":{"d":"2026-10-05","t":"0304","frp":13.6,"b":336.6,"c":1,"s":"N21","n":0}},{"type":"Feature","geometry":{"type":"Point","coordinates":[144.6292,-15.5534]},"properties":{"d":"2026-10-05","t":"0304","frp":7.6,"b":330.0,"c":1,"s":"N21","n":0}},{"type":"Feature","geometry":{"type":"Point","coordinates":[144.6238,-15.5516]},"properties":{"d":"2026-10-05","t":"0304","frp":10.0,"b":332.4,"c":1,"s":"N21","n":0}},{"type":"Feature","geometry":{"type":"Point","coordinates":[144.6216,-15.5407]},"properties":{"d":"2026-10-05","t":"0304","frp":11.9,"b":337.7,"c":1,"s":"N21","n":0}},{"type":"Feature","geometry":{"type":"Point","coordinates":[144.6154,-15.5389]},"properties":{"d":"2026-10-05","t":"0304","frp":9.2,"b":332.6,"c":1,"s":"N21","n":0}},{"type":"Feature","geometry":{"type":"Point","coordinates":[144.6069,-15.5288]},"properties":{"d":"2026-10-05","t":"0304","frp":11.2,"b":332.9,"c":1,"s":"N21","n":0}},{"type":"Feature","geometry":{"type":"Point","coordinates":[144.5009,-14.783]},"properties":{"d":"2026-10-05","t":"0306","frp":39.5,"b":367.0,"c":2,"s":"N21","n":0}},{"type":"Feature","geometry":{"type":"Point","coordinates":[144.5003,-14.7763]},"properties":{"d":"2026-10-05","t":"0306","frp":13.8,"b":352.3,"c":1,"s":"N21","n":0}},{"type":"Feature","geometry":{"type":"Point","coordinates":[144.5063,-14.7757]},"properties":{"d":"2026-10-05","t":"0306","frp":11.0,"b":331.6,"c":1,"s":"N21","n":0}},{"type":"Feature","geometry":{"type":"Point","coordinates":[144.5122,-14.7751]},"properties":{"d":"2026-10-05","t":"0306","frp":11.0,"b":340.1,"c":1,"s":"N21","n":0}},{"type":"Feature","geometry":{"type":"Point","coordinates":[143.8442,-14.702]},"properties":{"d":"2026-10-05","t":"0306","frp":23.4,"b":367.0,"c":2,"s":"N21","n":0}},{"type":"Feature","geometry":{"type":"Point","coordinates":[143.8447,-14.7018]},"properties":{"d":"2026-10-05","t":"0306","frp":23.5,"b":367.0,"c":2,"s":"N21","n":0}},{"type":"Feature","geometry":{"type":"Point","coordinates":[143.8403,-14.6534]},"properties":{"d":"2026-10-05","t":"0306","frp":13.2,"b":333.7,"c":1,"s":"N21","n":0}},{"type":"Feature","geometry":{"type":"Point","coordinates":[143.1748,-13.5721]},"properties":{"d":"2026-10-05","t":"0306","frp":12.3,"b":336.2,"c":1,"s":"N21","n":0}},{"type":"Feature","geometry":{"type":"Point","coordinates":[143.1462,-13.4944]},"properties":{"d":"2026-10-05","t":"0306","frp":32.9,"b":345.3,"c":1,"s":"N21","n":0}},{"type":"Feature","geometry":{"type":"Point","coordinates":[143.1528,-13.4937]},"properties":{"d":"2026-10-05","t":"0306","frp":32.9,"b":367.0,"c":2,"s":"N21","n":0}},{"type":"Feature","geometry":{"type":"Point","coordinates":[143.1451,-13.4916]},"properties":{"d":"2026-10-05","t":"0306","frp":24.7,"b":331.7,"c":1,"s":"N21","n":0}},{"type":"Feature","geometry":{"type":"Point","coordinates":[143.1516,-13.4909]},"properties":{"d":"2026-10-05","t":"0306","frp":33.2,"b":367.0,"c":2,"s":"N21","n":0}},{"type":"Feature","geometry":{"type":"Point","coordinates":[143.1584,-13.4902]},"properties":{"d":"2026-10-05","t":"0306","frp":33.2,"b":367.0,"c":2,"s":"N21","n":0}},{"type":"Feature","geometry":{"type":"Point","coordinates":[143.1588,-13.4859]},"properties":{"d":"2026-10-05","t":"0306","frp":22.2,"b":367.0,"c":2,"s":"N21","n":0}},{"type":"Feature","geometry":{"type":"Point","coordinates":[143.1576,-13.4832]},"properties":{"d":"2026-10-05","t":"0306","frp":33.2,"b":337.6,"c":1,"s":"N21","n":0}},{"type":"Feature","geometry":{"type":"Point","coordinates":[143.1581,-13.4788]},"properties":{"d":"2026-10-05","t":"0306","frp":22.2,"b":354.9,"c":1,"s":"N21","n":0}},{"type":"Feature","geometry":{"type":"Point","coordinates":[143.1569,-13.4761]},"properties":{"d":"2026-10-05","t":"0306","frp":28.3,"b":339.0,"c":1,"s":"N21","n":0}},{"type":"Feature","geometry":{"type":"Point","coordinates":[143.1637,-13.4754]},"properties":{"d":"2026-10-05","t":"0306","frp":14.7,"b":340.4,"c":1,"s":"N21","n":0}},{"type":"Feature","geometry":{"type":"Point","coordinates":[143.1574,-13.4718]},"properties":{"d":"2026-10-05","t":"0306","frp":14.2,"b":334.1,"c":1,"s":"N21","n":0}},{"type":"Feature","geometry":{"type":"Point","coordinates":[143.1642,-13.471]},"properties":{"d":"2026-10-05","t":"0306","frp":14.2,"b":337.5,"c":1,"s":"N21","n":0}},{"type":"Feature","geometry":{"type":"Point","coordinates":[143.163,-13.4683]},"properties":{"d":"2026-10-05","t":"0306","frp":14.7,"b":347.4,"c":1,"s":"N21","n":0}},{"type":"Feature","geometry":{"type":"Point","coordinates":[143.14,-13.4377]},"properties":{"d":"2026-10-05","t":"0306","frp":12.9,"b":330.4,"c":1,"s":"N21","n":0}},{"type":"Feature","geometry":{"type":"Point","coordinates":[143.1347,-13.4265]},"properties":{"d":"2026-10-05","t":"0306","frp":22.6,"b":329.8,"c":1,"s":"N21","n":0}},{"type":"Feature","geometry":{"type":"Point","coordinates":[143.1418,-13.4257]},"properties":{"d":"2026-10-05","t":"0306","frp":27.0,"b":337.6,"c":1,"s":"N21","n":0}},{"type":"Feature","geometry":{"type":"Point","coordinates":[143.1386,-13.4235]},"properties":{"d":"2026-10-05","t":"0306","frp":28.1,"b":367.0,"c":2,"s":"N21","n":0}},{"type":"Feature","geometry":{"type":"Point","coordinates":[143.1341,-13.4194]},"properties":{"d":"2026-10-05","t":"0306","frp":22.6,"b":367.0,"c":2,"s":"N21","n":0}},{"type":"Feature","geometry":{"type":"Point","coordinates":[143.1309,-13.4171]},"properties":{"d":"2026-10-05","t":"0306","frp":38.4,"b":367.0,"c":2,"s":"N21","n":0}},{"type":"Feature","geometry":{"type":"Point","coordinates":[143.1193,-13.4138]},"properties":{"d":"2026-10-05","t":"0306","frp":51.2,"b":367.0,"c":2,"s":"N21","n":0}},{"type":"Feature","geometry":{"type":"Point","coordinates":[143.1264,-13.413]},"properties":{"d":"2026-10-05","t":"0306","frp":24.1,"b":354.3,"c":1,"s":"N21","n":0}},{"type":"Feature","geometry":{"type":"Point","coordinates":[143.1335,-13.4123]},"properties":{"d":"2026-10-05","t":"0306","frp":24.1,"b":333.8,"c":1,"s":"N21","n":0}},{"type":"Feature","geometry":{"type":"Point","coordinates":[143.116,-13.4115]},"properties":{"d":"2026-10-05","t":"0306","frp":34.8,"b":355.6,"c":1,"s":"N21","n":0}},{"type":"Feature","geometry":{"type":"Point","coordinates":[143.1231,-13.4107]},"properties":{"d":"2026-10-05","t":"0306","frp":38.4,"b":367.0,"c":2,"s":"N21","n":0}},{"type":"Feature","geometry":{"type":"Point","coordinates":[143.3655,-12.7497]},"properties":{"d":"2026-10-05","t":"0306","frp":11.9,"b":336.7,"c":1,"s":"N21","n":0}},{"type":"Feature","geometry":{"type":"Point","coordinates":[142.6504,-11.9636]},"properties":{"d":"2026-10-05","t":"0306","frp":6.0,"b":330.2,"c":1,"s":"N21","n":0}},{"type":"Feature","geometry":{"type":"Point","coordinates":[152.8139,-11.1332]},"properties":{"d":"2026-10-05","t":"0306","frp":3.1,"b":330.3,"c":0,"s":"N21","n":0}},{"type":"Feature","geometry":{"type":"Point","coordinates":[150.0458,-10.4114]},"properties":{"d":"2026-10-05","t":"0306","frp":7.9,"b":330.8,"c":1,"s":"N21","n":0}},{"type":"Feature","geometry":{"type":"Point","coordinates":[149.8804,-10.353]},"properties":{"d":"2026-10-05","t":"0306","frp":2.9,"b":331.9,"c":1,"s":"N21","n":0}},{"type":"Feature","geometry":{"type":"Point","coordinates":[150.4589,-10.2082]},"properties":{"d":"2026-10-05","t":"0306","frp":28.1,"b":367.0,"c":2,"s":"N21","n":0}},{"type":"Feature","geometry":{"type":"Point","coordinates":[150.4622,-10.2034]},"properties":{"d":"2026-10-05","t":"0306","frp":4.8,"b":335.0,"c":1,"s":"N21","n":0}},{"type":"Feature","geometry":{"type":"Point","coordinates":[148.47,-10.1885]},"properties":{"d":"2026-10-05","t":"0306","frp":8.2,"b":339.5,"c":1,"s":"N21","n":0}},{"type":"Feature","geometry":{"type":"Point","coordinates":[148.0086,-10.1015]},"properties":{"d":"2026-10-05","t":"0306","frp":3.0,"b":331.5,"c":1,"s":"N21","n":0}},{"type":"Feature","geometry":{"type":"Point","coordinates":[147.9993,-10.0976]},"properties":{"d":"2026-10-05","t":"0306","frp":7.3,"b":367.0,"c":2,"s":"N21","n":0}},{"type":"Feature","geometry":{"type":"Point","coordinates":[147.9835,-10.0895]},"properties":{"d":"2026-10-05","t":"0306","frp":2.6,"b":330.7,"c":1,"s":"N21","n":0}},{"type":"Feature","geometry":{"type":"Point","coordinates":[151.1061,-10.0615]},"properties":{"d":"2026-10-05","t":"0306","frp":6.8,"b":336.4,"c":1,"s":"N21","n":0}},{"type":"Feature","geometry":{"type":"Point","coordinates":[149.9158,-10.0612]},"properties":{"d":"2026-10-05","t":"0306","frp":5.7,"b":329.8,"c":1,"s":"N21","n":0}},{"type":"Feature","geometry":{"type":"Point","coordinates":[151.1565,-10.0256]},"properties":{"d":"2026-10-05","t":"0306","frp":2.7,"b":331.1,"c":1,"s":"N21","n":0}},{"type":"Feature","geometry":{"type":"Point","coordinates":[148.0403,-10.0002]},"properties":{"d":"2026-10-05","t":"0306","frp":4.4,"b":329.4,"c":1,"s":"N21","n":0}},{"type":"Feature","geometry":{"type":"Point","coordinates":[147.8162,-9.9789]},"properties":{"d":"2026-10-05","t":"0306","frp":17.3,"b":353.5,"c":1,"s":"N21","n":0}},{"type":"Feature","geometry":{"type":"Point","coordinates":[147.8192,-9.9785]},"properties":{"d":"2026-10-05","t":"0306","frp":12.8,"b":337.4,"c":1,"s":"N21","n":0}},{"type":"Feature","geometry":{"type":"Point","coordinates":[147.8157,-9.9779]},"properties":{"d":"2026-10-05","t":"0306","frp":12.1,"b":352.7,"c":1,"s":"N21","n":0}},{"type":"Feature","geometry":{"type":"Point","coordinates":[147.8187,-9.9775]},"properties":{"d":"2026-10-05","t":"0306","frp":12.1,"b":367.0,"c":2,"s":"N21","n":0}},{"type":"Feature","geometry":{"type":"Point","coordinates":[150.9258,-9.9621]},"properties":{"d":"2026-10-05","t":"0306","frp":2.0,"b":329.7,"c":1,"s":"N21","n":0}},{"type":"Feature","geometry":{"type":"Point","coordinates":[149.5191,-9.9445]},"properties":{"d":"2026-10-05","t":"0306","frp":11.2,"b":338.2,"c":1,"s":"N21","n":0}},{"type":"Feature","geometry":{"type":"Point","coordinates":[149.8037,-9.9327]},"properties":{"d":"2026-10-05","t":"0306","frp":12.8,"b":345.9,"c":1,"s":"N21","n":0}},{"type":"Feature","geometry":{"type":"Point","coordinates":[149.8027,-9.9326]},"properties":{"d":"2026-10-05","t":"0306","frp":9.9,"b":340.5,"c":1,"s":"N21","n":0}},{"type":"Feature","geometry":{"type":"Point","coordinates":[149.8066,-9.9321]},"properties":{"d":"2026-10-05","t":"0306","frp":9.9,"b":340.5,"c":1,"s":"N21","n":0}},{"type":"Feature","geometry":{"type":"Point","coordinates":[149.8023,-9.9284]},"properties":{"d":"2026-10-05","t":"0306","frp":12.8,"b":347.5,"c":1,"s":"N21","n":0}},{"type":"Feature","geometry":{"type":"Point","coordinates":[149.8012,-9.9283]},"properties":{"d":"2026-10-05","t":"0306","frp":9.9,"b":342.2,"c":1,"s":"N21","n":0}},{"type":"Feature","geometry":{"type":"Point","coordinates":[147.7916,-9.9255]},"properties":{"d":"2026-10-05","t":"0306","frp":2.1,"b":333.7,"c":1,"s":"N21","n":0}},{"type":"Feature","geometry":{"type":"Point","coordinates":[149.3308,-9.8484]},"properties":{"d":"2026-10-05","t":"0306","frp":19.9,"b":342.9,"c":1,"s":"N21","n":0}},{"type":"Feature","geometry":{"type":"Point","coordinates":[149.3294,-9.844]},"properties":{"d":"2026-10-05","t":"0306","frp":13.1,"b":336.8,"c":1,"s":"N21","n":0}},{"type":"Feature","geometry":{"type":"Point","coordinates":[149.3342,-9.8433]},"properties":{"d":"2026-10-05","t":"0306","frp":13.1,"b":367.0,"c":2,"s":"N21","n":0}},{"type":"Feature","geometry":{"type":"Point","coordinates":[148.6169,-9.8321]},"properties":{"d":"2026-10-05","t":"0306","frp":12.3,"b":344.7,"c":1,"s":"N21","n":0}},{"type":"Feature","geometry":{"type":"Point","coordinates":[147.7703,-9.821]},"properties":{"d":"2026-10-05","t":"0306","frp":10.4,"b":367.0,"c":2,"s":"N21","n":0}},{"type":"Feature","geometry":{"type":"Point","coordinates":[147.7732,-9.8206]},"properties":{"d":"2026-10-05","t":"0306","frp":7.9,"b":346.4,"c":1,"s":"N21","n":0}},{"type":"Feature","geometry":{"type":"Point","coordinates":[149.2638,-9.8156]},"properties":{"d":"2026-10-05","t":"0306","frp":34.5,"b":332.1,"c":0,"s":"N21","n":0}},{"type":"Feature","geometry":{"type":"Point","coordinates":[149.2694,-9.8149]},"properties":{"d":"2026-10-05","t":"0306","frp":39.5,"b":343.2,"c":1,"s":"N21","n":0}},{"type":"Feature","geometry":{"type":"Point","coordinates":[149.2572,-9.8119]},"properties":{"d":"2026-10-05","t":"0306","frp":34.5,"b":335.1,"c":1,"s":"N21","n":0}},{"type":"Feature","geometry":{"type":"Point","coordinates":[149.2627,-9.8111]},"properties":{"d":"2026-10-05","t":"0306","frp":34.5,"b":353.2,"c":1,"s":"N21","n":0}},{"type":"Feature","geometry":{"type":"Point","coordinates":[149.2561,-9.8073]},"properties":{"d":"2026-10-05","t":"0306","frp":20.5,"b":327.2,"c":1,"s":"N21","n":0}},{"type":"Feature","geometry":{"type":"Point","coordinates":[149.2617,-9.8066]},"properties":{"d":"2026-10-05","t":"0306","frp":20.5,"b":343.5,"c":1,"s":"N21","n":0}},{"type":"Feature","geometry":{"type":"Point","coordinates":[150.8576,-9.805]},"properties":{"d":"2026-10-05","t":"0306","frp":3.7,"b":330.2,"c":1,"s":"N21","n":0}},{"type":"Feature","geometry":{"type":"Point","coordinates":[149.3539,-9.8037]},"properties":{"d":"2026-10-05","t":"0306","frp":14.8,"b":339.7,"c":1,"s":"N21","n":0}},{"type":"Feature","geometry":{"type":"Point","coordinates":[149.2551,-9.8028]},"properties":{"d":"2026-10-05","t":"0306","frp":20.5,"b":338.4,"c":1,"s":"N21","n":0}},{"type":"Feature","geometry":{"type":"Point","coordinates":[149.2561,-9.8021]},"properties":{"d":"2026-10-05","t":"0306","frp":14.4,"b":352.2,"c":1,"s":"N21","n":0}},{"type":"Feature","geometry":{"type":"Point","coordinates":[149.3573,-9.7987]},"properties":{"d":"2026-10-05","t":"0306","frp":8.2,"b":331.2,"c":1,"s":"N21","n":0}},{"type":"Feature","geometry":{"type":"Point","coordinates":[149.2682,-9.7826]},"properties":{"d":"2026-10-05","t":"0306","frp":11.9,"b":343.9,"c":1,"s":"N21","n":0}},{"type":"Feature","geometry":{"type":"Point","coordinates":[149.2641,-9.7825]},"properties":{"d":"2026-10-05","t":"0306","frp":11.6,"b":340.1,"c":1,"s":"N21","n":0}},{"type":"Feature","geometry":{"type":"Point","coordinates":[149.7564,-9.7773]},"properties":{"d":"2026-10-05","t":"0306","frp":8.1,"b":344.3,"c":1,"s":"N21","n":0}},{"type":"Feature","geometry":{"type":"Point","coordinates":[147.8399,-9.776]},"properties":{"d":"2026-10-05","t":"0306","frp":1.2,"b":327.1,"c":0,"s":"N21","n":0}},{"type":"Feature","geometry":{"type":"Point","coordinates":[147.7968,-9.767]},"properties":{"d":"2026-10-05","t":"0306","frp":3.3,"b":330.4,"c":1,"s":"N21","n":0}},{"type":"Feature","geometry":{"type":"Point","coordinates":[147.7945,-9.7664]},"properties":{"d":"2026-10-05","t":"0306","frp":2.3,"b":332.9,"c":1,"s":"N21","n":0}},{"type":"Feature","geometry":{"type":"Point","coordinates":[148.5828,-9.7631]},"properties":{"d":"2026-10-05","t":"0306","frp":5.7,"b":331.5,"c":0,"s":"N21","n":0}},{"type":"Feature","geometry":{"type":"Point","coordinates":[150.8147,-9.7616]},"properties":{"d":"2026-10-05","t":"0306","frp":2.5,"b":333.6,"c":1,"s":"N21","n":0}},{"type":"Feature","geometry":{"type":"Point","coordinates":[150.885,-9.7601]},"properties":{"d":"2026-10-05","t":"0306","frp":2.5,"b":331.6,"c":1,"s":"N21","n":0}},{"type":"Feature","geometry":{"type":"Point","coordinates":[147.8185,-9.7538]},"properties":{"d":"2026-10-05","t":"0306","frp":2.6,"b":327.4,"c":0,"s":"N21","n":0}},{"type":"Feature","geometry":{"type":"Point","coordinates":[148.5265,-9.7121]},"properties":{"d":"2026-10-05","t":"0306","frp":11.9,"b":346.3,"c":1,"s":"N21","n":0}},{"type":"Feature","geometry":{"type":"Point","coordinates":[148.5319,-9.7114]},"properties":{"d":"2026-10-05","t":"0306","frp":5.9,"b":328.7,"c":0,"s":"N21","n":0}},{"type":"Feature","geometry":{"type":"Point","coordinates":[147.7162,-9.7003]},"properties":{"d":"2026-10-05","t":"0306","frp":3.6,"b":335.9,"c":1,"s":"N21","n":0}},{"type":"Feature","geometry":{"type":"Point","coordinates":[147.8829,-9.6992]},"properties":{"d":"2026-10-05","t":"0306","frp":2.1,"b":331.4,"c":1,"s":"N21","n":0}},{"type":"Feature","geometry":{"type":"Point","coordinates":[147.6701,-9.6907]},"properties":{"d":"2026-10-05","t":"0306","frp":6.6,"b":334.2,"c":1,"s":"N21","n":0}},{"type":"Feature","geometry":{"type":"Point","coordinates":[147.8492,-9.6883]},"properties":{"d":"2026-10-05","t":"0306","frp":2.5,"b":333.6,"c":1,"s":"N21","n":0}},{"type":"Feature","geometry":{"type":"Point","coordinates":[147.6666,-9.6875]},"properties":{"d":"2026-10-05","t":"0306","frp":3.5,"b":328.6,"c":1,"s":"N21","n":0}},{"type":"Feature","geometry":{"type":"Point","coordinates":[147.6697,-9.6871]},"properties":{"d":"2026-10-05","t":"0306","frp":4.7,"b":333.4,"c":1,"s":"N21","n":0}},{"type":"Feature","geometry":{"type":"Point","coordinates":[148.4159,-9.6833]},"properties":{"d":"2026-10-05","t":"0306","frp":4.6,"b":331.0,"c":1,"s":"N21","n":0}},{"type":"Feature","geometry":{"type":"Point","coordinates":[147.6715,-9.6816]},"properties":{"d":"2026-10-05","t":"0306","frp":4.7,"b":348.2,"c":1,"s":"N21","n":0}},{"type":"Feature","geometry":{"type":"Point","coordinates":[147.6712,-9.6802]},"properties":{"d":"2026-10-05","t":"0306","frp":3.6,"b":340.5,"c":1,"s":"N21","n":0}},{"type":"Feature","geometry":{"type":"Point","coordinates":[148.681,-9.6434]},"properties":{"d":"2026-10-05","t":"0306","frp":6.3,"b":335.8,"c":1,"s":"N21","n":0}},{"type":"Feature","geometry":{"type":"Point","coordinates":[148.6792,-9.6426]},"properties":{"d":"2026-10-05","t":"0306","frp":4.7,"b":331.9,"c":1,"s":"N21","n":0}},{"type":"Feature","geometry":{"type":"Point","coordinates":[148.0556,-9.6413]},"properties":{"d":"2026-10-05","t":"0306","frp":6.8,"b":336.7,"c":1,"s":"N21","n":0}},{"type":"Feature","geometry":{"type":"Point","coordinates":[148.0578,-9.6395]},"properties":{"d":"2026-10-05","t":"0306","frp":9.9,"b":335.6,"c":1,"s":"N21","n":0}},{"type":"Feature","geometry":{"type":"Point","coordinates":[150.7631,-9.6355]},"properties":{"d":"2026-10-05","t":"0306","frp":7.8,"b":339.3,"c":1,"s":"N21","n":0}},{"type":"Feature","geometry":{"type":"Point","coordinates":[150.7397,-9.6219]},"properties":{"d":"2026-10-05","t":"0306","frp":2.6,"b":337.3,"c":1,"s":"N21","n":0}},{"type":"Feature","geometry":{"type":"Point","coordinates":[150.7652,-9.5932]},"properties":{"d":"2026-10-05","t":"0306","frp":2.5,"b":331.8,"c":1,"s":"N21","n":0}},{"type":"Feature","geometry":{"type":"Point","coordinates":[148.7705,-9.587]},"properties":{"d":"2026-10-05","t":"0306","frp":6.4,"b":332.5,"c":1,"s":"N21","n":0}},{"type":"Feature","geometry":{"type":"Point","coordinates":[148.278,-9.5648]},"properties":{"d":"2026-10-05","t":"0306","frp":5.7,"b":330.5,"c":1,"s":"N21","n":0}},{"type":"Feature","geometry":{"type":"Point","coordinates":[149.3504,-9.5568]},"properties":{"d":"2026-10-05","t":"0306","frp":4.0,"b":338.6,"c":1,"s":"N21","n":0}},{"type":"Feature","geometry":{"type":"Point","coordinates":[149.3525,-9.555]},"properties":{"d":"2026-10-05","t":"0306","frp":6.8,"b":339.2,"c":1,"s":"N21","n":0}},{"type":"Feature","geometry":{"type":"Point","coordinates":[149.3982,-9.5487]},"properties":{"d":"2026-10-05","t":"0306","frp":3.9,"b":328.8,"c":1,"s":"N21","n":0}},{"type":"Feature","geometry":{"type":"Point","coordinates":[148.2818,-9.5246]},"properties":{"d":"2026-10-05","t":"0306","frp":5.6,"b":330.0,"c":1,"s":"N21","n":0}},{"type":"Feature","geometry":{"type":"Point","coordinates":[150.5697,-9.5203]},"properties":{"d":"2026-10-05","t":"0306","frp":2.8,"b":330.8,"c":1,"s":"N21","n":0}},{"type":"Feature","geometry":{"type":"Point","coordinates":[150.5146,-9.4921]},"properties":{"d":"2026-10-05","t":"0306","frp":4.5,"b":338.8,"c":1,"s":"N21","n":0}},{"type":"Feature","geometry":{"type":"Point","coordinates":[148.8402,-9.4844]},"properties":{"d":"2026-10-05","t":"0306","frp":5.2,"b":330.0,"c":1,"s":"N21","n":0}},{"type":"Feature","geometry":{"type":"Point","coordinates":[148.3257,-9.4843]},"properties":{"d":"2026-10-05","t":"0306","frp":8.1,"b":331.2,"c":1,"s":"N21","n":0}},{"type":"Feature","geometry":{"type":"Point","coordinates":[148.845,-9.4838]},"properties":{"d":"2026-10-05","t":"0306","frp":4.8,"b":327.3,"c":1,"s":"N21","n":0}},{"type":"Feature","geometry":{"type":"Point","coordinates":[150.5134,-9.4837]},"properties":{"d":"2026-10-05","t":"0306","frp":4.2,"b":338.9,"c":1,"s":"N21","n":0}},{"type":"Feature","geometry":{"type":"Point","coordinates":[148.3278,-9.4804]},"properties":{"d":"2026-10-05","t":"0306","frp":14.7,"b":341.9,"c":1,"s":"N21","n":0}},{"type":"Feature","geometry":{"type":"Point","coordinates":[148.3299,-9.4788]},"properties":{"d":"2026-10-05","t":"0306","frp":13.6,"b":344.7,"c":1,"s":"N21","n":0}},{"type":"Feature","geometry":{"type":"Point","coordinates":[148.4247,-9.477]},"properties":{"d":"2026-10-05","t":"0306","frp":6.1,"b":334.8,"c":1,"s":"N21","n":0}},{"type":"Feature","geometry":{"type":"Point","coordinates":[150.3087,-9.4562]},"properties":{"d":"2026-10-05","t":"0306","frp":2.2,"b":337.1,"c":1,"s":"N21","n":0}},{"type":"Feature","geometry":{"type":"Point","coordinates":[148.7454,-9.4348]},"properties":{"d":"2026-10-05","t":"0306","frp":8.2,"b":339.3,"c":1,"s":"N21","n":0}},{"type":"Feature","geometry":{"type":"Point","coordinates":[148.7474,-9.4326]},"properties":{"d":"2026-10-05","t":"0306","frp":4.2,"b":339.6,"c":1,"s":"N21","n":0}},{"type":"Feature","geometry":{"type":"Point","coordinates":[148.7851,-9.4248]},"properties":{"d":"2026-10-05","t":"0306","frp":16.5,"b":336.1,"c":1,"s":"N21","n":0}},{"type":"Feature","geometry":{"type":"Point","coordinates":[148.7901,-9.4242]},"properties":{"d":"2026-10-05","t":"0306","frp":16.5,"b":341.0,"c":1,"s":"N21","n":0}},{"type":"Feature","geometry":{"type":"Point","coordinates":[148.787,-9.4224]},"properties":{"d":"2026-10-05","t":"0306","frp":22.9,"b":352.7,"c":1,"s":"N21","n":0}},{"type":"Feature","geometry":{"type":"Point","coordinates":[147.8909,-9.4221]},"properties":{"d":"2026-10-05","t":"0306","frp":4.2,"b":347.7,"c":1,"s":"N21","n":0}},{"type":"Feature","geometry":{"type":"Point","coordinates":[148.792,-9.4217]},"properties":{"d":"2026-10-05","t":"0306","frp":22.9,"b":326.9,"c":1,"s":"N21","n":0}},{"type":"Feature","geometry":{"type":"Point","coordinates":[148.7845,-9.4201]},"properties":{"d":"2026-10-05","t":"0306","frp":23.3,"b":336.9,"c":1,"s":"N21","n":0}},{"type":"Feature","geometry":{"type":"Point","coordinates":[148.7895,-9.4195]},"properties":{"d":"2026-10-05","t":"0306","frp":23.3,"b":353.0,"c":1,"s":"N21","n":0}},{"type":"Feature","geometry":{"type":"Point","coordinates":[148.7945,-9.4188]},"properties":{"d":"2026-10-05","t":"0306","frp":7.5,"b":328.1,"c":1,"s":"N21","n":0}},{"type":"Feature","geometry":{"type":"Point","coordinates":[148.7864,-9.4177]},"properties":{"d":"2026-10-05","t":"0306","frp":28.7,"b":355.1,"c":1,"s":"N21","n":0}},{"type":"Feature","geometry":{"type":"Point","coordinates":[148.7914,-9.417]},"properties":{"d":"2026-10-05","t":"0306","frp":28.7,"b":344.6,"c":1,"s":"N21","n":0}},{"type":"Feature","geometry":{"type":"Point","coordinates":[148.7889,-9.4148]},"properties":{"d":"2026-10-05","t":"0306","frp":23.3,"b":351.9,"c":1,"s":"N21","n":0}},{"type":"Feature","geometry":{"type":"Point","coordinates":[147.4372,-9.4095]},"properties":{"d":"2026-10-05","t":"0306","frp":2.9,"b":332.6,"c":1,"s":"N21","n":0}},{"type":"Feature","geometry":{"type":"Point","coordinates":[147.4434,-9.4087]},"properties":{"d":"2026-10-05","t":"0306","frp":4.7,"b":333.4,"c":1,"s":"N21","n":0}},{"type":"Feature","geometry":{"type":"Point","coordinates":[147.4464,-9.4084]},"properties":{"d":"2026-10-05","t":"0306","frp":4.7,"b":348.2,"c":1,"s":"N21","n":0}},{"type":"Feature","geometry":{"type":"Point","coordinates":[147.4643,-9.4008]},"properties":{"d":"2026-10-05","t":"0306","frp":4.9,"b":337.0,"c":1,"s":"N21","n":0}},{"type":"Feature","geometry":{"type":"Point","coordinates":[148.7123,-9.399]},"properties":{"d":"2026-10-05","t":"0306","frp":9.2,"b":331.8,"c":1,"s":"N21","n":0}},{"type":"Feature","geometry":{"type":"Point","coordinates":[148.706,-9.3902]},"properties":{"d":"2026-10-05","t":"0306","frp":5.1,"b":327.2,"c":0,"s":"N21","n":0}},{"type":"Feature","geometry":{"type":"Point","coordinates":[148.7722,-9.3861]},"properties":{"d":"2026-10-05","t":"0306","frp":30.6,"b":340.4,"c":1,"s":"N21","n":0}},{"type":"Feature","geometry":{"type":"Point","coordinates":[149.0601,-9.38]},"properties":{"d":"2026-10-05","t":"0306","frp":9.6,"b":339.7,"c":1,"s":"N21","n":0}},{"type":"Feature","geometry":{"type":"Point","coordinates":[149.0583,-9.3798]},"properties":{"d":"2026-10-05","t":"0306","frp":10.5,"b":339.6,"c":1,"s":"N21","n":0}},{"type":"Feature","geometry":{"type":"Point","coordinates":[150.5281,-9.3568]},"properties":{"d":"2026-10-05","t":"0306","frp":8.5,"b":335.0,"c":1,"s":"N21","n":0}},{"type":"Feature","geometry":{"type":"Point","coordinates":[148.7928,-9.3499]},"properties":{"d":"2026-10-05","t":"0306","frp":6.0,"b":335.7,"c":1,"s":"N21","n":0}},{"type":"Feature","geometry":{"type":"Point","coordinates":[149.0395,-9.3265]},"properties":{"d":"2026-10-05","t":"0306","frp":5.0,"b":333.2,"c":1,"s":"N21","n":0}},{"type":"Feature","geometry":{"type":"Point","coordinates":[147.0502,-9.2988]},"properties":{"d":"2026-10-05","t":"0306","frp":5.5,"b":339.6,"c":1,"s":"N21","n":0}},{"type":"Feature","geometry":{"type":"Point","coordinates":[147.0677,-9.2804]},"properties":{"d":"2026-10-05","t":"0306","frp":2.9,"b":338.9,"c":1,"s":"N21","n":0}},{"type":"Feature","geometry":{"type":"Point","coordinates":[148.6018,-9.2435]},"properties":{"d":"2026-10-05","t":"0306","frp":7.7,"b":336.0,"c":1,"s":"N21","n":0}},{"type":"Feature","geometry":{"type":"Point","coordinates":[148.5981,-9.2429]},"properties":{"d":"2026-10-05","t":"0306","frp":5.5,"b":338.8,"c":1,"s":"N21","n":0}},{"type":"Feature","geometry":{"type":"Point","coordinates":[147.0142,-9.2396]},"properties":{"d":"2026-10-05","t":"0306","frp":4.4,"b":329.2,"c":0,"s":"N21","n":0}},{"type":"Feature","geometry":{"type":"Point","coordinates":[148.6011,-9.2387]},"properties":{"d":"2026-10-05","t":"0306","frp":8.1,"b":333.2,"c":1,"s":"N21","n":0}},{"type":"Feature","geometry":{"type":"Point","coordinates":[148.6838,-9.2376]},"properties":{"d":"2026-10-05","t":"0306","frp":11.1,"b":339.6,"c":1,"s":"N21","n":0}},{"type":"Feature","geometry":{"type":"Point","coordinates":[148.6889,-9.2369]},"properties":{"d":"2026-10-05","t":"0306","frp":11.1,"b":335.0,"c":1,"s":"N21","n":0}},{"type":"Feature","geometry":{"type":"Point","coordinates":[148.685,-9.2356]},"properties":{"d":"2026-10-05","t":"0306","frp":11.7,"b":339.3,"c":1,"s":"N21","n":0}},{"type":"Feature","geometry":{"type":"Point","coordinates":[148.6056,-9.2333]},"properties":{"d":"2026-10-05","t":"0306","frp":8.1,"b":332.6,"c":1,"s":"N21","n":0}},{"type":"Feature","geometry":{"type":"Point","coordinates":[148.602,-9.2327]},"properties":{"d":"2026-10-05","t":"0306","frp":13.9,"b":340.1,"c":1,"s":"N21","n":0}},{"type":"Feature","geometry":{"type":"Point","coordinates":[152.9674,-9.2313]},"properties":{"d":"2026-10-05","t":"0306","frp":6.5,"b":333.3,"c":1,"s":"N21","n":0}},{"type":"Feature","geometry":{"type":"Point","coordinates":[152.8893,-9.2205]},"properties":{"d":"2026-10-05","t":"0306","frp":4.9,"b":340.9,"c":1,"s":"N21","n":0}},{"type":"Feature","geometry":{"type":"Point","coordinates":[147.2833,-9.1874]},"properties":{"d":"2026-10-05","t":"0306","frp":2.2,"b":329.8,"c":1,"s":"N21","n":0}},{"type":"Feature","geometry":{"type":"Point","coordinates":[148.8599,-9.1781]},"properties":{"d":"2026-10-05","t":"0306","frp":8.6,"b":339.0,"c":1,"s":"N21","n":0}},{"type":"Feature","geometry":{"type":"Point","coordinates":[147.2747,-9.1621]},"properties":{"d":"2026-10-05","t":"0306","frp":15.7,"b":367.0,"c":2,"s":"N21","n":0}},{"type":"Feature","geometry":{"type":"Point","coordinates":[147.183,-9.1105]},"properties":{"d":"2026-10-05","t":"0306","frp":2.7,"b":331.6,"c":1,"s":"N21","n":0}},{"type":"Feature","geometry":{"type":"Point","coordinates":[147.1816,-9.1097]},"properties":{"d":"2026-10-05","t":"0306","frp":2.8,"b":335.8,"c":1,"s":"N21","n":0}},{"type":"Feature","geometry":{"type":"Point","coordinates":[152.6789,-9.0636]},"properties":{"d":"2026-10-05","t":"0306","frp":16.6,"b":340.9,"c":1,"s":"N21","n":0}},{"type":"Feature","geometry":{"type":"Point","coordinates":[152.6773,-9.0527]},"properties":{"d":"2026-10-05","t":"0306","frp":6.5,"b":342.6,"c":1,"s":"N21","n":0}},{"type":"Feature","geometry":{"type":"Point","coordinates":[148.3926,-9.0512]},"properties":{"d":"2026-10-05","t":"0306","frp":3.7,"b":329.2,"c":1,"s":"N21","n":0}},{"type":"Feature","geometry":{"type":"Point","coordinates":[148.3956,-9.0507]},"properties":{"d":"2026-10-05","t":"0306","frp":4.3,"b":327.5,"c":1,"s":"N21","n":0}},{"type":"Feature","geometry":{"type":"Point","coordinates":[152.6235,-9.012]},"properties":{"d":"2026-10-05","t":"0306","frp":6.5,"b":339.0,"c":1,"s":"N21","n":0}},{"type":"Feature","geometry":{"type":"Point","coordinates":[152.6316,-9.0071]},"properties":{"d":"2026-10-05","t":"0306","frp":4.0,"b":331.4,"c":1,"s":"N21","n":0}},{"type":"Feature","geometry":{"type":"Point","coordinates":[142.5777,-9.1868]},"properties":{"d":"2026-10-05","t":"0308","frp":30.3,"b":342.7,"c":1,"s":"N21","n":0}},{"type":"Feature","geometry":{"type":"Point","coordinates":[142.5747,-9.1812]},"properties":{"d":"2026-10-05","t":"0308","frp":10.6,"b":334.4,"c":1,"s":"N21","n":0}},{"type":"Feature","geometry":{"type":"Point","coordinates":[142.3809,-9.0357]},"properties":{"d":"2026-10-05","t":"0308","frp":34.5,"b":367.0,"c":2,"s":"N21","n":0}},{"type":"Feature","geometry":{"type":"Point","coordinates":[142.5575,-9.0282]},"properties":{"d":"2026-10-05","t":"0308","frp":27.2,"b":367.0,"c":2,"s":"N21","n":0}},{"type":"Feature","geometry":{"type":"Point","coordinates":[142.5519,-9.028]},"properties":{"d":"2026-10-05","t":"0308","frp":26.4,"b":344.1,"c":1,"s":"N21","n":0}},{"type":"Feature","geometry":{"type":"Point","coordinates":[142.5586,-9.0272]},"properties":{"d":"2026-10-05","t":"0308","frp":35.8,"b":367.0,"c":2,"s":"N21","n":0}},{"type":"Feature","geometry":{"type":"Point","coordinates":[142.4557,-9.0265]},"properties":{"d":"2026-10-05","t":"0308","frp":24.0,"b":346.5,"c":1,"s":"N21","n":0}},{"type":"Feature","geometry":{"type":"Point","coordinates":[142.5568,-9.0212]},"properties":{"d":"2026-10-05","t":"0308","frp":15.7,"b":334.8,"c":1,"s":"N21","n":0}},{"type":"Feature","geometry":{"type":"Point","coordinates":[120.1581,-20.7231]},"properties":{"d":"2026-10-05","t":"0035","frp":6.4,"b":317.5,"c":1,"s":"MODIS","n":0}},{"type":"Feature","geometry":{"type":"Point","coordinates":[120.1474,-20.7217]},"properties":{"d":"2026-10-05","t":"0035","frp":143.3,"b":373.3,"c":2,"s":"MODIS","n":0}},{"type":"Feature","geometry":{"type":"Point","coordinates":[120.1367,-20.7203]},"properties":{"d":"2026-10-05","t":"0035","frp":66.0,"b":351.1,"c":2,"s":"MODIS","n":0}},{"type":"Feature","geometry":{"type":"Point","coordinates":[116.7736,-20.6139]},"properties":{"d":"2026-10-05","t":"0035","frp":8.2,"b":317.1,"c":1,"s":"MODIS","n":0}},{"type":"Feature","geometry":{"type":"Point","coordinates":[123.2152,-17.0857]},"properties":{"d":"2026-10-05","t":"0035","frp":22.6,"b":325.8,"c":1,"s":"MODIS","n":0}},{"type":"Feature","geometry":{"type":"Point","coordinates":[123.2339,-17.0545]},"properties":{"d":"2026-10-05","t":"0035","frp":44.1,"b":335.1,"c":1,"s":"MODIS","n":0}},{"type":"Feature","geometry":{"type":"Point","coordinates":[123.2207,-17.0418]},"properties":{"d":"2026-10-05","t":"0035","frp":300.4,"b":382.5,"c":2,"s":"MODIS","n":0}},{"type":"Feature","geometry":{"type":"Point","coordinates":[123.2274,-17.0401]},"properties":{"d":"2026-10-05","t":"0035","frp":692.4,"b":415.8,"c":2,"s":"MODIS","n":0}},{"type":"Feature","geometry":{"type":"Point","coordinates":[123.2129,-17.0383]},"properties":{"d":"2026-10-05","t":"0035","frp":108.4,"b":351.0,"c":2,"s":"MODIS","n":0}},{"type":"Feature","geometry":{"type":"Point","coordinates":[123.2221,-17.0309]},"properties":{"d":"2026-10-05","t":"0035","frp":84.7,"b":345.5,"c":2,"s":"MODIS","n":0}},{"type":"Feature","geometry":{"type":"Point","coordinates":[115.9167,-32.063]},"properties":{"d":"2026-10-05","t":"0037","frp":2.8,"b":303.1,"c":0,"s":"MODIS","n":0}}]}