{"type":"FeatureCollection","features":[{"type":"Feature","geometry":{"type":"Point","coordinates":[120.0135,-9.8478]},"properties":{"d":"2026-09-27","t":"0013","frp":11.4,"b":314.6,"c":1,"s":"MODIS","n":0}},{"type":"Feature","geometry":{"type":"Point","coordinates":[128.2023,-16.8349]},"properties":{"d":"2026-09-27","t":"0016","frp":12.5,"b":318.2,"c":1,"s":"MODIS","n":0}},{"type":"Feature","geometry":{"type":"Point","coordinates":[129.9623,-16.596]},"properties":{"d":"2026-09-27","t":"0016","frp":182.1,"b":351.5,"c":2,"s":"MODIS","n":0}},{"type":"Feature","geometry":{"type":"Point","coordinates":[129.9568,-16.595]},"properties":{"d":"2026-09-27","t":"0016","frp":211.3,"b":354.8,"c":2,"s":"MODIS","n":0}},{"type":"Feature","geometry":{"type":"Point","coordinates":[130.1127,-16.5866]},"properties":{"d":"2026-09-27","t":"0016","frp":76.8,"b":333.7,"c":1,"s":"MODIS","n":0}},{"type":"Feature","geometry":{"type":"Point","coordinates":[130.1141,-16.5735]},"properties":{"d":"2026-09-27","t":"0016","frp":157.9,"b":348.9,"c":2,"s":"MODIS","n":0}},{"type":"Feature","geometry":{"type":"Point","coordinates":[130.0927,-16.5711]},"properties":{"d":"2026-09-27","t":"0016","frp":94.5,"b":340.0,"c":2,"s":"MODIS","n":0}},{"type":"Feature","geometry":{"type":"Point","coordinates":[130.0714,-16.5688]},"properties":{"d":"2026-09-27","t":"0016","frp":37.5,"b":327.4,"c":1,"s":"MODIS","n":0}},{"type":"Feature","geometry":{"type":"Point","coordinates":[130.1372,-16.5627]},"properties":{"d":"2026-09-27","t":"0016","frp":61.0,"b":330.6,"c":0,"s":"MODIS","n":0}},{"type":"Feature","geometry":{"type":"Point","coordinates":[130.1154,-16.5604]},"properties":{"d":"2026-09-27","t":"0016","frp":109.7,"b":341.7,"c":2,"s":"MODIS","n":0}},{"type":"Feature","geometry":{"type":"Point","coordinates":[130.094,-16.5581]},"properties":{"d":"2026-09-27","t":"0016","frp":74.1,"b":336.0,"c":1,"s":"MODIS","n":0}},{"type":"Feature","geometry":{"type":"Point","coordinates":[129.7091,-16.3063]},"properties":{"d":"2026-09-27","t":"0016","frp":23.1,"b":320.2,"c":1,"s":"MODIS","n":0}},{"type":"Feature","geometry":{"type":"Point","coordinates":[129.7431,-16.2989]},"properties":{"d":"2026-09-27","t":"0016","frp":34.2,"b":323.9,"c":1,"s":"MODIS","n":0}},{"type":"Feature","geometry":{"type":"Point","coordinates":[129.75,-16.2983]},"properties":{"d":"2026-09-27","t":"0016","frp":61.8,"b":331.7,"c":2,"s":"MODIS","n":0}},{"type":"Feature","geometry":{"type":"Point","coordinates":[125.6276,-16.2874]},"properties":{"d":"2026-09-27","t":"0016","frp":24.4,"b":329.9,"c":2,"s":"MODIS","n":0}},{"type":"Feature","geometry":{"type":"Point","coordinates":[125.6172,-16.286]},"properties":{"d":"2026-09-27","t":"0016","frp":51.1,"b":344.3,"c":2,"s":"MODIS","n":0}},{"type":"Feature","geometry":{"type":"Point","coordinates":[129.8128,-16.2797]},"properties":{"d":"2026-09-27","t":"0016","frp":26.3,"b":321.8,"c":1,"s":"MODIS","n":0}},{"type":"Feature","geometry":{"type":"Point","coordinates":[129.7929,-16.2775]},"properties":{"d":"2026-09-27","t":"0016","frp":304.9,"b":367.7,"c":2,"s":"MODIS","n":0}},{"type":"Feature","geometry":{"type":"Point","coordinates":[129.773,-16.2752]},"properties":{"d":"2026-09-27","t":"0016","frp":231.6,"b":360.2,"c":2,"s":"MODIS","n":0}},{"type":"Feature","geometry":{"type":"Point","coordinates":[129.8143,-16.267]},"properties":{"d":"2026-09-27","t":"0016","frp":262.5,"b":363.1,"c":2,"s":"MODIS","n":0}},{"type":"Feature","geometry":{"type":"Point","coordinates":[129.7944,-16.2648]},"properties":{"d":"2026-09-27","t":"0016","frp":198.6,"b":355.8,"c":2,"s":"MODIS","n":0}},{"type":"Feature","geometry":{"type":"Point","coordinates":[129.7745,-16.2626]},"properties":{"d":"2026-09-27","t":"0016","frp":27.5,"b":323.9,"c":1,"s":"MODIS","n":0}},{"type":"Feature","geometry":{"type":"Point","coordinates":[125.4559,-16.2364]},"properties":{"d":"2026-09-27","t":"0016","frp":23.8,"b":331.9,"c":1,"s":"MODIS","n":0}},{"type":"Feature","geometry":{"type":"Point","coordinates":[125.4457,-16.235]},"properties":{"d":"2026-09-27","t":"0016","frp":15.1,"b":326.0,"c":0,"s":"MODIS","n":0}},{"type":"Feature","geometry":{"type":"Point","coordinates":[125.6605,-16.1365]},"properties":{"d":"2026-09-27","t":"0016","frp":14.9,"b":324.1,"c":1,"s":"MODIS","n":0}},{"type":"Feature","geometry":{"type":"Point","coordinates":[125.663,-16.1177]},"properties":{"d":"2026-09-27","t":"0016","frp":16.9,"b":325.0,"c":1,"s":"MODIS","n":0}},{"type":"Feature","geometry":{"type":"Point","coordinates":[125.6642,-16.1083]},"properties":{"d":"2026-09-27","t":"0016","frp":20.9,"b":327.4,"c":1,"s":"MODIS","n":0}},{"type":"Feature","geometry":{"type":"Point","coordinates":[125.5711,-16.0961]},"properties":{"d":"2026-09-27","t":"0016","frp":8.6,"b":317.4,"c":1,"s":"MODIS","n":0}},{"type":"Feature","geometry":{"type":"Point","coordinates":[124.4499,-15.6315]},"properties":{"d":"2026-09-27","t":"0016","frp":128.4,"b":374.8,"c":0,"s":"MODIS","n":0}},{"type":"Feature","geometry":{"type":"Point","coordinates":[124.4605,-15.6238]},"properties":{"d":"2026-09-27","t":"0016","frp":21.4,"b":330.6,"c":2,"s":"MODIS","n":0}},{"type":"Feature","geometry":{"type":"Point","coordinates":[124.4512,-15.6226]},"properties":{"d":"2026-09-27","t":"0016","frp":91.4,"b":363.8,"c":2,"s":"MODIS","n":0}},{"type":"Feature","geometry":{"type":"Point","coordinates":[124.4588,-15.569]},"properties":{"d":"2026-09-27","t":"0016","frp":34.3,"b":339.3,"c":2,"s":"MODIS","n":0}},{"type":"Feature","geometry":{"type":"Point","coordinates":[124.4614,-15.5511]},"properties":{"d":"2026-09-27","t":"0016","frp":18.9,"b":329.0,"c":1,"s":"MODIS","n":0}},{"type":"Feature","geometry":{"type":"Point","coordinates":[124.4595,-15.5406]},"properties":{"d":"2026-09-27","t":"0016","frp":15.9,"b":327.0,"c":0,"s":"MODIS","n":0}},{"type":"Feature","geometry":{"type":"Point","coordinates":[131.7472,-14.0569]},"properties":{"d":"2026-09-27","t":"0016","frp":29.3,"b":316.4,"c":1,"s":"MODIS","n":0}},{"type":"Feature","geometry":{"type":"Point","coordinates":[131.7274,-14.0509]},"properties":{"d":"2026-09-27","t":"0016","frp":33.6,"b":318.5,"c":1,"s":"MODIS","n":0}},{"type":"Feature","geometry":{"type":"Point","coordinates":[131.7863,-13.9992]},"properties":{"d":"2026-09-27","t":"0016","frp":96.5,"b":330.6,"c":2,"s":"MODIS","n":0}},{"type":"Feature","geometry":{"type":"Point","coordinates":[131.7932,-13.9965]},"properties":{"d":"2026-09-27","t":"0016","frp":56.5,"b":323.2,"c":1,"s":"MODIS","n":0}},{"type":"Feature","geometry":{"type":"Point","coordinates":[131.7595,-13.9964]},"properties":{"d":"2026-09-27","t":"0016","frp":139.2,"b":337.1,"c":2,"s":"MODIS","n":0}},{"type":"Feature","geometry":{"type":"Point","coordinates":[131.7666,-13.9934]},"properties":{"d":"2026-09-27","t":"0016","frp":228.4,"b":347.6,"c":2,"s":"MODIS","n":0}},{"type":"Feature","geometry":{"type":"Point","coordinates":[124.7856,-23.5149]},"properties":{"d":"2026-09-27","t":"0018","frp":12.9,"b":320.1,"c":1,"s":"MODIS","n":0}},{"type":"Feature","geometry":{"type":"Point","coordinates":[124.7738,-23.5135]},"properties":{"d":"2026-09-27","t":"0018","frp":18.1,"b":323.7,"c":1,"s":"MODIS","n":0}},{"type":"Feature","geometry":{"type":"Point","coordinates":[124.7751,-23.5037]},"properties":{"d":"2026-09-27","t":"0018","frp":13.4,"b":320.2,"c":1,"s":"MODIS","n":0}},{"type":"Feature","geometry":{"type":"Point","coordinates":[131.6167,-22.3982]},"properties":{"d":"2026-09-27","t":"0018","frp":46.5,"b":317.7,"c":0,"s":"MODIS","n":0}},{"type":"Feature","geometry":{"type":"Point","coordinates":[131.6118,-22.392]},"properties":{"d":"2026-09-27","t":"0018","frp":39.1,"b":315.3,"c":1,"s":"MODIS","n":0}},{"type":"Feature","geometry":{"type":"Point","coordinates":[127.5735,-20.7949]},"properties":{"d":"2026-09-27","t":"0018","frp":134.0,"b":353.4,"c":2,"s":"MODIS","n":0}},{"type":"Feature","geometry":{"type":"Point","coordinates":[127.5836,-20.7947]},"properties":{"d":"2026-09-27","t":"0018","frp":171.2,"b":360.0,"c":2,"s":"MODIS","n":0}},{"type":"Feature","geometry":{"type":"Point","coordinates":[127.5674,-20.793]},"properties":{"d":"2026-09-27","t":"0018","frp":202.4,"b":364.9,"c":2,"s":"MODIS","n":0}},{"type":"Feature","geometry":{"type":"Point","coordinates":[127.5512,-20.7912]},"properties":{"d":"2026-09-27","t":"0018","frp":63.2,"b":336.0,"c":2,"s":"MODIS","n":0}},{"type":"Feature","geometry":{"type":"Point","coordinates":[127.5413,-20.7912]},"properties":{"d":"2026-09-27","t":"0018","frp":82.5,"b":341.6,"c":2,"s":"MODIS","n":0}},{"type":"Feature","geometry":{"type":"Point","coordinates":[127.535,-20.7895]},"properties":{"d":"2026-09-27","t":"0018","frp":49.9,"b":331.4,"c":2,"s":"MODIS","n":0}},{"type":"Feature","geometry":{"type":"Point","coordinates":[127.5912,-20.7854]},"properties":{"d":"2026-09-27","t":"0018","frp":241.6,"b":370.9,"c":2,"s":"MODIS","n":0}},{"type":"Feature","geometry":{"type":"Point","coordinates":[127.6912,-20.785]},"properties":{"d":"2026-09-27","t":"0018","frp":15.5,"b":319.1,"c":0,"s":"MODIS","n":0}},{"type":"Feature","geometry":{"type":"Point","coordinates":[127.575,-20.7835]},"properties":{"d":"2026-09-27","t":"0018","frp":860.0,"b":420.3,"c":2,"s":"MODIS","n":0}},{"type":"Feature","geometry":{"type":"Point","coordinates":[127.6747,-20.7831]},"properties":{"d":"2026-09-27","t":"0018","frp":48.8,"b":332.0,"c":2,"s":"MODIS","n":0}},{"type":"Feature","geometry":{"type":"Point","coordinates":[127.5588,-20.7817]},"properties":{"d":"2026-09-27","t":"0018","frp":103.1,"b":347.4,"c":2,"s":"MODIS","n":0}},{"type":"Feature","geometry":{"type":"Point","coordinates":[127.5427,-20.7798]},"properties":{"d":"2026-09-27","t":"0018","frp":108.0,"b":348.2,"c":2,"s":"MODIS","n":0}},{"type":"Feature","geometry":{"type":"Point","coordinates":[127.5926,-20.7739]},"properties":{"d":"2026-09-27","t":"0018","frp":64.7,"b":338.5,"c":2,"s":"MODIS","n":0}},{"type":"Feature","geometry":{"type":"Point","coordinates":[127.8373,-20.7454]},"properties":{"d":"2026-09-27","t":"0018","frp":47.6,"b":332.0,"c":2,"s":"MODIS","n":0}},{"type":"Feature","geometry":{"type":"Point","coordinates":[127.8204,-20.7434]},"properties":{"d":"2026-09-27","t":"0018","frp":30.7,"b":327.0,"c":1,"s":"MODIS","n":0}},{"type":"Feature","geometry":{"type":"Point","coordinates":[127.8318,-20.7417]},"properties":{"d":"2026-09-27","t":"0018","frp":65.5,"b":336.8,"c":2,"s":"MODIS","n":0}},{"type":"Feature","geometry":{"type":"Point","coordinates":[127.8386,-20.7337]},"properties":{"d":"2026-09-27","t":"0018","frp":44.9,"b":331.0,"c":2,"s":"MODIS","n":0}},{"type":"Feature","geometry":{"type":"Point","coordinates":[129.6764,-20.5281]},"properties":{"d":"2026-09-27","t":"0018","frp":28.4,"b":319.3,"c":1,"s":"MODIS","n":0}},{"type":"Feature","geometry":{"type":"Point","coordinates":[129.6533,-20.5258]},"properties":{"d":"2026-09-27","t":"0018","frp":14.2,"b":315.0,"c":0,"s":"MODIS","n":0}},{"type":"Feature","geometry":{"type":"Point","coordinates":[129.749,-20.5081]},"properties":{"d":"2026-09-27","t":"0018","frp":50.1,"b":325.6,"c":1,"s":"MODIS","n":0}},{"type":"Feature","geometry":{"type":"Point","coordinates":[129.7801,-20.5023]},"properties":{"d":"2026-09-27","t":"0018","frp":46.7,"b":325.7,"c":1,"s":"MODIS","n":0}},{"type":"Feature","geometry":{"type":"Point","coordinates":[129.7567,-20.4998]},"properties":{"d":"2026-09-27","t":"0018","frp":49.7,"b":327.0,"c":1,"s":"MODIS","n":0}},{"type":"Feature","geometry":{"type":"Point","coordinates":[129.7739,-20.4969]},"properties":{"d":"2026-09-27","t":"0018","frp":89.2,"b":333.5,"c":2,"s":"MODIS","n":0}},{"type":"Feature","geometry":{"type":"Point","coordinates":[129.7815,-20.4888]},"properties":{"d":"2026-09-27","t":"0018","frp":39.5,"b":323.5,"c":1,"s":"MODIS","n":0}},{"type":"Feature","geometry":{"type":"Point","coordinates":[126.3699,-20.4696]},"properties":{"d":"2026-09-27","t":"0018","frp":14.0,"b":320.3,"c":1,"s":"MODIS","n":0}},{"type":"Feature","geometry":{"type":"Point","coordinates":[126.3567,-20.468]},"properties":{"d":"2026-09-27","t":"0018","frp":58.5,"b":341.0,"c":2,"s":"MODIS","n":0}},{"type":"Feature","geometry":{"type":"Point","coordinates":[129.5514,-20.4649]},"properties":{"d":"2026-09-27","t":"0018","frp":86.1,"b":333.3,"c":2,"s":"MODIS","n":0}},{"type":"Feature","geometry":{"type":"Point","coordinates":[129.5676,-20.4635]},"properties":{"d":"2026-09-27","t":"0018","frp":31.0,"b":320.8,"c":1,"s":"MODIS","n":0}},{"type":"Feature","geometry":{"type":"Point","coordinates":[129.529,-20.4625]},"properties":{"d":"2026-09-27","t":"0018","frp":26.9,"b":318.8,"c":1,"s":"MODIS","n":0}},{"type":"Feature","geometry":{"type":"Point","coordinates":[129.5451,-20.4613]},"properties":{"d":"2026-09-27","t":"0018","frp":99.5,"b":335.8,"c":2,"s":"MODIS","n":0}},{"type":"Feature","geometry":{"type":"Point","coordinates":[126.3712,-20.4592]},"properties":{"d":"2026-09-27","t":"0018","frp":11.9,"b":319.1,"c":1,"s":"MODIS","n":0}},{"type":"Feature","geometry":{"type":"Point","coordinates":[126.358,-20.4576]},"properties":{"d":"2026-09-27","t":"0018","frp":12.7,"b":319.6,"c":1,"s":"MODIS","n":0}},{"type":"Feature","geometry":{"type":"Point","coordinates":[129.5528,-20.4516]},"properties":{"d":"2026-09-27","t":"0018","frp":19.5,"b":316.5,"c":1,"s":"MODIS","n":0}},{"type":"Feature","geometry":{"type":"Point","coordinates":[126.4017,-20.4311]},"properties":{"d":"2026-09-27","t":"0018","frp":521.8,"b":410.6,"c":2,"s":"MODIS","n":0}},{"type":"Feature","geometry":{"type":"Point","coordinates":[126.3884,-20.4296]},"properties":{"d":"2026-09-27","t":"0018","frp":219.2,"b":377.1,"c":2,"s":"MODIS","n":0}},{"type":"Feature","geometry":{"type":"Point","coordinates":[126.403,-20.4207]},"properties":{"d":"2026-09-27","t":"0018","frp":42.1,"b":334.9,"c":2,"s":"MODIS","n":0}},{"type":"Feature","geometry":{"type":"Point","coordinates":[126.4043,-20.4103]},"properties":{"d":"2026-09-27","t":"0018","frp":50.3,"b":338.1,"c":2,"s":"MODIS","n":0}},{"type":"Feature","geometry":{"type":"Point","coordinates":[126.4189,-20.4015]},"properties":{"d":"2026-09-27","t":"0018","frp":10.6,"b":318.0,"c":1,"s":"MODIS","n":0}},{"type":"Feature","geometry":{"type":"Point","coordinates":[129.5809,-20.4008]},"properties":{"d":"2026-09-27","t":"0018","frp":23.8,"b":317.4,"c":1,"s":"MODIS","n":0}},{"type":"Feature","geometry":{"type":"Point","coordinates":[126.4057,-20.3999]},"properties":{"d":"2026-09-27","t":"0018","frp":97.2,"b":352.7,"c":2,"s":"MODIS","n":0}},{"type":"Feature","geometry":{"type":"Point","coordinates":[126.8722,-20.3948]},"properties":{"d":"2026-09-27","t":"0018","frp":219.2,"b":373.6,"c":2,"s":"MODIS","n":0}},{"type":"Feature","geometry":{"type":"Point","coordinates":[126.4122,-20.3937]},"properties":{"d":"2026-09-27","t":"0018","frp":102.1,"b":354.4,"c":2,"s":"MODIS","n":0}},{"type":"Feature","geometry":{"type":"Point","coordinates":[129.6104,-20.3935]},"properties":{"d":"2026-09-27","t":"0018","frp":25.5,"b":319.2,"c":0,"s":"MODIS","n":0}},{"type":"Feature","geometry":{"type":"Point","coordinates":[126.8579,-20.3932]},"properties":{"d":"2026-09-27","t":"0018","frp":65.4,"b":341.8,"c":2,"s":"MODIS","n":0}},{"type":"Feature","geometry":{"type":"Point","coordinates":[129.7267,-20.3921]},"properties":{"d":"2026-09-27","t":"0018","frp":36.8,"b":322.7,"c":1,"s":"MODIS","n":0}},{"type":"Feature","geometry":{"type":"Point","coordinates":[126.399,-20.392]},"properties":{"d":"2026-09-27","t":"0018","frp":37.1,"b":333.7,"c":2,"s":"MODIS","n":0}},{"type":"Feature","geometry":{"type":"Point","coordinates":[129.5877,-20.391]},"properties":{"d":"2026-09-27","t":"0018","frp":47.3,"b":324.7,"c":1,"s":"MODIS","n":0}},{"type":"Feature","geometry":{"type":"Point","coordinates":[126.4202,-20.391]},"properties":{"d":"2026-09-27","t":"0018","frp":28.6,"b":328.5,"c":1,"s":"MODIS","n":0}},{"type":"Feature","geometry":{"type":"Point","coordinates":[129.6051,-20.3898]},"properties":{"d":"2026-09-27","t":"0018","frp":30.2,"b":319.6,"c":1,"s":"MODIS","n":0}},{"type":"Feature","geometry":{"type":"Point","coordinates":[129.7034,-20.3897]},"properties":{"d":"2026-09-27","t":"0018","frp":72.2,"b":330.5,"c":2,"s":"MODIS","n":0}},{"type":"Feature","geometry":{"type":"Point","coordinates":[126.4069,-20.3895]},"properties":{"d":"2026-09-27","t":"0018","frp":89.2,"b":350.8,"c":2,"s":"MODIS","n":0}},{"type":"Feature","geometry":{"type":"Point","coordinates":[129.7215,-20.3876]},"properties":{"d":"2026-09-27","t":"0018","frp":51.6,"b":326.0,"c":1,"s":"MODIS","n":0}},{"type":"Feature","geometry":{"type":"Point","coordinates":[129.6804,-20.3873]},"properties":{"d":"2026-09-27","t":"0018","frp":28.0,"b":320.3,"c":1,"s":"MODIS","n":0}},{"type":"Feature","geometry":{"type":"Point","coordinates":[129.6983,-20.3854]},"properties":{"d":"2026-09-27","t":"0018","frp":59.3,"b":327.5,"c":1,"s":"MODIS","n":0}},{"type":"Feature","geometry":{"type":"Point","coordinates":[126.8735,-20.3841]},"properties":{"d":"2026-09-27","t":"0018","frp":231.5,"b":375.3,"c":2,"s":"MODIS","n":0}},{"type":"Feature","geometry":{"type":"Point","coordinates":[126.4135,-20.3832]},"properties":{"d":"2026-09-27","t":"0018","frp":56.4,"b":340.5,"c":2,"s":"MODIS","n":0}},{"type":"Feature","geometry":{"type":"Point","coordinates":[126.8593,-20.3824]},"properties":{"d":"2026-09-27","t":"0018","frp":19.6,"b":323.7,"c":1,"s":"MODIS","n":0}},{"type":"Feature","geometry":{"type":"Point","coordinates":[126.4149,-20.3728]},"properties":{"d":"2026-09-27","t":"0018","frp":43.9,"b":335.6,"c":2,"s":"MODIS","n":0}},{"type":"Feature","geometry":{"type":"Point","coordinates":[126.4163,-20.3624]},"properties":{"d":"2026-09-27","t":"0018","frp":28.6,"b":329.4,"c":1,"s":"MODIS","n":0}},{"type":"Feature","geometry":{"type":"Point","coordinates":[126.4058,-20.34]},"properties":{"d":"2026-09-27","t":"0018","frp":10.8,"b":319.6,"c":1,"s":"MODIS","n":0}},{"type":"Feature","geometry":{"type":"Point","coordinates":[126.6111,-20.3322]},"properties":{"d":"2026-09-27","t":"0018","frp":29.5,"b":328.5,"c":1,"s":"MODIS","n":0}},{"type":"Feature","geometry":{"type":"Point","coordinates":[126.2349,-20.3301]},"properties":{"d":"2026-09-27","t":"0018","frp":125.9,"b":361.0,"c":2,"s":"MODIS","n":0}},{"type":"Feature","geometry":{"type":"Point","coordinates":[126.2221,-20.3285]},"properties":{"d":"2026-09-27","t":"0018","frp":44.1,"b":336.7,"c":2,"s":"MODIS","n":0}},{"type":"Feature","geometry":{"type":"Point","coordinates":[126.6182,-20.3272]},"properties":{"d":"2026-09-27","t":"0018","frp":23.7,"b":326.3,"c":1,"s":"MODIS","n":0}},{"type":"Feature","geometry":{"type":"Point","coordinates":[126.6125,-20.3216]},"properties":{"d":"2026-09-27","t":"0018","frp":11.4,"b":319.1,"c":0,"s":"MODIS","n":0}},{"type":"Feature","geometry":{"type":"Point","coordinates":[126.2492,-20.3213]},"properties":{"d":"2026-09-27","t":"0018","frp":70.0,"b":346.1,"c":2,"s":"MODIS","n":0}},{"type":"Feature","geometry":{"type":"Point","coordinates":[126.2363,-20.3198]},"properties":{"d":"2026-09-27","t":"0018","frp":576.4,"b":417.0,"c":2,"s":"MODIS","n":0}},{"type":"Feature","geometry":{"type":"Point","coordinates":[126.2506,-20.311]},"properties":{"d":"2026-09-27","t":"0018","frp":129.7,"b":362.2,"c":2,"s":"MODIS","n":0}},{"type":"Feature","geometry":{"type":"Point","coordinates":[126.2377,-20.3095]},"properties":{"d":"2026-09-27","t":"0018","frp":202.2,"b":376.1,"c":2,"s":"MODIS","n":0}},{"type":"Feature","geometry":{"type":"Point","coordinates":[126.6222,-20.2956]},"properties":{"d":"2026-09-27","t":"0018","frp":81.7,"b":347.9,"c":2,"s":"MODIS","n":0}},{"type":"Feature","geometry":{"type":"Point","coordinates":[126.2533,-20.2905]},"properties":{"d":"2026-09-27","t":"0018","frp":145.0,"b":365.4,"c":2,"s":"MODIS","n":0}},{"type":"Feature","geometry":{"type":"Point","coordinates":[126.2404,-20.2889]},"properties":{"d":"2026-09-27","t":"0018","frp":44.5,"b":337.3,"c":2,"s":"MODIS","n":0}},{"type":"Feature","geometry":{"type":"Point","coordinates":[126.6373,-20.2867]},"properties":{"d":"2026-09-27","t":"0018","frp":22.1,"b":324.6,"c":1,"s":"MODIS","n":0}},{"type":"Feature","geometry":{"type":"Point","coordinates":[127.0092,-20.2862]},"properties":{"d":"2026-09-27","t":"0018","frp":11.9,"b":318.2,"c":1,"s":"MODIS","n":0}},{"type":"Feature","geometry":{"type":"Point","coordinates":[126.6235,-20.285]},"properties":{"d":"2026-09-27","t":"0018","frp":109.3,"b":354.8,"c":2,"s":"MODIS","n":0}},{"type":"Feature","geometry":{"type":"Point","coordinates":[126.9947,-20.2846]},"properties":{"d":"2026-09-27","t":"0018","frp":45.2,"b":333.9,"c":2,"s":"MODIS","n":0}},{"type":"Feature","geometry":{"type":"Point","coordinates":[127.001,-20.2819]},"properties":{"d":"2026-09-27","t":"0018","frp":28.4,"b":327.6,"c":1,"s":"MODIS","n":0}},{"type":"Feature","geometry":{"type":"Point","coordinates":[126.6249,-20.2745]},"properties":{"d":"2026-09-27","t":"0018","frp":36.1,"b":332.0,"c":2,"s":"MODIS","n":0}},{"type":"Feature","geometry":{"type":"Point","coordinates":[126.9961,-20.2737]},"properties":{"d":"2026-09-27","t":"0018","frp":35.5,"b":330.6,"c":2,"s":"MODIS","n":0}},{"type":"Feature","geometry":{"type":"Point","coordinates":[127.0024,-20.2711]},"properties":{"d":"2026-09-27","t":"0018","frp":29.1,"b":327.9,"c":1,"s":"MODIS","n":0}},{"type":"Feature","geometry":{"type":"Point","coordinates":[126.9879,-20.2693]},"properties":{"d":"2026-09-27","t":"0018","frp":41.3,"b":333.3,"c":2,"s":"MODIS","n":0}},{"type":"Feature","geometry":{"type":"Point","coordinates":[126.3205,-20.2278]},"properties":{"d":"2026-09-27","t":"0018","frp":159.6,"b":367.6,"c":2,"s":"MODIS","n":0}},{"type":"Feature","geometry":{"type":"Point","coordinates":[126.3075,-20.2263]},"properties":{"d":"2026-09-27","t":"0018","frp":98.7,"b":353.9,"c":2,"s":"MODIS","n":0}},{"type":"Feature","geometry":{"type":"Point","coordinates":[126.3218,-20.2175]},"properties":{"d":"2026-09-27","t":"0018","frp":66.8,"b":344.7,"c":2,"s":"MODIS","n":0}},{"type":"Feature","geometry":{"type":"Point","coordinates":[126.3089,-20.216]},"properties":{"d":"2026-09-27","t":"0018","frp":26.5,"b":328.3,"c":1,"s":"MODIS","n":0}},{"type":"Feature","geometry":{"type":"Point","coordinates":[127.036,-20.103]},"properties":{"d":"2026-09-27","t":"0018","frp":14.1,"b":319.8,"c":1,"s":"MODIS","n":0}},{"type":"Feature","geometry":{"type":"Point","coordinates":[127.031,-20.095]},"properties":{"d":"2026-09-27","t":"0018","frp":9.3,"b":316.9,"c":1,"s":"MODIS","n":0}},{"type":"Feature","geometry":{"type":"Point","coordinates":[127.654,-19.5249]},"properties":{"d":"2026-09-27","t":"0018","frp":16.4,"b":320.7,"c":1,"s":"MODIS","n":0}},{"type":"Feature","geometry":{"type":"Point","coordinates":[130.8941,-18.3055]},"properties":{"d":"2026-09-27","t":"0018","frp":33.4,"b":319.1,"c":1,"s":"MODIS","n":0}}]}