{"type":"FeatureCollection","features":[{"type":"Feature","geometry":{"type":"Point","coordinates":[149.4304,-35.6147]},"properties":{"d":"2026-10-10","t":"0306","frp":2.1,"b":326.1,"c":1,"s":"N21","n":0}},{"type":"Feature","geometry":{"type":"Point","coordinates":[150.8787,-34.4554]},"properties":{"d":"2026-10-10","t":"0306","frp":5.8,"b":335.2,"c":1,"s":"N21","n":0}},{"type":"Feature","geometry":{"type":"Point","coordinates":[150.8767,-34.4538]},"properties":{"d":"2026-10-10","t":"0306","frp":3.9,"b":335.3,"c":1,"s":"N21","n":0}},{"type":"Feature","geometry":{"type":"Point","coordinates":[147.8294,-34.0497]},"properties":{"d":"2026-10-10","t":"0306","frp":7.7,"b":339.7,"c":1,"s":"N21","n":0}},{"type":"Feature","geometry":{"type":"Point","coordinates":[146.6111,-32.3633]},"properties":{"d":"2026-10-10","t":"0306","frp":4.3,"b":333.2,"c":1,"s":"N21","n":0}},{"type":"Feature","geometry":{"type":"Point","coordinates":[145.7999,-31.6137]},"properties":{"d":"2026-10-10","t":"0306","frp":7.8,"b":337.1,"c":1,"s":"N21","n":0}},{"type":"Feature","geometry":{"type":"Point","coordinates":[145.7967,-31.6126]},"properties":{"d":"2026-10-10","t":"0306","frp":10.3,"b":335.1,"c":1,"s":"N21","n":0}},{"type":"Feature","geometry":{"type":"Point","coordinates":[145.8032,-31.6123]},"properties":{"d":"2026-10-10","t":"0306","frp":12.7,"b":334.1,"c":1,"s":"N21","n":0}},{"type":"Feature","geometry":{"type":"Point","coordinates":[145.7996,-31.6071]},"properties":{"d":"2026-10-10","t":"0306","frp":7.2,"b":332.4,"c":1,"s":"N21","n":0}},{"type":"Feature","geometry":{"type":"Point","coordinates":[147.7243,-30.6882]},"properties":{"d":"2026-10-10","t":"0308","frp":7.8,"b":338.5,"c":1,"s":"N21","n":0}},{"type":"Feature","geometry":{"type":"Point","coordinates":[147.7291,-30.6879]},"properties":{"d":"2026-10-10","t":"0308","frp":11.5,"b":354.2,"c":1,"s":"N21","n":0}},{"type":"Feature","geometry":{"type":"Point","coordinates":[148.6394,-29.6684]},"properties":{"d":"2026-10-10","t":"0308","frp":8.4,"b":335.8,"c":1,"s":"N21","n":0}},{"type":"Feature","geometry":{"type":"Point","coordinates":[148.6435,-29.6681]},"properties":{"d":"2026-10-10","t":"0308","frp":6.0,"b":332.9,"c":0,"s":"N21","n":0}},{"type":"Feature","geometry":{"type":"Point","coordinates":[148.6476,-29.6678]},"properties":{"d":"2026-10-10","t":"0308","frp":6.0,"b":333.8,"c":0,"s":"N21","n":0}},{"type":"Feature","geometry":{"type":"Point","coordinates":[148.7563,-27.8584]},"properties":{"d":"2026-10-10","t":"0308","frp":3.9,"b":336.8,"c":1,"s":"N21","n":0}},{"type":"Feature","geometry":{"type":"Point","coordinates":[148.7445,-27.8539]},"properties":{"d":"2026-10-10","t":"0308","frp":19.3,"b":367.0,"c":2,"s":"N21","n":0}},{"type":"Feature","geometry":{"type":"Point","coordinates":[148.7429,-27.8512]},"properties":{"d":"2026-10-10","t":"0308","frp":16.9,"b":355.6,"c":1,"s":"N21","n":0}},{"type":"Feature","geometry":{"type":"Point","coordinates":[146.5568,-27.7419]},"properties":{"d":"2026-10-10","t":"0308","frp":10.8,"b":336.3,"c":1,"s":"N21","n":0}},{"type":"Feature","geometry":{"type":"Point","coordinates":[146.5564,-27.7358]},"properties":{"d":"2026-10-10","t":"0308","frp":10.3,"b":351.9,"c":1,"s":"N21","n":0}},{"type":"Feature","geometry":{"type":"Point","coordinates":[152.2092,-24.7915]},"properties":{"d":"2026-10-10","t":"0308","frp":7.0,"b":339.1,"c":1,"s":"N21","n":0}},{"type":"Feature","geometry":{"type":"Point","coordinates":[152.2133,-24.791]},"properties":{"d":"2026-10-10","t":"0308","frp":8.7,"b":343.5,"c":1,"s":"N21","n":0}},{"type":"Feature","geometry":{"type":"Point","coordinates":[152.2045,-24.7878]},"properties":{"d":"2026-10-10","t":"0308","frp":7.0,"b":336.6,"c":1,"s":"N21","n":0}},{"type":"Feature","geometry":{"type":"Point","coordinates":[144.0462,-21.016]},"properties":{"d":"2026-10-10","t":"0310","frp":5.5,"b":331.8,"c":1,"s":"N21","n":0}},{"type":"Feature","geometry":{"type":"Point","coordinates":[142.3304,-19.5477]},"properties":{"d":"2026-10-10","t":"0310","frp":23.7,"b":342.9,"c":1,"s":"N21","n":0}},{"type":"Feature","geometry":{"type":"Point","coordinates":[142.3274,-19.5451]},"properties":{"d":"2026-10-10","t":"0310","frp":29.7,"b":342.2,"c":1,"s":"N21","n":0}},{"type":"Feature","geometry":{"type":"Point","coordinates":[142.3349,-19.5445]},"properties":{"d":"2026-10-10","t":"0310","frp":40.6,"b":355.8,"c":0,"s":"N21","n":0}},{"type":"Feature","geometry":{"type":"Point","coordinates":[142.4056,-19.5419]},"properties":{"d":"2026-10-10","t":"0310","frp":35.1,"b":355.6,"c":0,"s":"N21","n":0}},{"type":"Feature","geometry":{"type":"Point","coordinates":[142.3298,-19.5404]},"properties":{"d":"2026-10-10","t":"0310","frp":23.7,"b":367.0,"c":2,"s":"N21","n":0}},{"type":"Feature","geometry":{"type":"Point","coordinates":[142.4024,-19.5389]},"properties":{"d":"2026-10-10","t":"0310","frp":78.2,"b":367.0,"c":2,"s":"N21","n":0}},{"type":"Feature","geometry":{"type":"Point","coordinates":[142.405,-19.5348]},"properties":{"d":"2026-10-10","t":"0310","frp":35.1,"b":367.0,"c":2,"s":"N21","n":0}},{"type":"Feature","geometry":{"type":"Point","coordinates":[142.3278,-19.5116]},"properties":{"d":"2026-10-10","t":"0310","frp":21.3,"b":367.0,"c":2,"s":"N21","n":0}},{"type":"Feature","geometry":{"type":"Point","coordinates":[142.3353,-19.511]},"properties":{"d":"2026-10-10","t":"0310","frp":21.3,"b":347.6,"c":1,"s":"N21","n":0}},{"type":"Feature","geometry":{"type":"Point","coordinates":[142.3325,-19.5084]},"properties":{"d":"2026-10-10","t":"0310","frp":34.0,"b":353.6,"c":1,"s":"N21","n":0}},{"type":"Feature","geometry":{"type":"Point","coordinates":[145.9495,-19.1846]},"properties":{"d":"2026-10-10","t":"0310","frp":6.4,"b":331.4,"c":1,"s":"N21","n":0}},{"type":"Feature","geometry":{"type":"Point","coordinates":[145.949,-19.1843]},"properties":{"d":"2026-10-10","t":"0310","frp":6.1,"b":332.9,"c":1,"s":"N21","n":0}},{"type":"Feature","geometry":{"type":"Point","coordinates":[145.9483,-19.1785]},"properties":{"d":"2026-10-10","t":"0310","frp":7.5,"b":367.0,"c":2,"s":"N21","n":0}},{"type":"Feature","geometry":{"type":"Point","coordinates":[145.9799,-19.1754]},"properties":{"d":"2026-10-10","t":"0310","frp":4.0,"b":336.1,"c":1,"s":"N21","n":0}},{"type":"Feature","geometry":{"type":"Point","coordinates":[145.9378,-19.1678]},"properties":{"d":"2026-10-10","t":"0310","frp":6.5,"b":332.4,"c":1,"s":"N21","n":0}},{"type":"Feature","geometry":{"type":"Point","coordinates":[145.9419,-19.1615]},"properties":{"d":"2026-10-10","t":"0310","frp":4.3,"b":333.5,"c":1,"s":"N21","n":0}},{"type":"Feature","geometry":{"type":"Point","coordinates":[145.9464,-19.1611]},"properties":{"d":"2026-10-10","t":"0310","frp":4.3,"b":337.7,"c":1,"s":"N21","n":0}},{"type":"Feature","geometry":{"type":"Point","coordinates":[145.9753,-18.6531]},"properties":{"d":"2026-10-10","t":"0310","frp":11.0,"b":332.9,"c":1,"s":"N21","n":0}},{"type":"Feature","geometry":{"type":"Point","coordinates":[145.9881,-18.6519]},"properties":{"d":"2026-10-10","t":"0310","frp":7.2,"b":349.7,"c":1,"s":"N21","n":0}},{"type":"Feature","geometry":{"type":"Point","coordinates":[145.988,-18.6508]},"properties":{"d":"2026-10-10","t":"0310","frp":10.5,"b":351.0,"c":1,"s":"N21","n":0}},{"type":"Feature","geometry":{"type":"Point","coordinates":[143.0162,-17.1822]},"properties":{"d":"2026-10-10","t":"0310","frp":6.6,"b":339.0,"c":1,"s":"N21","n":0}},{"type":"Feature","geometry":{"type":"Point","coordinates":[143.0136,-17.178]},"properties":{"d":"2026-10-10","t":"0310","frp":14.1,"b":338.8,"c":1,"s":"N21","n":0}},{"type":"Feature","geometry":{"type":"Point","coordinates":[143.0157,-17.1754]},"properties":{"d":"2026-10-10","t":"0310","frp":6.6,"b":332.6,"c":1,"s":"N21","n":0}},{"type":"Feature","geometry":{"type":"Point","coordinates":[142.8385,-17.1301]},"properties":{"d":"2026-10-10","t":"0310","frp":25.0,"b":354.4,"c":1,"s":"N21","n":0}},{"type":"Feature","geometry":{"type":"Point","coordinates":[142.8379,-17.1232]},"properties":{"d":"2026-10-10","t":"0310","frp":25.0,"b":348.3,"c":1,"s":"N21","n":0}},{"type":"Feature","geometry":{"type":"Point","coordinates":[142.8373,-17.1164]},"properties":{"d":"2026-10-10","t":"0310","frp":35.9,"b":367.0,"c":2,"s":"N21","n":0}},{"type":"Feature","geometry":{"type":"Point","coordinates":[142.8367,-17.1095]},"properties":{"d":"2026-10-10","t":"0310","frp":35.9,"b":340.1,"c":1,"s":"N21","n":0}},{"type":"Feature","geometry":{"type":"Point","coordinates":[142.9763,-17.0832]},"properties":{"d":"2026-10-10","t":"0310","frp":7.8,"b":330.6,"c":1,"s":"N21","n":0}},{"type":"Feature","geometry":{"type":"Point","coordinates":[142.9737,-17.0815]},"properties":{"d":"2026-10-10","t":"0310","frp":21.0,"b":332.0,"c":1,"s":"N21","n":0}},{"type":"Feature","geometry":{"type":"Point","coordinates":[142.9287,-17.0789]},"properties":{"d":"2026-10-10","t":"0310","frp":18.6,"b":344.9,"c":1,"s":"N21","n":0}},{"type":"Feature","geometry":{"type":"Point","coordinates":[142.963,-17.0775]},"properties":{"d":"2026-10-10","t":"0310","frp":26.5,"b":354.6,"c":1,"s":"N21","n":0}},{"type":"Feature","geometry":{"type":"Point","coordinates":[142.9694,-17.077]},"properties":{"d":"2026-10-10","t":"0310","frp":34.5,"b":367.0,"c":2,"s":"N21","n":0}},{"type":"Feature","geometry":{"type":"Point","coordinates":[142.9668,-17.0753]},"properties":{"d":"2026-10-10","t":"0310","frp":45.8,"b":367.0,"c":2,"s":"N21","n":0}},{"type":"Feature","geometry":{"type":"Point","coordinates":[142.9242,-17.0741]},"properties":{"d":"2026-10-10","t":"0310","frp":23.8,"b":367.0,"c":2,"s":"N21","n":0}},{"type":"Feature","geometry":{"type":"Point","coordinates":[142.9217,-17.0727]},"properties":{"d":"2026-10-10","t":"0310","frp":13.1,"b":338.4,"c":1,"s":"N21","n":0}},{"type":"Feature","geometry":{"type":"Point","coordinates":[142.934,-17.0647]},"properties":{"d":"2026-10-10","t":"0310","frp":7.1,"b":332.1,"c":1,"s":"N21","n":0}},{"type":"Feature","geometry":{"type":"Point","coordinates":[142.9422,-17.0588]},"properties":{"d":"2026-10-10","t":"0310","frp":13.2,"b":343.1,"c":1,"s":"N21","n":0}},{"type":"Feature","geometry":{"type":"Point","coordinates":[142.9397,-17.0573]},"properties":{"d":"2026-10-10","t":"0310","frp":14.2,"b":350.8,"c":1,"s":"N21","n":0}},{"type":"Feature","geometry":{"type":"Point","coordinates":[142.8905,-17.0565]},"properties":{"d":"2026-10-10","t":"0310","frp":11.7,"b":350.5,"c":1,"s":"N21","n":0}},{"type":"Feature","geometry":{"type":"Point","coordinates":[142.8882,-17.0553]},"properties":{"d":"2026-10-10","t":"0310","frp":13.4,"b":354.1,"c":1,"s":"N21","n":0}},{"type":"Feature","geometry":{"type":"Point","coordinates":[145.3658,-16.5895]},"properties":{"d":"2026-10-10","t":"0310","frp":31.9,"b":367.0,"c":2,"s":"N21","n":0}},{"type":"Feature","geometry":{"type":"Point","coordinates":[141.9861,-13.6958]},"properties":{"d":"2026-10-10","t":"0310","frp":13.1,"b":348.7,"c":1,"s":"N21","n":0}},{"type":"Feature","geometry":{"type":"Point","coordinates":[141.9893,-13.6954]},"properties":{"d":"2026-10-10","t":"0310","frp":20.5,"b":342.5,"c":1,"s":"N21","n":0}},{"type":"Feature","geometry":{"type":"Point","coordinates":[142.0026,-13.6941]},"properties":{"d":"2026-10-10","t":"0310","frp":10.3,"b":331.6,"c":1,"s":"N21","n":0}},{"type":"Feature","geometry":{"type":"Point","coordinates":[142.006,-13.6937]},"properties":{"d":"2026-10-10","t":"0310","frp":15.3,"b":344.6,"c":1,"s":"N21","n":0}},{"type":"Feature","geometry":{"type":"Point","coordinates":[142.0092,-13.6934]},"properties":{"d":"2026-10-10","t":"0310","frp":10.3,"b":336.6,"c":1,"s":"N21","n":0}},{"type":"Feature","geometry":{"type":"Point","coordinates":[141.982,-13.6891]},"properties":{"d":"2026-10-10","t":"0310","frp":27.2,"b":352.7,"c":1,"s":"N21","n":0}},{"type":"Feature","geometry":{"type":"Point","coordinates":[141.9855,-13.6889]},"properties":{"d":"2026-10-10","t":"0310","frp":24.0,"b":367.0,"c":2,"s":"N21","n":0}},{"type":"Feature","geometry":{"type":"Point","coordinates":[141.9886,-13.6885]},"properties":{"d":"2026-10-10","t":"0310","frp":20.5,"b":332.8,"c":1,"s":"N21","n":0}},{"type":"Feature","geometry":{"type":"Point","coordinates":[142.0317,-13.6839]},"properties":{"d":"2026-10-10","t":"0310","frp":9.0,"b":332.3,"c":1,"s":"N21","n":0}},{"type":"Feature","geometry":{"type":"Point","coordinates":[142.0348,-13.6838]},"properties":{"d":"2026-10-10","t":"0310","frp":17.2,"b":337.5,"c":1,"s":"N21","n":0}},{"type":"Feature","geometry":{"type":"Point","coordinates":[142.0381,-13.6832]},"properties":{"d":"2026-10-10","t":"0310","frp":9.0,"b":335.7,"c":1,"s":"N21","n":0}},{"type":"Feature","geometry":{"type":"Point","coordinates":[142.063,-13.6666]},"properties":{"d":"2026-10-10","t":"0310","frp":18.1,"b":340.6,"c":1,"s":"N21","n":0}},{"type":"Feature","geometry":{"type":"Point","coordinates":[142.0656,-13.6598]},"properties":{"d":"2026-10-10","t":"0310","frp":16.4,"b":336.8,"c":1,"s":"N21","n":0}},{"type":"Feature","geometry":{"type":"Point","coordinates":[142.0652,-13.6529]},"properties":{"d":"2026-10-10","t":"0310","frp":16.4,"b":367.0,"c":2,"s":"N21","n":0}},{"type":"Feature","geometry":{"type":"Point","coordinates":[142.0621,-13.6528]},"properties":{"d":"2026-10-10","t":"0310","frp":14.5,"b":355.3,"c":1,"s":"N21","n":0}},{"type":"Feature","geometry":{"type":"Point","coordinates":[142.0684,-13.6521]},"properties":{"d":"2026-10-10","t":"0310","frp":16.4,"b":332.0,"c":1,"s":"N21","n":0}},{"type":"Feature","geometry":{"type":"Point","coordinates":[142.055,-13.6465]},"properties":{"d":"2026-10-10","t":"0310","frp":14.5,"b":334.0,"c":1,"s":"N21","n":0}},{"type":"Feature","geometry":{"type":"Point","coordinates":[142.0477,-13.6403]},"properties":{"d":"2026-10-10","t":"0310","frp":26.0,"b":354.4,"c":1,"s":"N21","n":0}},{"type":"Feature","geometry":{"type":"Point","coordinates":[142.0335,-13.6278]},"properties":{"d":"2026-10-10","t":"0310","frp":16.8,"b":339.3,"c":1,"s":"N21","n":0}},{"type":"Feature","geometry":{"type":"Point","coordinates":[142.0401,-13.6271]},"properties":{"d":"2026-10-10","t":"0310","frp":8.9,"b":335.4,"c":1,"s":"N21","n":0}},{"type":"Feature","geometry":{"type":"Point","coordinates":[143.1614,-13.562]},"properties":{"d":"2026-10-10","t":"0310","frp":11.9,"b":338.8,"c":1,"s":"N21","n":0}},{"type":"Feature","geometry":{"type":"Point","coordinates":[143.1669,-13.5614]},"properties":{"d":"2026-10-10","t":"0310","frp":7.0,"b":336.9,"c":1,"s":"N21","n":0}},{"type":"Feature","geometry":{"type":"Point","coordinates":[143.163,-13.5608]},"properties":{"d":"2026-10-10","t":"0310","frp":9.9,"b":336.0,"c":1,"s":"N21","n":0}},{"type":"Feature","geometry":{"type":"Point","coordinates":[143.1534,-13.5161]},"properties":{"d":"2026-10-10","t":"0310","frp":20.3,"b":367.0,"c":2,"s":"N21","n":0}},{"type":"Feature","geometry":{"type":"Point","coordinates":[143.1585,-13.5155]},"properties":{"d":"2026-10-10","t":"0310","frp":20.3,"b":355.2,"c":1,"s":"N21","n":0}},{"type":"Feature","geometry":{"type":"Point","coordinates":[143.1638,-13.515]},"properties":{"d":"2026-10-10","t":"0310","frp":10.9,"b":332.6,"c":1,"s":"N21","n":0}},{"type":"Feature","geometry":{"type":"Point","coordinates":[143.1684,-13.5079]},"properties":{"d":"2026-10-10","t":"0310","frp":11.9,"b":344.4,"c":1,"s":"N21","n":0}},{"type":"Feature","geometry":{"type":"Point","coordinates":[143.1676,-13.5015]},"properties":{"d":"2026-10-10","t":"0310","frp":11.9,"b":344.7,"c":1,"s":"N21","n":0}},{"type":"Feature","geometry":{"type":"Point","coordinates":[143.173,-13.5009]},"properties":{"d":"2026-10-10","t":"0310","frp":15.3,"b":341.0,"c":1,"s":"N21","n":0}},{"type":"Feature","geometry":{"type":"Point","coordinates":[143.1776,-13.4939]},"properties":{"d":"2026-10-10","t":"0310","frp":18.8,"b":350.0,"c":1,"s":"N21","n":0}},{"type":"Feature","geometry":{"type":"Point","coordinates":[141.7281,-13.051]},"properties":{"d":"2026-10-10","t":"0310","frp":17.3,"b":353.1,"c":1,"s":"N21","n":0}},{"type":"Feature","geometry":{"type":"Point","coordinates":[142.0748,-13.0139]},"properties":{"d":"2026-10-10","t":"0310","frp":18.0,"b":347.6,"c":1,"s":"N21","n":0}},{"type":"Feature","geometry":{"type":"Point","coordinates":[142.0425,-13.0105]},"properties":{"d":"2026-10-10","t":"0310","frp":126.9,"b":344.4,"c":1,"s":"N21","n":0}},{"type":"Feature","geometry":{"type":"Point","coordinates":[142.0488,-13.0098]},"properties":{"d":"2026-10-10","t":"0310","frp":75.2,"b":367.0,"c":2,"s":"N21","n":0}},{"type":"Feature","geometry":{"type":"Point","coordinates":[142.055,-13.0091]},"properties":{"d":"2026-10-10","t":"0310","frp":75.2,"b":353.4,"c":1,"s":"N21","n":0}},{"type":"Feature","geometry":{"type":"Point","coordinates":[142.0615,-13.0084]},"properties":{"d":"2026-10-10","t":"0310","frp":14.1,"b":349.1,"c":1,"s":"N21","n":0}},{"type":"Feature","geometry":{"type":"Point","coordinates":[142.0679,-13.0077]},"properties":{"d":"2026-10-10","t":"0310","frp":14.1,"b":347.1,"c":1,"s":"N21","n":0}},{"type":"Feature","geometry":{"type":"Point","coordinates":[143.3774,-12.7457]},"properties":{"d":"2026-10-10","t":"0310","frp":9.1,"b":338.8,"c":1,"s":"N21","n":0}},{"type":"Feature","geometry":{"type":"Point","coordinates":[142.7816,-12.6471]},"properties":{"d":"2026-10-10","t":"0310","frp":54.2,"b":354.4,"c":1,"s":"N21","n":0}},{"type":"Feature","geometry":{"type":"Point","coordinates":[142.7792,-12.6466]},"properties":{"d":"2026-10-10","t":"0310","frp":42.9,"b":367.0,"c":2,"s":"N21","n":0}},{"type":"Feature","geometry":{"type":"Point","coordinates":[142.7871,-12.6464]},"properties":{"d":"2026-10-10","t":"0310","frp":32.7,"b":367.0,"c":2,"s":"N21","n":0}},{"type":"Feature","geometry":{"type":"Point","coordinates":[142.7847,-12.6461]},"properties":{"d":"2026-10-10","t":"0310","frp":45.4,"b":367.0,"c":2,"s":"N21","n":0}},{"type":"Feature","geometry":{"type":"Point","coordinates":[142.7926,-12.6458]},"properties":{"d":"2026-10-10","t":"0310","frp":32.7,"b":345.5,"c":1,"s":"N21","n":0}},{"type":"Feature","geometry":{"type":"Point","coordinates":[142.7902,-12.6455]},"properties":{"d":"2026-10-10","t":"0310","frp":45.4,"b":367.0,"c":2,"s":"N21","n":0}},{"type":"Feature","geometry":{"type":"Point","coordinates":[142.7982,-12.6452]},"properties":{"d":"2026-10-10","t":"0310","frp":9.5,"b":335.1,"c":1,"s":"N21","n":0}},{"type":"Feature","geometry":{"type":"Point","coordinates":[142.7957,-12.6449]},"properties":{"d":"2026-10-10","t":"0310","frp":17.4,"b":338.9,"c":1,"s":"N21","n":0}},{"type":"Feature","geometry":{"type":"Point","coordinates":[142.7755,-12.6411]},"properties":{"d":"2026-10-10","t":"0310","frp":39.5,"b":355.5,"c":1,"s":"N21","n":0}},{"type":"Feature","geometry":{"type":"Point","coordinates":[142.773,-12.6407]},"properties":{"d":"2026-10-10","t":"0310","frp":26.3,"b":332.7,"c":1,"s":"N21","n":0}},{"type":"Feature","geometry":{"type":"Point","coordinates":[142.781,-12.6405]},"properties":{"d":"2026-10-10","t":"0310","frp":39.5,"b":367.0,"c":2,"s":"N21","n":0}},{"type":"Feature","geometry":{"type":"Point","coordinates":[142.7786,-12.6401]},"properties":{"d":"2026-10-10","t":"0310","frp":26.3,"b":367.0,"c":2,"s":"N21","n":0}},{"type":"Feature","geometry":{"type":"Point","coordinates":[142.7865,-12.6399]},"properties":{"d":"2026-10-10","t":"0310","frp":25.3,"b":367.0,"c":2,"s":"N21","n":0}},{"type":"Feature","geometry":{"type":"Point","coordinates":[142.172,-12.6398]},"properties":{"d":"2026-10-10","t":"0310","frp":18.5,"b":330.9,"c":1,"s":"N21","n":0}},{"type":"Feature","geometry":{"type":"Point","coordinates":[142.784,-12.6395]},"properties":{"d":"2026-10-10","t":"0310","frp":29.4,"b":367.0,"c":2,"s":"N21","n":0}},{"type":"Feature","geometry":{"type":"Point","coordinates":[142.792,-12.6393]},"properties":{"d":"2026-10-10","t":"0310","frp":25.3,"b":349.6,"c":1,"s":"N21","n":0}},{"type":"Feature","geometry":{"type":"Point","coordinates":[142.1783,-12.6392]},"properties":{"d":"2026-10-10","t":"0310","frp":29.0,"b":347.1,"c":1,"s":"N21","n":0}},{"type":"Feature","geometry":{"type":"Point","coordinates":[142.7895,-12.6389]},"properties":{"d":"2026-10-10","t":"0310","frp":29.4,"b":347.9,"c":1,"s":"N21","n":0}},{"type":"Feature","geometry":{"type":"Point","coordinates":[142.7975,-12.6386]},"properties":{"d":"2026-10-10","t":"0310","frp":13.0,"b":340.0,"c":1,"s":"N21","n":0}},{"type":"Feature","geometry":{"type":"Point","coordinates":[142.1846,-12.6385]},"properties":{"d":"2026-10-10","t":"0310","frp":29.0,"b":343.9,"c":1,"s":"N21","n":0}},{"type":"Feature","geometry":{"type":"Point","coordinates":[142.795,-12.6383]},"properties":{"d":"2026-10-10","t":"0310","frp":19.4,"b":345.9,"c":1,"s":"N21","n":0}},{"type":"Feature","geometry":{"type":"Point","coordinates":[142.1909,-12.6378]},"properties":{"d":"2026-10-10","t":"0310","frp":14.2,"b":330.2,"c":1,"s":"N21","n":0}},{"type":"Feature","geometry":{"type":"Point","coordinates":[142.1743,-12.6372]},"properties":{"d":"2026-10-10","t":"0310","frp":24.3,"b":353.6,"c":1,"s":"N21","n":0}},{"type":"Feature","geometry":{"type":"Point","coordinates":[142.1806,-12.6365]},"properties":{"d":"2026-10-10","t":"0310","frp":17.4,"b":355.0,"c":1,"s":"N21","n":0}},{"type":"Feature","geometry":{"type":"Point","coordinates":[142.1868,-12.6358]},"properties":{"d":"2026-10-10","t":"0310","frp":17.4,"b":349.8,"c":1,"s":"N21","n":0}},{"type":"Feature","geometry":{"type":"Point","coordinates":[142.1714,-12.633]},"properties":{"d":"2026-10-10","t":"0310","frp":18.5,"b":367.0,"c":2,"s":"N21","n":0}},{"type":"Feature","geometry":{"type":"Point","coordinates":[142.1777,-12.6324]},"properties":{"d":"2026-10-10","t":"0310","frp":29.0,"b":367.0,"c":2,"s":"N21","n":0}},{"type":"Feature","geometry":{"type":"Point","coordinates":[142.1839,-12.6317]},"properties":{"d":"2026-10-10","t":"0310","frp":29.0,"b":367.0,"c":2,"s":"N21","n":0}},{"type":"Feature","geometry":{"type":"Point","coordinates":[142.1902,-12.6311]},"properties":{"d":"2026-10-10","t":"0310","frp":14.2,"b":338.9,"c":1,"s":"N21","n":0}},{"type":"Feature","geometry":{"type":"Point","coordinates":[142.1738,-12.6304]},"properties":{"d":"2026-10-10","t":"0310","frp":30.8,"b":367.0,"c":2,"s":"N21","n":0}},{"type":"Feature","geometry":{"type":"Point","coordinates":[142.18,-12.6297]},"properties":{"d":"2026-10-10","t":"0310","frp":39.9,"b":354.5,"c":1,"s":"N21","n":0}},{"type":"Feature","geometry":{"type":"Point","coordinates":[142.1862,-12.629]},"properties":{"d":"2026-10-10","t":"0310","frp":39.9,"b":367.0,"c":2,"s":"N21","n":0}},{"type":"Feature","geometry":{"type":"Point","coordinates":[141.9342,-12.4191]},"properties":{"d":"2026-10-10","t":"0310","frp":19.8,"b":367.0,"c":2,"s":"N21","n":0}},{"type":"Feature","geometry":{"type":"Point","coordinates":[141.9303,-12.4137]},"properties":{"d":"2026-10-10","t":"0310","frp":31.2,"b":339.2,"c":1,"s":"N21","n":0}},{"type":"Feature","geometry":{"type":"Point","coordinates":[141.9368,-12.413]},"properties":{"d":"2026-10-10","t":"0310","frp":20.2,"b":367.0,"c":2,"s":"N21","n":0}},{"type":"Feature","geometry":{"type":"Point","coordinates":[141.9335,-12.4122]},"properties":{"d":"2026-10-10","t":"0310","frp":19.8,"b":355.6,"c":1,"s":"N21","n":0}},{"type":"Feature","geometry":{"type":"Point","coordinates":[141.9359,-12.4062]},"properties":{"d":"2026-10-10","t":"0310","frp":20.2,"b":332.9,"c":1,"s":"N21","n":0}},{"type":"Feature","geometry":{"type":"Point","coordinates":[141.9326,-12.4054]},"properties":{"d":"2026-10-10","t":"0310","frp":7.2,"b":338.5,"c":1,"s":"N21","n":0}},{"type":"Feature","geometry":{"type":"Point","coordinates":[141.9248,-12.3923]},"properties":{"d":"2026-10-10","t":"0310","frp":12.3,"b":345.3,"c":1,"s":"N21","n":0}},{"type":"Feature","geometry":{"type":"Point","coordinates":[142.5667,-11.8594]},"properties":{"d":"2026-10-10","t":"0310","frp":9.6,"b":331.1,"c":1,"s":"N21","n":0}},{"type":"Feature","geometry":{"type":"Point","coordinates":[142.5776,-11.8592]},"properties":{"d":"2026-10-10","t":"0310","frp":8.5,"b":332.8,"c":1,"s":"N21","n":0}},{"type":"Feature","geometry":{"type":"Point","coordinates":[142.5521,-11.8356]},"properties":{"d":"2026-10-10","t":"0310","frp":12.1,"b":333.6,"c":1,"s":"N21","n":0}},{"type":"Feature","geometry":{"type":"Point","coordinates":[142.5919,-11.8234]},"properties":{"d":"2026-10-10","t":"0310","frp":4.9,"b":330.4,"c":1,"s":"N21","n":0}},{"type":"Feature","geometry":{"type":"Point","coordinates":[142.6252,-11.8204]},"properties":{"d":"2026-10-10","t":"0310","frp":15.1,"b":345.8,"c":1,"s":"N21","n":0}},{"type":"Feature","geometry":{"type":"Point","coordinates":[142.5736,-11.8198]},"properties":{"d":"2026-10-10","t":"0310","frp":8.4,"b":330.4,"c":1,"s":"N21","n":0}},{"type":"Feature","geometry":{"type":"Point","coordinates":[142.6259,-11.8197]},"properties":{"d":"2026-10-10","t":"0310","frp":13.3,"b":344.3,"c":1,"s":"N21","n":0}},{"type":"Feature","geometry":{"type":"Point","coordinates":[142.5906,-11.8178]},"properties":{"d":"2026-10-10","t":"0310","frp":46.0,"b":367.0,"c":2,"s":"N21","n":0}},{"type":"Feature","geometry":{"type":"Point","coordinates":[142.5963,-11.8172]},"properties":{"d":"2026-10-10","t":"0310","frp":46.0,"b":367.0,"c":2,"s":"N21","n":0}},{"type":"Feature","geometry":{"type":"Point","coordinates":[142.5911,-11.8169]},"properties":{"d":"2026-10-10","t":"0310","frp":41.8,"b":367.0,"c":2,"s":"N21","n":0}},{"type":"Feature","geometry":{"type":"Point","coordinates":[142.602,-11.8165]},"properties":{"d":"2026-10-10","t":"0310","frp":33.9,"b":355.1,"c":1,"s":"N21","n":0}},{"type":"Feature","geometry":{"type":"Point","coordinates":[142.5969,-11.8162]},"properties":{"d":"2026-10-10","t":"0310","frp":36.0,"b":367.0,"c":2,"s":"N21","n":0}},{"type":"Feature","geometry":{"type":"Point","coordinates":[142.6026,-11.8156]},"properties":{"d":"2026-10-10","t":"0310","frp":36.0,"b":352.8,"c":1,"s":"N21","n":0}},{"type":"Feature","geometry":{"type":"Point","coordinates":[142.3577,-11.099]},"properties":{"d":"2026-10-10","t":"0310","frp":8.3,"b":337.6,"c":1,"s":"N21","n":0}},{"type":"Feature","geometry":{"type":"Point","coordinates":[142.3551,-11.0981]},"properties":{"d":"2026-10-10","t":"0310","frp":13.8,"b":341.0,"c":1,"s":"N21","n":0}},{"type":"Feature","geometry":{"type":"Point","coordinates":[142.2643,-11.0248]},"properties":{"d":"2026-10-10","t":"0310","frp":14.5,"b":333.6,"c":1,"s":"N21","n":0}},{"type":"Feature","geometry":{"type":"Point","coordinates":[142.256,-11.0236]},"properties":{"d":"2026-10-10","t":"0310","frp":17.1,"b":335.1,"c":1,"s":"N21","n":0}},{"type":"Feature","geometry":{"type":"Point","coordinates":[142.2618,-11.0229]},"properties":{"d":"2026-10-10","t":"0310","frp":21.1,"b":367.0,"c":2,"s":"N21","n":0}},{"type":"Feature","geometry":{"type":"Point","coordinates":[142.2578,-11.0188]},"properties":{"d":"2026-10-10","t":"0310","frp":24.8,"b":367.0,"c":2,"s":"N21","n":0}},{"type":"Feature","geometry":{"type":"Point","coordinates":[150.3344,-10.467]},"properties":{"d":"2026-10-10","t":"0310","frp":4.9,"b":330.8,"c":1,"s":"N21","n":0}},{"type":"Feature","geometry":{"type":"Point","coordinates":[149.346,-10.2087]},"properties":{"d":"2026-10-10","t":"0310","frp":7.2,"b":340.0,"c":1,"s":"N21","n":0}},{"type":"Feature","geometry":{"type":"Point","coordinates":[149.2609,-10.1701]},"properties":{"d":"2026-10-10","t":"0310","frp":6.4,"b":338.5,"c":1,"s":"N21","n":0}},{"type":"Feature","geometry":{"type":"Point","coordinates":[149.9433,-10.145]},"properties":{"d":"2026-10-10","t":"0310","frp":6.0,"b":336.5,"c":1,"s":"N21","n":0}},{"type":"Feature","geometry":{"type":"Point","coordinates":[149.941,-10.1449]},"properties":{"d":"2026-10-10","t":"0310","frp":3.1,"b":337.4,"c":1,"s":"N21","n":0}},{"type":"Feature","geometry":{"type":"Point","coordinates":[148.4146,-10.1262]},"properties":{"d":"2026-10-10","t":"0310","frp":5.0,"b":338.1,"c":1,"s":"N21","n":0}},{"type":"Feature","geometry":{"type":"Point","coordinates":[148.0046,-10.0955]},"properties":{"d":"2026-10-10","t":"0310","frp":4.3,"b":328.8,"c":0,"s":"N21","n":0}},{"type":"Feature","geometry":{"type":"Point","coordinates":[148.0772,-10.0906]},"properties":{"d":"2026-10-10","t":"0310","frp":5.5,"b":339.4,"c":1,"s":"N21","n":0}},{"type":"Feature","geometry":{"type":"Point","coordinates":[148.078,-10.0875]},"properties":{"d":"2026-10-10","t":"0310","frp":5.9,"b":329.9,"c":0,"s":"N21","n":0}},{"type":"Feature","geometry":{"type":"Point","coordinates":[149.4028,-10.0637]},"properties":{"d":"2026-10-10","t":"0310","frp":16.9,"b":339.4,"c":1,"s":"N21","n":0}},{"type":"Feature","geometry":{"type":"Point","coordinates":[147.7656,-10.0471]},"properties":{"d":"2026-10-10","t":"0310","frp":7.8,"b":336.0,"c":1,"s":"N21","n":0}},{"type":"Feature","geometry":{"type":"Point","coordinates":[148.1444,-10.0421]},"properties":{"d":"2026-10-10","t":"0310","frp":10.2,"b":346.1,"c":1,"s":"N21","n":0}},{"type":"Feature","geometry":{"type":"Point","coordinates":[147.8475,-10.0178]},"properties":{"d":"2026-10-10","t":"0310","frp":5.9,"b":338.5,"c":1,"s":"N21","n":0}},{"type":"Feature","geometry":{"type":"Point","coordinates":[149.728,-10.0106]},"properties":{"d":"2026-10-10","t":"0310","frp":5.5,"b":339.9,"c":1,"s":"N21","n":0}},{"type":"Feature","geometry":{"type":"Point","coordinates":[148.4632,-9.9985]},"properties":{"d":"2026-10-10","t":"0310","frp":30.4,"b":347.9,"c":1,"s":"N21","n":0}},{"type":"Feature","geometry":{"type":"Point","coordinates":[148.4244,-9.995]},"properties":{"d":"2026-10-10","t":"0310","frp":4.6,"b":336.5,"c":1,"s":"N21","n":0}},{"type":"Feature","geometry":{"type":"Point","coordinates":[147.8873,-9.9923]},"properties":{"d":"2026-10-10","t":"0310","frp":6.4,"b":332.2,"c":0,"s":"N21","n":0}},{"type":"Feature","geometry":{"type":"Point","coordinates":[147.8822,-9.9884]},"properties":{"d":"2026-10-10","t":"0310","frp":6.4,"b":343.0,"c":1,"s":"N21","n":0}},{"type":"Feature","geometry":{"type":"Point","coordinates":[147.8906,-9.9826]},"properties":{"d":"2026-10-10","t":"0310","frp":5.2,"b":337.2,"c":0,"s":"N21","n":0}},{"type":"Feature","geometry":{"type":"Point","coordinates":[147.8952,-9.982]},"properties":{"d":"2026-10-10","t":"0310","frp":5.2,"b":332.7,"c":0,"s":"N21","n":0}},{"type":"Feature","geometry":{"type":"Point","coordinates":[148.482,-9.9782]},"properties":{"d":"2026-10-10","t":"0310","frp":10.0,"b":338.8,"c":1,"s":"N21","n":0}},{"type":"Feature","geometry":{"type":"Point","coordinates":[147.8901,-9.9781]},"properties":{"d":"2026-10-10","t":"0310","frp":5.2,"b":340.3,"c":1,"s":"N21","n":0}},{"type":"Feature","geometry":{"type":"Point","coordinates":[148.1225,-9.9735]},"properties":{"d":"2026-10-10","t":"0310","frp":5.4,"b":341.0,"c":1,"s":"N21","n":0}},{"type":"Feature","geometry":{"type":"Point","coordinates":[148.1219,-9.9727]},"properties":{"d":"2026-10-10","t":"0310","frp":24.3,"b":343.2,"c":1,"s":"N21","n":0}},{"type":"Feature","geometry":{"type":"Point","coordinates":[148.122,-9.969]},"properties":{"d":"2026-10-10","t":"0310","frp":21.3,"b":351.8,"c":1,"s":"N21","n":0}},{"type":"Feature","geometry":{"type":"Point","coordinates":[148.1214,-9.9682]},"properties":{"d":"2026-10-10","t":"0310","frp":3.5,"b":332.3,"c":1,"s":"N21","n":0}},{"type":"Feature","geometry":{"type":"Point","coordinates":[150.9317,-9.9617]},"properties":{"d":"2026-10-10","t":"0310","frp":7.2,"b":336.6,"c":1,"s":"N21","n":0}},{"type":"Feature","geometry":{"type":"Point","coordinates":[149.7627,-9.953]},"properties":{"d":"2026-10-10","t":"0310","frp":8.9,"b":333.2,"c":1,"s":"N21","n":0}},{"type":"Feature","geometry":{"type":"Point","coordinates":[149.7603,-9.9507]},"properties":{"d":"2026-10-10","t":"0310","frp":17.0,"b":341.6,"c":1,"s":"N21","n":0}},{"type":"Feature","geometry":{"type":"Point","coordinates":[149.4937,-9.9348]},"properties":{"d":"2026-10-10","t":"0310","frp":14.8,"b":367.0,"c":2,"s":"N21","n":0}},{"type":"Feature","geometry":{"type":"Point","coordinates":[149.7138,-9.9329]},"properties":{"d":"2026-10-10","t":"0310","frp":2.8,"b":333.7,"c":1,"s":"N21","n":0}},{"type":"Feature","geometry":{"type":"Point","coordinates":[147.8012,-9.9116]},"properties":{"d":"2026-10-10","t":"0310","frp":2.6,"b":334.9,"c":1,"s":"N21","n":0}},{"type":"Feature","geometry":{"type":"Point","coordinates":[147.8033,-9.9101]},"properties":{"d":"2026-10-10","t":"0310","frp":6.3,"b":339.5,"c":1,"s":"N21","n":0}},{"type":"Feature","geometry":{"type":"Point","coordinates":[147.7159,-9.8525]},"properties":{"d":"2026-10-10","t":"0310","frp":11.4,"b":344.2,"c":1,"s":"N21","n":0}},{"type":"Feature","geometry":{"type":"Point","coordinates":[149.586,-9.8428]},"properties":{"d":"2026-10-10","t":"0310","frp":4.6,"b":340.4,"c":1,"s":"N21","n":0}},{"type":"Feature","geometry":{"type":"Point","coordinates":[147.6952,-9.8413]},"properties":{"d":"2026-10-10","t":"0310","frp":2.4,"b":334.4,"c":0,"s":"N21","n":0}},{"type":"Feature","geometry":{"type":"Point","coordinates":[147.5214,-9.8413]},"properties":{"d":"2026-10-10","t":"0310","frp":7.1,"b":340.7,"c":1,"s":"N21","n":0}},{"type":"Feature","geometry":{"type":"Point","coordinates":[147.5199,-9.8409]},"properties":{"d":"2026-10-10","t":"0310","frp":9.1,"b":341.4,"c":1,"s":"N21","n":0}},{"type":"Feature","geometry":{"type":"Point","coordinates":[147.827,-9.8284]},"properties":{"d":"2026-10-10","t":"0310","frp":12.2,"b":343.1,"c":1,"s":"N21","n":0}},{"type":"Feature","geometry":{"type":"Point","coordinates":[147.8264,-9.8239]},"properties":{"d":"2026-10-10","t":"0310","frp":12.2,"b":341.7,"c":1,"s":"N21","n":0}},{"type":"Feature","geometry":{"type":"Point","coordinates":[147.7206,-9.8194]},"properties":{"d":"2026-10-10","t":"0310","frp":15.9,"b":353.9,"c":1,"s":"N21","n":0}},{"type":"Feature","geometry":{"type":"Point","coordinates":[147.7252,-9.8188]},"properties":{"d":"2026-10-10","t":"0310","frp":15.9,"b":343.1,"c":1,"s":"N21","n":0}},{"type":"Feature","geometry":{"type":"Point","coordinates":[147.7216,-9.8182]},"properties":{"d":"2026-10-10","t":"0310","frp":12.5,"b":347.1,"c":1,"s":"N21","n":0}},{"type":"Feature","geometry":{"type":"Point","coordinates":[147.7263,-9.8176]},"properties":{"d":"2026-10-10","t":"0310","frp":12.5,"b":340.6,"c":1,"s":"N21","n":0}},{"type":"Feature","geometry":{"type":"Point","coordinates":[147.7765,-9.812]},"properties":{"d":"2026-10-10","t":"0310","frp":2.6,"b":332.0,"c":0,"s":"N21","n":0}},{"type":"Feature","geometry":{"type":"Point","coordinates":[148.54,-9.8117]},"properties":{"d":"2026-10-10","t":"0310","frp":2.5,"b":330.9,"c":1,"s":"N21","n":0}},{"type":"Feature","geometry":{"type":"Point","coordinates":[149.5443,-9.7528]},"properties":{"d":"2026-10-10","t":"0310","frp":5.4,"b":334.3,"c":1,"s":"N21","n":0}},{"type":"Feature","geometry":{"type":"Point","coordinates":[149.4883,-9.7401]},"properties":{"d":"2026-10-10","t":"0310","frp":4.1,"b":348.0,"c":1,"s":"N21","n":0}},{"type":"Feature","geometry":{"type":"Point","coordinates":[147.8661,-9.7201]},"properties":{"d":"2026-10-10","t":"0310","frp":5.5,"b":337.8,"c":1,"s":"N21","n":0}},{"type":"Feature","geometry":{"type":"Point","coordinates":[147.9373,-9.7014]},"properties":{"d":"2026-10-10","t":"0310","frp":7.3,"b":335.6,"c":1,"s":"N21","n":0}},{"type":"Feature","geometry":{"type":"Point","coordinates":[147.8678,-9.6969]},"properties":{"d":"2026-10-10","t":"0310","frp":5.6,"b":331.6,"c":1,"s":"N21","n":0}},{"type":"Feature","geometry":{"type":"Point","coordinates":[147.6494,-9.688]},"properties":{"d":"2026-10-10","t":"0310","frp":5.1,"b":334.3,"c":1,"s":"N21","n":0}},{"type":"Feature","geometry":{"type":"Point","coordinates":[147.6541,-9.6874]},"properties":{"d":"2026-10-10","t":"0310","frp":5.1,"b":332.8,"c":0,"s":"N21","n":0}},{"type":"Feature","geometry":{"type":"Point","coordinates":[147.7728,-9.6864]},"properties":{"d":"2026-10-10","t":"0310","frp":2.6,"b":328.5,"c":1,"s":"N21","n":0}},{"type":"Feature","geometry":{"type":"Point","coordinates":[147.808,-9.6847]},"properties":{"d":"2026-10-10","t":"0310","frp":8.9,"b":340.8,"c":1,"s":"N21","n":0}},{"type":"Feature","geometry":{"type":"Point","coordinates":[147.8067,-9.682]},"properties":{"d":"2026-10-10","t":"0310","frp":8.4,"b":333.4,"c":0,"s":"N21","n":0}},{"type":"Feature","geometry":{"type":"Point","coordinates":[147.6535,-9.6782]},"properties":{"d":"2026-10-10","t":"0310","frp":18.0,"b":367.0,"c":2,"s":"N21","n":0}},{"type":"Feature","geometry":{"type":"Point","coordinates":[147.749,-9.6744]},"properties":{"d":"2026-10-10","t":"0310","frp":5.8,"b":339.3,"c":1,"s":"N21","n":0}},{"type":"Feature","geometry":{"type":"Point","coordinates":[147.6529,-9.6736]},"properties":{"d":"2026-10-10","t":"0310","frp":17.8,"b":355.2,"c":1,"s":"N21","n":0}},{"type":"Feature","geometry":{"type":"Point","coordinates":[147.7916,-9.6686]},"properties":{"d":"2026-10-10","t":"0310","frp":8.2,"b":345.5,"c":1,"s":"N21","n":0}},{"type":"Feature","geometry":{"type":"Point","coordinates":[147.7647,-9.663]},"properties":{"d":"2026-10-10","t":"0310","frp":6.6,"b":333.4,"c":1,"s":"N21","n":0}},{"type":"Feature","geometry":{"type":"Point","coordinates":[149.2959,-9.6548]},"properties":{"d":"2026-10-10","t":"0310","frp":9.0,"b":340.5,"c":1,"s":"N21","n":0}},{"type":"Feature","geometry":{"type":"Point","coordinates":[149.2873,-9.6477]},"properties":{"d":"2026-10-10","t":"0310","frp":7.6,"b":340.5,"c":1,"s":"N21","n":0}},{"type":"Feature","geometry":{"type":"Point","coordinates":[149.2946,-9.6467]},"properties":{"d":"2026-10-10","t":"0310","frp":8.9,"b":344.2,"c":1,"s":"N21","n":0}},{"type":"Feature","geometry":{"type":"Point","coordinates":[149.4595,-9.6403]},"properties":{"d":"2026-10-10","t":"0310","frp":4.6,"b":338.4,"c":1,"s":"N21","n":0}},{"type":"Feature","geometry":{"type":"Point","coordinates":[147.6822,-9.6325]},"properties":{"d":"2026-10-10","t":"0310","frp":4.8,"b":331.9,"c":0,"s":"N21","n":0}},{"type":"Feature","geometry":{"type":"Point","coordinates":[147.9395,-9.63]},"properties":{"d":"2026-10-10","t":"0310","frp":7.0,"b":328.6,"c":0,"s":"N21","n":0}},{"type":"Feature","geometry":{"type":"Point","coordinates":[147.8431,-9.6294]},"properties":{"d":"2026-10-10","t":"0310","frp":2.5,"b":330.2,"c":1,"s":"N21","n":0}},{"type":"Feature","geometry":{"type":"Point","coordinates":[149.3468,-9.6228]},"properties":{"d":"2026-10-10","t":"0310","frp":3.2,"b":335.3,"c":1,"s":"N21","n":0}},{"type":"Feature","geometry":{"type":"Point","coordinates":[148.57,-9.6077]},"properties":{"d":"2026-10-10","t":"0310","frp":4.7,"b":343.9,"c":1,"s":"N21","n":0}},{"type":"Feature","geometry":{"type":"Point","coordinates":[148.5933,-9.5709]},"properties":{"d":"2026-10-10","t":"0310","frp":5.9,"b":339.6,"c":0,"s":"N21","n":0}},{"type":"Feature","geometry":{"type":"Point","coordinates":[150.5394,-9.5419]},"properties":{"d":"2026-10-10","t":"0310","frp":4.0,"b":331.3,"c":1,"s":"N21","n":0}},{"type":"Feature","geometry":{"type":"Point","coordinates":[150.5258,-9.4973]},"properties":{"d":"2026-10-10","t":"0310","frp":5.1,"b":333.9,"c":0,"s":"N21","n":0}},{"type":"Feature","geometry":{"type":"Point","coordinates":[150.5253,-9.4935]},"properties":{"d":"2026-10-10","t":"0310","frp":5.1,"b":336.9,"c":1,"s":"N21","n":0}},{"type":"Feature","geometry":{"type":"Point","coordinates":[150.6702,-9.4919]},"properties":{"d":"2026-10-10","t":"0310","frp":6.2,"b":334.7,"c":1,"s":"N21","n":0}},{"type":"Feature","geometry":{"type":"Point","coordinates":[152.8997,-9.1541]},"properties":{"d":"2026-10-10","t":"0310","frp":41.8,"b":339.1,"c":0,"s":"N21","n":0}},{"type":"Feature","geometry":{"type":"Point","coordinates":[144.2032,-15.7344]},"properties":{"d":"2026-10-10","t":"0313","frp":6.0,"b":333.8,"c":1,"s":"N21","n":0}},{"type":"Feature","geometry":{"type":"Point","coordinates":[142.1462,-15.6658]},"properties":{"d":"2026-10-10","t":"0313","frp":5.8,"b":333.2,"c":1,"s":"N21","n":0}},{"type":"Feature","geometry":{"type":"Point","coordinates":[144.4678,-15.6327]},"properties":{"d":"2026-10-10","t":"0313","frp":17.6,"b":367.0,"c":2,"s":"N21","n":0}},{"type":"Feature","geometry":{"type":"Point","coordinates":[144.4644,-15.6325]},"properties":{"d":"2026-10-10","t":"0313","frp":12.5,"b":337.7,"c":1,"s":"N21","n":0}},{"type":"Feature","geometry":{"type":"Point","coordinates":[144.4691,-15.632]},"properties":{"d":"2026-10-10","t":"0313","frp":12.5,"b":367.0,"c":2,"s":"N21","n":0}},{"type":"Feature","geometry":{"type":"Point","coordinates":[144.6786,-15.5973]},"properties":{"d":"2026-10-10","t":"0313","frp":37.9,"b":351.2,"c":1,"s":"N21","n":0}},{"type":"Feature","geometry":{"type":"Point","coordinates":[144.6832,-15.5968]},"properties":{"d":"2026-10-10","t":"0313","frp":35.3,"b":367.0,"c":2,"s":"N21","n":0}},{"type":"Feature","geometry":{"type":"Point","coordinates":[144.6782,-15.5913]},"properties":{"d":"2026-10-10","t":"0313","frp":12.6,"b":354.3,"c":1,"s":"N21","n":0}},{"type":"Feature","geometry":{"type":"Point","coordinates":[144.6829,-15.5908]},"properties":{"d":"2026-10-10","t":"0313","frp":17.6,"b":340.9,"c":1,"s":"N21","n":0}},{"type":"Feature","geometry":{"type":"Point","coordinates":[144.6726,-15.5858]},"properties":{"d":"2026-10-10","t":"0313","frp":12.6,"b":349.8,"c":1,"s":"N21","n":0}},{"type":"Feature","geometry":{"type":"Point","coordinates":[144.6775,-15.5853]},"properties":{"d":"2026-10-10","t":"0313","frp":12.6,"b":332.0,"c":1,"s":"N21","n":0}},{"type":"Feature","geometry":{"type":"Point","coordinates":[144.9539,-15.2615]},"properties":{"d":"2026-10-10","t":"0313","frp":4.3,"b":334.5,"c":1,"s":"N21","n":0}},{"type":"Feature","geometry":{"type":"Point","coordinates":[144.9538,-15.2601]},"properties":{"d":"2026-10-10","t":"0313","frp":4.2,"b":330.2,"c":1,"s":"N21","n":0}},{"type":"Feature","geometry":{"type":"Point","coordinates":[144.5591,-14.7956]},"properties":{"d":"2026-10-10","t":"0313","frp":6.0,"b":335.4,"c":1,"s":"N21","n":0}},{"type":"Feature","geometry":{"type":"Point","coordinates":[144.5637,-14.7951]},"properties":{"d":"2026-10-10","t":"0313","frp":6.0,"b":334.8,"c":1,"s":"N21","n":0}},{"type":"Feature","geometry":{"type":"Point","coordinates":[144.5594,-14.7934]},"properties":{"d":"2026-10-10","t":"0313","frp":10.6,"b":348.6,"c":1,"s":"N21","n":0}},{"type":"Feature","geometry":{"type":"Point","coordinates":[144.564,-14.7929]},"properties":{"d":"2026-10-10","t":"0313","frp":10.6,"b":341.8,"c":1,"s":"N21","n":0}},{"type":"Feature","geometry":{"type":"Point","coordinates":[144.5676,-14.7886]},"properties":{"d":"2026-10-10","t":"0313","frp":11.5,"b":340.3,"c":1,"s":"N21","n":0}},{"type":"Feature","geometry":{"type":"Point","coordinates":[144.568,-14.7863]},"properties":{"d":"2026-10-10","t":"0313","frp":10.2,"b":331.9,"c":1,"s":"N21","n":0}},{"type":"Feature","geometry":{"type":"Point","coordinates":[144.7899,-14.7653]},"properties":{"d":"2026-10-10","t":"0313","frp":6.7,"b":337.1,"c":1,"s":"N21","n":0}},{"type":"Feature","geometry":{"type":"Point","coordinates":[144.5722,-14.7311]},"properties":{"d":"2026-10-10","t":"0313","frp":8.0,"b":331.3,"c":1,"s":"N21","n":0}},{"type":"Feature","geometry":{"type":"Point","coordinates":[144.5485,-14.7276]},"properties":{"d":"2026-10-10","t":"0313","frp":3.2,"b":338.4,"c":1,"s":"N21","n":0}},{"type":"Feature","geometry":{"type":"Point","coordinates":[144.5715,-14.7251]},"properties":{"d":"2026-10-10","t":"0313","frp":8.0,"b":367.0,"c":2,"s":"N21","n":0}},{"type":"Feature","geometry":{"type":"Point","coordinates":[144.5517,-14.7089]},"properties":{"d":"2026-10-10","t":"0313","frp":15.2,"b":354.7,"c":1,"s":"N21","n":0}},{"type":"Feature","geometry":{"type":"Point","coordinates":[144.5563,-14.7085]},"properties":{"d":"2026-10-10","t":"0313","frp":15.2,"b":367.0,"c":2,"s":"N21","n":0}},{"type":"Feature","geometry":{"type":"Point","coordinates":[144.5608,-14.708]},"properties":{"d":"2026-10-10","t":"0313","frp":25.2,"b":367.0,"c":2,"s":"N21","n":0}},{"type":"Feature","geometry":{"type":"Point","coordinates":[143.8677,-14.6496]},"properties":{"d":"2026-10-10","t":"0313","frp":15.3,"b":339.7,"c":1,"s":"N21","n":0}},{"type":"Feature","geometry":{"type":"Point","coordinates":[143.8658,-14.6458]},"properties":{"d":"2026-10-10","t":"0313","frp":26.8,"b":367.0,"c":2,"s":"N21","n":0}},{"type":"Feature","geometry":{"type":"Point","coordinates":[143.8671,-14.6433]},"properties":{"d":"2026-10-10","t":"0313","frp":15.3,"b":353.4,"c":1,"s":"N21","n":0}},{"type":"Feature","geometry":{"type":"Point","coordinates":[144.4625,-14.2863]},"properties":{"d":"2026-10-10","t":"0313","frp":5.5,"b":331.3,"c":1,"s":"N21","n":0}},{"type":"Feature","geometry":{"type":"Point","coordinates":[143.3116,-14.0659]},"properties":{"d":"2026-10-10","t":"0313","frp":7.7,"b":334.7,"c":1,"s":"N21","n":0}},{"type":"Feature","geometry":{"type":"Point","coordinates":[143.3119,-14.0605]},"properties":{"d":"2026-10-10","t":"0313","frp":7.2,"b":339.7,"c":1,"s":"N21","n":0}},{"type":"Feature","geometry":{"type":"Point","coordinates":[148.3177,-9.4926]},"properties":{"d":"2026-10-10","t":"0313","frp":5.7,"b":340.4,"c":1,"s":"N21","n":0}},{"type":"Feature","geometry":{"type":"Point","coordinates":[148.4254,-9.4865]},"properties":{"d":"2026-10-10","t":"0313","frp":5.2,"b":339.4,"c":1,"s":"N21","n":0}},{"type":"Feature","geometry":{"type":"Point","coordinates":[147.9236,-9.4698]},"properties":{"d":"2026-10-10","t":"0313","frp":8.7,"b":340.3,"c":1,"s":"N21","n":0}},{"type":"Feature","geometry":{"type":"Point","coordinates":[148.3553,-9.4653]},"properties":{"d":"2026-10-10","t":"0313","frp":3.6,"b":330.1,"c":0,"s":"N21","n":0}},{"type":"Feature","geometry":{"type":"Point","coordinates":[148.3597,-9.4647]},"properties":{"d":"2026-10-10","t":"0313","frp":3.6,"b":334.4,"c":1,"s":"N21","n":0}},{"type":"Feature","geometry":{"type":"Point","coordinates":[147.4104,-9.4582]},"properties":{"d":"2026-10-10","t":"0313","frp":5.0,"b":341.4,"c":1,"s":"N21","n":0}},{"type":"Feature","geometry":{"type":"Point","coordinates":[147.995,-9.4567]},"properties":{"d":"2026-10-10","t":"0313","frp":7.4,"b":339.1,"c":1,"s":"N21","n":0}},{"type":"Feature","geometry":{"type":"Point","coordinates":[147.8886,-9.4561]},"properties":{"d":"2026-10-10","t":"0313","frp":4.9,"b":329.7,"c":1,"s":"N21","n":0}},{"type":"Feature","geometry":{"type":"Point","coordinates":[147.9936,-9.4559]},"properties":{"d":"2026-10-10","t":"0313","frp":8.3,"b":344.8,"c":1,"s":"N21","n":0}},{"type":"Feature","geometry":{"type":"Point","coordinates":[147.4234,-9.4518]},"properties":{"d":"2026-10-10","t":"0313","frp":4.2,"b":330.3,"c":0,"s":"N21","n":0}},{"type":"Feature","geometry":{"type":"Point","coordinates":[147.4281,-9.4512]},"properties":{"d":"2026-10-10","t":"0313","frp":4.2,"b":332.8,"c":0,"s":"N21","n":0}},{"type":"Feature","geometry":{"type":"Point","coordinates":[147.4692,-9.4316]},"properties":{"d":"2026-10-10","t":"0313","frp":11.7,"b":349.4,"c":1,"s":"N21","n":0}},{"type":"Feature","geometry":{"type":"Point","coordinates":[148.2774,-9.4038]},"properties":{"d":"2026-10-10","t":"0313","frp":7.3,"b":342.2,"c":1,"s":"N21","n":0}},{"type":"Feature","geometry":{"type":"Point","coordinates":[148.7175,-9.4024]},"properties":{"d":"2026-10-10","t":"0313","frp":5.2,"b":338.1,"c":1,"s":"N21","n":0}},{"type":"Feature","geometry":{"type":"Point","coordinates":[148.2736,-9.3998]},"properties":{"d":"2026-10-10","t":"0313","frp":20.4,"b":351.7,"c":1,"s":"N21","n":0}},{"type":"Feature","geometry":{"type":"Point","coordinates":[148.7169,-9.3982]},"properties":{"d":"2026-10-10","t":"0313","frp":5.2,"b":342.1,"c":1,"s":"N21","n":0}},{"type":"Feature","geometry":{"type":"Point","coordinates":[147.1845,-9.3807]},"properties":{"d":"2026-10-10","t":"0313","frp":3.6,"b":336.7,"c":1,"s":"N21","n":0}},{"type":"Feature","geometry":{"type":"Point","coordinates":[148.7665,-9.3785]},"properties":{"d":"2026-10-10","t":"0313","frp":5.6,"b":330.3,"c":1,"s":"N21","n":0}},{"type":"Feature","geometry":{"type":"Point","coordinates":[148.762,-9.3748]},"properties":{"d":"2026-10-10","t":"0313","frp":5.6,"b":344.4,"c":1,"s":"N21","n":0}},{"type":"Feature","geometry":{"type":"Point","coordinates":[148.766,-9.3742]},"properties":{"d":"2026-10-10","t":"0313","frp":5.6,"b":332.6,"c":1,"s":"N21","n":0}},{"type":"Feature","geometry":{"type":"Point","coordinates":[148.2071,-9.3734]},"properties":{"d":"2026-10-10","t":"0313","frp":3.5,"b":334.2,"c":1,"s":"N21","n":0}},{"type":"Feature","geometry":{"type":"Point","coordinates":[148.7615,-9.3705]},"properties":{"d":"2026-10-10","t":"0313","frp":6.1,"b":341.2,"c":1,"s":"N21","n":0}},{"type":"Feature","geometry":{"type":"Point","coordinates":[148.7332,-9.3701]},"properties":{"d":"2026-10-10","t":"0313","frp":4.5,"b":339.7,"c":1,"s":"N21","n":0}},{"type":"Feature","geometry":{"type":"Point","coordinates":[148.7327,-9.3659]},"properties":{"d":"2026-10-10","t":"0313","frp":10.3,"b":341.6,"c":1,"s":"N21","n":0}},{"type":"Feature","geometry":{"type":"Point","coordinates":[148.7642,-9.3616]},"properties":{"d":"2026-10-10","t":"0313","frp":7.0,"b":341.0,"c":1,"s":"N21","n":0}},{"type":"Feature","geometry":{"type":"Point","coordinates":[149.1278,-9.3457]},"properties":{"d":"2026-10-10","t":"0313","frp":3.3,"b":333.0,"c":0,"s":"N21","n":0}},{"type":"Feature","geometry":{"type":"Point","coordinates":[148.9519,-9.3234]},"properties":{"d":"2026-10-10","t":"0313","frp":2.7,"b":334.9,"c":1,"s":"N21","n":0}},{"type":"Feature","geometry":{"type":"Point","coordinates":[149.1437,-9.3226]},"properties":{"d":"2026-10-10","t":"0313","frp":2.9,"b":330.8,"c":0,"s":"N21","n":0}},{"type":"Feature","geometry":{"type":"Point","coordinates":[148.9516,-9.3216]},"properties":{"d":"2026-10-10","t":"0313","frp":14.9,"b":341.9,"c":1,"s":"N21","n":0}},{"type":"Feature","geometry":{"type":"Point","coordinates":[148.9514,-9.3192]},"properties":{"d":"2026-10-10","t":"0313","frp":11.1,"b":343.1,"c":1,"s":"N21","n":0}},{"type":"Feature","geometry":{"type":"Point","coordinates":[147.6741,-9.2968]},"properties":{"d":"2026-10-10","t":"0313","frp":7.2,"b":334.2,"c":1,"s":"N21","n":0}},{"type":"Feature","geometry":{"type":"Point","coordinates":[147.156,-9.2963]},"properties":{"d":"2026-10-10","t":"0313","frp":7.4,"b":342.0,"c":1,"s":"N21","n":0}},{"type":"Feature","geometry":{"type":"Point","coordinates":[147.6299,-9.2888]},"properties":{"d":"2026-10-10","t":"0313","frp":7.4,"b":328.6,"c":0,"s":"N21","n":0}},{"type":"Feature","geometry":{"type":"Point","coordinates":[142.5737,-9.2808]},"properties":{"d":"2026-10-10","t":"0313","frp":7.3,"b":335.4,"c":1,"s":"N21","n":0}},{"type":"Feature","geometry":{"type":"Point","coordinates":[147.534,-9.2732]},"properties":{"d":"2026-10-10","t":"0313","frp":13.8,"b":351.1,"c":1,"s":"N21","n":0}},{"type":"Feature","geometry":{"type":"Point","coordinates":[148.8824,-9.2718]},"properties":{"d":"2026-10-10","t":"0313","frp":4.5,"b":329.2,"c":0,"s":"N21","n":0}},{"type":"Feature","geometry":{"type":"Point","coordinates":[147.0754,-9.2686]},"properties":{"d":"2026-10-10","t":"0313","frp":30.5,"b":342.0,"c":1,"s":"N21","n":0}},{"type":"Feature","geometry":{"type":"Point","coordinates":[148.7873,-9.2678]},"properties":{"d":"2026-10-10","t":"0313","frp":19.9,"b":333.8,"c":0,"s":"N21","n":0}},{"type":"Feature","geometry":{"type":"Point","coordinates":[148.8818,-9.2676]},"properties":{"d":"2026-10-10","t":"0313","frp":4.5,"b":330.3,"c":0,"s":"N21","n":0}},{"type":"Feature","geometry":{"type":"Point","coordinates":[148.7912,-9.2672]},"properties":{"d":"2026-10-10","t":"0313","frp":19.9,"b":342.1,"c":1,"s":"N21","n":0}},{"type":"Feature","geometry":{"type":"Point","coordinates":[147.06,-9.2545]},"properties":{"d":"2026-10-10","t":"0313","frp":8.6,"b":340.9,"c":1,"s":"N21","n":0}},{"type":"Feature","geometry":{"type":"Point","coordinates":[147.0628,-9.251]},"properties":{"d":"2026-10-10","t":"0313","frp":8.8,"b":340.7,"c":1,"s":"N21","n":0}},{"type":"Feature","geometry":{"type":"Point","coordinates":[147.3124,-9.2421]},"properties":{"d":"2026-10-10","t":"0313","frp":9.2,"b":339.0,"c":1,"s":"N21","n":0}},{"type":"Feature","geometry":{"type":"Point","coordinates":[148.622,-9.2387]},"properties":{"d":"2026-10-10","t":"0313","frp":38.5,"b":341.8,"c":1,"s":"N21","n":0}},{"type":"Feature","geometry":{"type":"Point","coordinates":[147.3068,-9.2381]},"properties":{"d":"2026-10-10","t":"0313","frp":9.2,"b":343.4,"c":1,"s":"N21","n":0}},{"type":"Feature","geometry":{"type":"Point","coordinates":[147.3554,-9.2269]},"properties":{"d":"2026-10-10","t":"0313","frp":7.7,"b":334.9,"c":1,"s":"N21","n":0}},{"type":"Feature","geometry":{"type":"Point","coordinates":[150.2192,-9.2241]},"properties":{"d":"2026-10-10","t":"0313","frp":10.0,"b":333.2,"c":0,"s":"N21","n":0}},{"type":"Feature","geometry":{"type":"Point","coordinates":[147.1878,-9.2129]},"properties":{"d":"2026-10-10","t":"0313","frp":3.1,"b":331.4,"c":0,"s":"N21","n":0}},{"type":"Feature","geometry":{"type":"Point","coordinates":[147.2621,-9.2028]},"properties":{"d":"2026-10-10","t":"0313","frp":6.5,"b":337.3,"c":1,"s":"N21","n":0}},{"type":"Feature","geometry":{"type":"Point","coordinates":[142.4958,-9.1844]},"properties":{"d":"2026-10-10","t":"0313","frp":9.4,"b":345.2,"c":1,"s":"N21","n":0}},{"type":"Feature","geometry":{"type":"Point","coordinates":[142.6257,-9.184]},"properties":{"d":"2026-10-10","t":"0313","frp":34.8,"b":355.7,"c":1,"s":"N21","n":0}},{"type":"Feature","geometry":{"type":"Point","coordinates":[142.6266,-9.1807]},"properties":{"d":"2026-10-10","t":"0313","frp":25.1,"b":367.0,"c":2,"s":"N21","n":0}},{"type":"Feature","geometry":{"type":"Point","coordinates":[142.4938,-9.1805]},"properties":{"d":"2026-10-10","t":"0313","frp":8.9,"b":337.2,"c":1,"s":"N21","n":0}},{"type":"Feature","geometry":{"type":"Point","coordinates":[147.2933,-9.1653]},"properties":{"d":"2026-10-10","t":"0313","frp":7.0,"b":332.7,"c":0,"s":"N21","n":0}},{"type":"Feature","geometry":{"type":"Point","coordinates":[142.5673,-9.1624]},"properties":{"d":"2026-10-10","t":"0313","frp":17.8,"b":355.0,"c":1,"s":"N21","n":0}},{"type":"Feature","geometry":{"type":"Point","coordinates":[147.2927,-9.1607]},"properties":{"d":"2026-10-10","t":"0313","frp":7.0,"b":333.6,"c":1,"s":"N21","n":0}},{"type":"Feature","geometry":{"type":"Point","coordinates":[142.5192,-9.1555]},"properties":{"d":"2026-10-10","t":"0313","frp":33.0,"b":331.1,"c":1,"s":"N21","n":0}},{"type":"Feature","geometry":{"type":"Point","coordinates":[142.5296,-9.1542]},"properties":{"d":"2026-10-10","t":"0313","frp":10.3,"b":341.9,"c":1,"s":"N21","n":0}},{"type":"Feature","geometry":{"type":"Point","coordinates":[142.5132,-9.1498]},"properties":{"d":"2026-10-10","t":"0313","frp":43.7,"b":352.3,"c":1,"s":"N21","n":0}},{"type":"Feature","geometry":{"type":"Point","coordinates":[142.5185,-9.1492]},"properties":{"d":"2026-10-10","t":"0313","frp":33.0,"b":367.0,"c":2,"s":"N21","n":0}},{"type":"Feature","geometry":{"type":"Point","coordinates":[147.0325,-9.146]},"properties":{"d":"2026-10-10","t":"0313","frp":5.0,"b":328.5,"c":0,"s":"N21","n":0}},{"type":"Feature","geometry":{"type":"Point","coordinates":[147.0459,-9.1456]},"properties":{"d":"2026-10-10","t":"0313","frp":3.4,"b":335.5,"c":1,"s":"N21","n":0}},{"type":"Feature","geometry":{"type":"Point","coordinates":[147.0477,-9.1439]},"properties":{"d":"2026-10-10","t":"0313","frp":12.2,"b":339.3,"c":1,"s":"N21","n":0}},{"type":"Feature","geometry":{"type":"Point","coordinates":[147.0453,-9.1409]},"properties":{"d":"2026-10-10","t":"0313","frp":3.7,"b":339.9,"c":1,"s":"N21","n":0}},{"type":"Feature","geometry":{"type":"Point","coordinates":[148.3916,-9.1324]},"properties":{"d":"2026-10-10","t":"0313","frp":5.2,"b":328.4,"c":0,"s":"N21","n":0}},{"type":"Feature","geometry":{"type":"Point","coordinates":[142.6056,-9.1319]},"properties":{"d":"2026-10-10","t":"0313","frp":11.5,"b":337.5,"c":1,"s":"N21","n":0}},{"type":"Feature","geometry":{"type":"Point","coordinates":[142.3504,-9.1308]},"properties":{"d":"2026-10-10","t":"0313","frp":4.0,"b":330.5,"c":1,"s":"N21","n":0}},{"type":"Feature","geometry":{"type":"Point","coordinates":[141.1887,-9.1302]},"properties":{"d":"2026-10-10","t":"0313","frp":11.0,"b":334.7,"c":1,"s":"N21","n":0}},{"type":"Feature","geometry":{"type":"Point","coordinates":[141.1882,-9.1298]},"properties":{"d":"2026-10-10","t":"0313","frp":9.6,"b":337.1,"c":1,"s":"N21","n":0}},{"type":"Feature","geometry":{"type":"Point","coordinates":[142.3877,-9.1263]},"properties":{"d":"2026-10-10","t":"0313","frp":12.1,"b":337.8,"c":1,"s":"N21","n":0}},{"type":"Feature","geometry":{"type":"Point","coordinates":[142.3893,-9.1247]},"properties":{"d":"2026-10-10","t":"0313","frp":11.8,"b":343.4,"c":1,"s":"N21","n":0}},{"type":"Feature","geometry":{"type":"Point","coordinates":[148.6432,-9.1192]},"properties":{"d":"2026-10-10","t":"0313","frp":3.7,"b":338.8,"c":1,"s":"N21","n":0}},{"type":"Feature","geometry":{"type":"Point","coordinates":[142.3588,-9.1102]},"properties":{"d":"2026-10-10","t":"0313","frp":12.4,"b":330.4,"c":1,"s":"N21","n":0}},{"type":"Feature","geometry":{"type":"Point","coordinates":[148.9646,-9.1101]},"properties":{"d":"2026-10-10","t":"0313","frp":3.7,"b":339.5,"c":1,"s":"N21","n":0}},{"type":"Feature","geometry":{"type":"Point","coordinates":[142.3606,-9.1088]},"properties":{"d":"2026-10-10","t":"0313","frp":12.8,"b":340.4,"c":1,"s":"N21","n":0}},{"type":"Feature","geometry":{"type":"Point","coordinates":[142.5622,-9.1024]},"properties":{"d":"2026-10-10","t":"0313","frp":6.6,"b":336.3,"c":1,"s":"N21","n":0}},{"type":"Feature","geometry":{"type":"Point","coordinates":[142.5551,-9.0994]},"properties":{"d":"2026-10-10","t":"0313","frp":14.1,"b":339.7,"c":1,"s":"N21","n":0}},{"type":"Feature","geometry":{"type":"Point","coordinates":[142.5603,-9.0988]},"properties":{"d":"2026-10-10","t":"0313","frp":14.1,"b":342.0,"c":1,"s":"N21","n":0}},{"type":"Feature","geometry":{"type":"Point","coordinates":[142.5511,-9.0974]},"properties":{"d":"2026-10-10","t":"0313","frp":15.9,"b":338.8,"c":1,"s":"N21","n":0}},{"type":"Feature","geometry":{"type":"Point","coordinates":[142.5563,-9.0967]},"properties":{"d":"2026-10-10","t":"0313","frp":16.3,"b":342.0,"c":1,"s":"N21","n":0}},{"type":"Feature","geometry":{"type":"Point","coordinates":[141.1844,-9.0953]},"properties":{"d":"2026-10-10","t":"0313","frp":20.0,"b":337.6,"c":1,"s":"N21","n":0}},{"type":"Feature","geometry":{"type":"Point","coordinates":[141.1909,-9.0945]},"properties":{"d":"2026-10-10","t":"0313","frp":20.0,"b":367.0,"c":2,"s":"N21","n":0}},{"type":"Feature","geometry":{"type":"Point","coordinates":[142.5769,-9.094]},"properties":{"d":"2026-10-10","t":"0313","frp":9.1,"b":333.0,"c":1,"s":"N21","n":0}},{"type":"Feature","geometry":{"type":"Point","coordinates":[142.5491,-9.0937]},"properties":{"d":"2026-10-10","t":"0313","frp":17.7,"b":346.3,"c":1,"s":"N21","n":0}},{"type":"Feature","geometry":{"type":"Point","coordinates":[142.3459,-9.0921]},"properties":{"d":"2026-10-10","t":"0313","frp":11.4,"b":336.4,"c":1,"s":"N21","n":0}},{"type":"Feature","geometry":{"type":"Point","coordinates":[142.5647,-9.0918]},"properties":{"d":"2026-10-10","t":"0313","frp":10.7,"b":330.4,"c":1,"s":"N21","n":0}},{"type":"Feature","geometry":{"type":"Point","coordinates":[142.5452,-9.0917]},"properties":{"d":"2026-10-10","t":"0313","frp":15.9,"b":354.9,"c":1,"s":"N21","n":0}},{"type":"Feature","geometry":{"type":"Point","coordinates":[142.3424,-9.0915]},"properties":{"d":"2026-10-10","t":"0313","frp":7.4,"b":339.7,"c":1,"s":"N21","n":0}},{"type":"Feature","geometry":{"type":"Point","coordinates":[142.5698,-9.0912]},"properties":{"d":"2026-10-10","t":"0313","frp":10.7,"b":330.7,"c":1,"s":"N21","n":0}},{"type":"Feature","geometry":{"type":"Point","coordinates":[142.3477,-9.0908]},"properties":{"d":"2026-10-10","t":"0313","frp":7.4,"b":332.2,"c":1,"s":"N21","n":0}},{"type":"Feature","geometry":{"type":"Point","coordinates":[142.575,-9.0905]},"properties":{"d":"2026-10-10","t":"0313","frp":9.9,"b":334.6,"c":1,"s":"N21","n":0}},{"type":"Feature","geometry":{"type":"Point","coordinates":[142.5608,-9.0897]},"properties":{"d":"2026-10-10","t":"0313","frp":16.3,"b":346.0,"c":1,"s":"N21","n":0}},{"type":"Feature","geometry":{"type":"Point","coordinates":[147.1684,-9.0891]},"properties":{"d":"2026-10-10","t":"0313","frp":5.4,"b":332.5,"c":0,"s":"N21","n":0}},{"type":"Feature","geometry":{"type":"Point","coordinates":[142.5659,-9.089]},"properties":{"d":"2026-10-10","t":"0313","frp":13.3,"b":337.0,"c":1,"s":"N21","n":0}},{"type":"Feature","geometry":{"type":"Point","coordinates":[141.1837,-9.0884]},"properties":{"d":"2026-10-10","t":"0313","frp":20.0,"b":336.6,"c":1,"s":"N21","n":0}},{"type":"Feature","geometry":{"type":"Point","coordinates":[142.571,-9.0884]},"properties":{"d":"2026-10-10","t":"0313","frp":13.3,"b":342.8,"c":1,"s":"N21","n":0}},{"type":"Feature","geometry":{"type":"Point","coordinates":[142.5432,-9.0879]},"properties":{"d":"2026-10-10","t":"0313","frp":67.6,"b":367.0,"c":2,"s":"N21","n":0}},{"type":"Feature","geometry":{"type":"Point","coordinates":[141.1901,-9.0876]},"properties":{"d":"2026-10-10","t":"0313","frp":20.0,"b":347.4,"c":1,"s":"N21","n":0}},{"type":"Feature","geometry":{"type":"Point","coordinates":[142.5536,-9.0867]},"properties":{"d":"2026-10-10","t":"0313","frp":84.4,"b":348.3,"c":1,"s":"N21","n":0}},{"type":"Feature","geometry":{"type":"Point","coordinates":[141.5634,-9.0862]},"properties":{"d":"2026-10-10","t":"0313","frp":12.7,"b":344.9,"c":1,"s":"N21","n":0}},{"type":"Feature","geometry":{"type":"Point","coordinates":[142.5588,-9.086]},"properties":{"d":"2026-10-10","t":"0313","frp":84.4,"b":367.0,"c":2,"s":"N21","n":0}},{"type":"Feature","geometry":{"type":"Point","coordinates":[142.5394,-9.086]},"properties":{"d":"2026-10-10","t":"0313","frp":9.2,"b":339.8,"c":1,"s":"N21","n":0}},{"type":"Feature","geometry":{"type":"Point","coordinates":[142.564,-9.0854]},"properties":{"d":"2026-10-10","t":"0313","frp":35.4,"b":367.0,"c":2,"s":"N21","n":0}},{"type":"Feature","geometry":{"type":"Point","coordinates":[142.5445,-9.0853]},"properties":{"d":"2026-10-10","t":"0313","frp":49.2,"b":338.2,"c":1,"s":"N21","n":0}},{"type":"Feature","geometry":{"type":"Point","coordinates":[142.5691,-9.0848]},"properties":{"d":"2026-10-10","t":"0313","frp":35.4,"b":354.3,"c":1,"s":"N21","n":0}},{"type":"Feature","geometry":{"type":"Point","coordinates":[142.5497,-9.0846]},"properties":{"d":"2026-10-10","t":"0313","frp":49.2,"b":339.4,"c":1,"s":"N21","n":0}},{"type":"Feature","geometry":{"type":"Point","coordinates":[142.5549,-9.084]},"properties":{"d":"2026-10-10","t":"0313","frp":76.9,"b":367.0,"c":2,"s":"N21","n":0}},{"type":"Feature","geometry":{"type":"Point","coordinates":[142.3523,-9.0837]},"properties":{"d":"2026-10-10","t":"0313","frp":31.8,"b":342.9,"c":1,"s":"N21","n":0}},{"type":"Feature","geometry":{"type":"Point","coordinates":[141.5622,-9.0834]},"properties":{"d":"2026-10-10","t":"0313","frp":12.4,"b":337.4,"c":1,"s":"N21","n":0}},{"type":"Feature","geometry":{"type":"Point","coordinates":[142.56,-9.0833]},"properties":{"d":"2026-10-10","t":"0313","frp":76.9,"b":367.0,"c":2,"s":"N21","n":0}},{"type":"Feature","geometry":{"type":"Point","coordinates":[142.3577,-9.083]},"properties":{"d":"2026-10-10","t":"0313","frp":31.8,"b":334.3,"c":1,"s":"N21","n":0}},{"type":"Feature","geometry":{"type":"Point","coordinates":[142.5652,-9.0826]},"properties":{"d":"2026-10-10","t":"0313","frp":33.5,"b":367.0,"c":2,"s":"N21","n":0}},{"type":"Feature","geometry":{"type":"Point","coordinates":[142.5529,-9.0803]},"properties":{"d":"2026-10-10","t":"0313","frp":84.4,"b":207.4,"c":0,"s":"N21","n":0}},{"type":"Feature","geometry":{"type":"Point","coordinates":[142.558,-9.0797]},"properties":{"d":"2026-10-10","t":"0313","frp":84.4,"b":367.0,"c":2,"s":"N21","n":0}},{"type":"Feature","geometry":{"type":"Point","coordinates":[142.3409,-9.0786]},"properties":{"d":"2026-10-10","t":"0313","frp":30.0,"b":343.5,"c":1,"s":"N21","n":0}},{"type":"Feature","geometry":{"type":"Point","coordinates":[142.3463,-9.0779]},"properties":{"d":"2026-10-10","t":"0313","frp":30.0,"b":367.0,"c":2,"s":"N21","n":0}},{"type":"Feature","geometry":{"type":"Point","coordinates":[142.5542,-9.0776]},"properties":{"d":"2026-10-10","t":"0313","frp":76.9,"b":335.9,"c":1,"s":"N21","n":0}},{"type":"Feature","geometry":{"type":"Point","coordinates":[142.3516,-9.0772]},"properties":{"d":"2026-10-10","t":"0313","frp":31.8,"b":367.0,"c":2,"s":"N21","n":0}},{"type":"Feature","geometry":{"type":"Point","coordinates":[142.5593,-9.077]},"properties":{"d":"2026-10-10","t":"0313","frp":76.9,"b":367.0,"c":2,"s":"N21","n":0}},{"type":"Feature","geometry":{"type":"Point","coordinates":[142.3729,-9.0746]},"properties":{"d":"2026-10-10","t":"0313","frp":9.3,"b":332.9,"c":1,"s":"N21","n":0}},{"type":"Feature","geometry":{"type":"Point","coordinates":[142.7295,-9.0744]},"properties":{"d":"2026-10-10","t":"0313","frp":8.6,"b":333.0,"c":1,"s":"N21","n":0}},{"type":"Feature","geometry":{"type":"Point","coordinates":[141.7256,-9.0738]},"properties":{"d":"2026-10-10","t":"0313","frp":8.7,"b":330.1,"c":1,"s":"N21","n":0}},{"type":"Feature","geometry":{"type":"Point","coordinates":[141.9112,-9.0599]},"properties":{"d":"2026-10-10","t":"0313","frp":12.6,"b":341.3,"c":1,"s":"N21","n":0}},{"type":"Feature","geometry":{"type":"Point","coordinates":[141.8186,-9.056]},"properties":{"d":"2026-10-10","t":"0313","frp":23.7,"b":348.3,"c":1,"s":"N21","n":0}},{"type":"Feature","geometry":{"type":"Point","coordinates":[141.817,-9.0516]},"properties":{"d":"2026-10-10","t":"0313","frp":20.9,"b":349.3,"c":1,"s":"N21","n":0}},{"type":"Feature","geometry":{"type":"Point","coordinates":[142.5661,-9.0438]},"properties":{"d":"2026-10-10","t":"0313","frp":12.1,"b":353.6,"c":1,"s":"N21","n":0}},{"type":"Feature","geometry":{"type":"Point","coordinates":[142.5712,-9.0432]},"properties":{"d":"2026-10-10","t":"0313","frp":16.7,"b":340.5,"c":1,"s":"N21","n":0}},{"type":"Feature","geometry":{"type":"Point","coordinates":[142.5343,-9.0414]},"properties":{"d":"2026-10-10","t":"0313","frp":7.7,"b":332.2,"c":1,"s":"N21","n":0}},{"type":"Feature","geometry":{"type":"Point","coordinates":[141.804,-9.0397]},"properties":{"d":"2026-10-10","t":"0313","frp":25.6,"b":367.0,"c":2,"s":"N21","n":0}},{"type":"Feature","geometry":{"type":"Point","coordinates":[142.5654,-9.0375]},"properties":{"d":"2026-10-10","t":"0313","frp":12.1,"b":329.7,"c":1,"s":"N21","n":0}},{"type":"Feature","geometry":{"type":"Point","coordinates":[141.3511,-9.0334]},"properties":{"d":"2026-10-10","t":"0313","frp":18.7,"b":367.0,"c":2,"s":"N21","n":0}},{"type":"Feature","geometry":{"type":"Point","coordinates":[141.3485,-9.0324]},"properties":{"d":"2026-10-10","t":"0313","frp":50.7,"b":367.0,"c":2,"s":"N21","n":0}},{"type":"Feature","geometry":{"type":"Point","coordinates":[141.3441,-9.0273]},"properties":{"d":"2026-10-10","t":"0313","frp":18.7,"b":331.2,"c":1,"s":"N21","n":0}},{"type":"Feature","geometry":{"type":"Point","coordinates":[141.3504,-9.0266]},"properties":{"d":"2026-10-10","t":"0313","frp":18.7,"b":331.6,"c":1,"s":"N21","n":0}},{"type":"Feature","geometry":{"type":"Point","coordinates":[141.755,-9.0255]},"properties":{"d":"2026-10-10","t":"0313","frp":51.5,"b":367.0,"c":2,"s":"N21","n":0}},{"type":"Feature","geometry":{"type":"Point","coordinates":[141.7608,-9.0248]},"properties":{"d":"2026-10-10","t":"0313","frp":42.8,"b":346.9,"c":1,"s":"N21","n":0}},{"type":"Feature","geometry":{"type":"Point","coordinates":[141.9934,-9.0228]},"properties":{"d":"2026-10-10","t":"0313","frp":14.8,"b":334.9,"c":1,"s":"N21","n":0}},{"type":"Feature","geometry":{"type":"Point","coordinates":[141.7484,-9.0196]},"properties":{"d":"2026-10-10","t":"0313","frp":51.5,"b":349.5,"c":1,"s":"N21","n":0}},{"type":"Feature","geometry":{"type":"Point","coordinates":[141.7543,-9.0188]},"properties":{"d":"2026-10-10","t":"0313","frp":51.5,"b":367.0,"c":2,"s":"N21","n":0}},{"type":"Feature","geometry":{"type":"Point","coordinates":[141.0093,-9.0184]},"properties":{"d":"2026-10-10","t":"0313","frp":6.7,"b":332.3,"c":1,"s":"N21","n":0}},{"type":"Feature","geometry":{"type":"Point","coordinates":[141.3621,-9.0182]},"properties":{"d":"2026-10-10","t":"0313","frp":9.8,"b":344.6,"c":1,"s":"N21","n":0}},{"type":"Feature","geometry":{"type":"Point","coordinates":[141.3597,-9.0171]},"properties":{"d":"2026-10-10","t":"0313","frp":11.2,"b":331.6,"c":1,"s":"N21","n":0}},{"type":"Feature","geometry":{"type":"Point","coordinates":[141.3658,-9.0163]},"properties":{"d":"2026-10-10","t":"0313","frp":11.2,"b":341.1,"c":1,"s":"N21","n":0}},{"type":"Feature","geometry":{"type":"Point","coordinates":[143.1833,-9.0161]},"properties":{"d":"2026-10-10","t":"0313","frp":8.2,"b":339.8,"c":1,"s":"N21","n":0}},{"type":"Feature","geometry":{"type":"Point","coordinates":[143.1792,-9.016]},"properties":{"d":"2026-10-10","t":"0313","frp":11.4,"b":341.6,"c":1,"s":"N21","n":0}},{"type":"Feature","geometry":{"type":"Point","coordinates":[141.0422,-9.0144]},"properties":{"d":"2026-10-10","t":"0313","frp":7.0,"b":331.4,"c":1,"s":"N21","n":0}},{"type":"Feature","geometry":{"type":"Point","coordinates":[141.3614,-9.0114]},"properties":{"d":"2026-10-10","t":"0313","frp":9.8,"b":335.3,"c":1,"s":"N21","n":0}},{"type":"Feature","geometry":{"type":"Point","coordinates":[143.1779,-9.0105]},"properties":{"d":"2026-10-10","t":"0313","frp":11.4,"b":367.0,"c":2,"s":"N21","n":0}},{"type":"Feature","geometry":{"type":"Point","coordinates":[143.1785,-9.0099]},"properties":{"d":"2026-10-10","t":"0313","frp":11.4,"b":367.0,"c":2,"s":"N21","n":0}},{"type":"Feature","geometry":{"type":"Point","coordinates":[141.9976,-9.0089]},"properties":{"d":"2026-10-10","t":"0313","frp":17.1,"b":367.0,"c":2,"s":"N21","n":0}},{"type":"Feature","geometry":{"type":"Point","coordinates":[143.2015,-9.0076]},"properties":{"d":"2026-10-10","t":"0313","frp":7.7,"b":338.5,"c":1,"s":"N21","n":0}},{"type":"Feature","geometry":{"type":"Point","coordinates":[143.1972,-9.0074]},"properties":{"d":"2026-10-10","t":"0313","frp":8.2,"b":333.6,"c":1,"s":"N21","n":0}},{"type":"Feature","geometry":{"type":"Point","coordinates":[142.4861,-9.0061]},"properties":{"d":"2026-10-10","t":"0313","frp":2.6,"b":331.2,"c":1,"s":"N21","n":0}},{"type":"Feature","geometry":{"type":"Point","coordinates":[141.9969,-9.0023]},"properties":{"d":"2026-10-10","t":"0313","frp":17.1,"b":367.0,"c":2,"s":"N21","n":0}},{"type":"Feature","geometry":{"type":"Point","coordinates":[146.844,-9.001]},"properties":{"d":"2026-10-10","t":"0313","frp":19.0,"b":344.4,"c":1,"s":"N21","n":0}},{"type":"Feature","geometry":{"type":"Point","coordinates":[120.6027,-9.7962]},"properties":{"d":"2026-10-10","t":"0030","frp":7.6,"b":318.9,"c":1,"s":"MODIS","n":0}},{"type":"Feature","geometry":{"type":"Point","coordinates":[120.5938,-9.7949]},"properties":{"d":"2026-10-10","t":"0030","frp":6.5,"b":317.2,"c":1,"s":"MODIS","n":0}},{"type":"Feature","geometry":{"type":"Point","coordinates":[120.1775,-9.4855]},"properties":{"d":"2026-10-10","t":"0030","frp":7.4,"b":319.7,"c":1,"s":"MODIS","n":0}},{"type":"Feature","geometry":{"type":"Point","coordinates":[116.7695,-20.619]},"properties":{"d":"2026-10-10","t":"0033","frp":10.7,"b":318.5,"c":1,"s":"MODIS","n":0}}]}