{"type":"FeatureCollection","features":[{"type":"Feature","geometry":{"type":"Point","coordinates":[149.5368,-24.1775]},"properties":{"d":"2026-09-28","t":"0249","frp":10.9,"b":339.9,"c":1,"s":"N20","n":0}},{"type":"Feature","geometry":{"type":"Point","coordinates":[150.375,-23.65]},"properties":{"d":"2026-09-28","t":"0249","frp":9.1,"b":347.1,"c":1,"s":"N20","n":0}},{"type":"Feature","geometry":{"type":"Point","coordinates":[149.7284,-10.0918]},"properties":{"d":"2026-09-28","t":"0253","frp":4.7,"b":336.7,"c":1,"s":"N20","n":0}},{"type":"Feature","geometry":{"type":"Point","coordinates":[148.4859,-10.0566]},"properties":{"d":"2026-09-28","t":"0253","frp":3.9,"b":329.2,"c":1,"s":"N20","n":0}},{"type":"Feature","geometry":{"type":"Point","coordinates":[148.1584,-10.037]},"properties":{"d":"2026-09-28","t":"0253","frp":5.5,"b":327.9,"c":1,"s":"N20","n":0}},{"type":"Feature","geometry":{"type":"Point","coordinates":[151.2689,-9.9201]},"properties":{"d":"2026-09-28","t":"0253","frp":2.4,"b":329.2,"c":1,"s":"N20","n":0}},{"type":"Feature","geometry":{"type":"Point","coordinates":[149.2775,-9.8167]},"properties":{"d":"2026-09-28","t":"0253","frp":9.1,"b":329.3,"c":1,"s":"N20","n":0}},{"type":"Feature","geometry":{"type":"Point","coordinates":[149.2832,-9.8161]},"properties":{"d":"2026-09-28","t":"0253","frp":9.1,"b":325.8,"c":1,"s":"N20","n":0}},{"type":"Feature","geometry":{"type":"Point","coordinates":[149.2879,-9.8155]},"properties":{"d":"2026-09-28","t":"0253","frp":6.3,"b":330.1,"c":1,"s":"N20","n":0}},{"type":"Feature","geometry":{"type":"Point","coordinates":[149.2911,-9.8151]},"properties":{"d":"2026-09-28","t":"0253","frp":6.3,"b":330.2,"c":1,"s":"N20","n":0}},{"type":"Feature","geometry":{"type":"Point","coordinates":[147.7776,-9.8084]},"properties":{"d":"2026-09-28","t":"0253","frp":4.9,"b":342.3,"c":1,"s":"N20","n":0}},{"type":"Feature","geometry":{"type":"Point","coordinates":[147.7782,-9.8076]},"properties":{"d":"2026-09-28","t":"0253","frp":7.9,"b":338.9,"c":1,"s":"N20","n":0}},{"type":"Feature","geometry":{"type":"Point","coordinates":[147.7843,-9.8076]},"properties":{"d":"2026-09-28","t":"0253","frp":4.9,"b":326.2,"c":1,"s":"N20","n":0}},{"type":"Feature","geometry":{"type":"Point","coordinates":[147.7849,-9.8068]},"properties":{"d":"2026-09-28","t":"0253","frp":5.1,"b":327.7,"c":1,"s":"N20","n":0}},{"type":"Feature","geometry":{"type":"Point","coordinates":[149.2795,-9.8038]},"properties":{"d":"2026-09-28","t":"0253","frp":11.9,"b":344.9,"c":1,"s":"N20","n":0}},{"type":"Feature","geometry":{"type":"Point","coordinates":[147.7287,-9.7716]},"properties":{"d":"2026-09-28","t":"0253","frp":3.3,"b":327.0,"c":1,"s":"N20","n":0}},{"type":"Feature","geometry":{"type":"Point","coordinates":[148.4105,-9.684]},"properties":{"d":"2026-09-28","t":"0253","frp":7.6,"b":335.9,"c":1,"s":"N20","n":0}},{"type":"Feature","geometry":{"type":"Point","coordinates":[148.7251,-9.653]},"properties":{"d":"2026-09-28","t":"0253","frp":7.8,"b":325.3,"c":0,"s":"N20","n":0}},{"type":"Feature","geometry":{"type":"Point","coordinates":[148.724,-9.6465]},"properties":{"d":"2026-09-28","t":"0253","frp":9.2,"b":325.8,"c":0,"s":"N20","n":0}},{"type":"Feature","geometry":{"type":"Point","coordinates":[149.6022,-9.646]},"properties":{"d":"2026-09-28","t":"0253","frp":3.4,"b":331.9,"c":1,"s":"N20","n":0}},{"type":"Feature","geometry":{"type":"Point","coordinates":[149.3098,-9.6371]},"properties":{"d":"2026-09-28","t":"0253","frp":7.9,"b":335.2,"c":1,"s":"N20","n":0}},{"type":"Feature","geometry":{"type":"Point","coordinates":[150.7392,-9.6344]},"properties":{"d":"2026-09-28","t":"0253","frp":2.7,"b":328.9,"c":1,"s":"N20","n":0}},{"type":"Feature","geometry":{"type":"Point","coordinates":[149.3079,-9.633]},"properties":{"d":"2026-09-28","t":"0253","frp":8.3,"b":331.3,"c":1,"s":"N20","n":0}},{"type":"Feature","geometry":{"type":"Point","coordinates":[149.3129,-9.6324]},"properties":{"d":"2026-09-28","t":"0253","frp":7.9,"b":328.5,"c":1,"s":"N20","n":0}},{"type":"Feature","geometry":{"type":"Point","coordinates":[149.3169,-9.6255]},"properties":{"d":"2026-09-28","t":"0253","frp":9.4,"b":328.1,"c":1,"s":"N20","n":0}},{"type":"Feature","geometry":{"type":"Point","coordinates":[149.3219,-9.6249]},"properties":{"d":"2026-09-28","t":"0253","frp":7.2,"b":332.7,"c":1,"s":"N20","n":0}},{"type":"Feature","geometry":{"type":"Point","coordinates":[149.3179,-9.6235]},"properties":{"d":"2026-09-28","t":"0253","frp":9.5,"b":337.1,"c":1,"s":"N20","n":0}},{"type":"Feature","geometry":{"type":"Point","coordinates":[148.7328,-9.619]},"properties":{"d":"2026-09-28","t":"0253","frp":6.6,"b":338.1,"c":1,"s":"N20","n":0}},{"type":"Feature","geometry":{"type":"Point","coordinates":[148.7374,-9.6186]},"properties":{"d":"2026-09-28","t":"0253","frp":6.4,"b":329.2,"c":1,"s":"N20","n":0}},{"type":"Feature","geometry":{"type":"Point","coordinates":[149.2513,-9.5445]},"properties":{"d":"2026-09-28","t":"0253","frp":3.6,"b":325.8,"c":1,"s":"N20","n":0}},{"type":"Feature","geometry":{"type":"Point","coordinates":[150.5467,-9.5174]},"properties":{"d":"2026-09-28","t":"0253","frp":3.5,"b":334.9,"c":1,"s":"N20","n":0}},{"type":"Feature","geometry":{"type":"Point","coordinates":[150.8742,-9.3209]},"properties":{"d":"2026-09-28","t":"0253","frp":13.4,"b":367.0,"c":2,"s":"N20","n":0}},{"type":"Feature","geometry":{"type":"Point","coordinates":[150.8735,-9.3153]},"properties":{"d":"2026-09-28","t":"0253","frp":13.4,"b":367.0,"c":2,"s":"N20","n":0}},{"type":"Feature","geometry":{"type":"Point","coordinates":[147.0383,-9.27]},"properties":{"d":"2026-09-28","t":"0253","frp":8.0,"b":331.4,"c":1,"s":"N20","n":0}},{"type":"Feature","geometry":{"type":"Point","coordinates":[152.8932,-9.2176]},"properties":{"d":"2026-09-28","t":"0253","frp":10.3,"b":339.2,"c":1,"s":"N20","n":0}},{"type":"Feature","geometry":{"type":"Point","coordinates":[148.5755,-9.2093]},"properties":{"d":"2026-09-28","t":"0253","frp":3.6,"b":330.2,"c":1,"s":"N20","n":0}},{"type":"Feature","geometry":{"type":"Point","coordinates":[115.811,-31.9061]},"properties":{"d":"2026-09-28","t":"0058","frp":5.4,"b":300.6,"c":0,"s":"MODIS","n":0}},{"type":"Feature","geometry":{"type":"Point","coordinates":[119.0057,-28.7697]},"properties":{"d":"2026-09-28","t":"0058","frp":13.6,"b":301.9,"c":0,"s":"MODIS","n":0}},{"type":"Feature","geometry":{"type":"Point","coordinates":[119.0071,-28.7557]},"properties":{"d":"2026-09-28","t":"0058","frp":13.8,"b":301.8,"c":0,"s":"MODIS","n":0}},{"type":"Feature","geometry":{"type":"Point","coordinates":[118.9249,-28.6109]},"properties":{"d":"2026-09-28","t":"0058","frp":10.9,"b":303.0,"c":0,"s":"MODIS","n":0}}]}