{"type":"FeatureCollection","features":[{"type":"Feature","geometry":{"type":"Point","coordinates":[151.1305,-31.7158]},"properties":{"d":"2026-10-02","t":"0251","frp":11.8,"b":347.6,"c":1,"s":"SNPP","n":0}},{"type":"Feature","geometry":{"type":"Point","coordinates":[151.1396,-31.7156]},"properties":{"d":"2026-10-02","t":"0251","frp":16.0,"b":343.8,"c":1,"s":"SNPP","n":0}},{"type":"Feature","geometry":{"type":"Point","coordinates":[152.5598,-29.1122]},"properties":{"d":"2026-10-02","t":"0253","frp":10.2,"b":353.9,"c":1,"s":"SNPP","n":0}},{"type":"Feature","geometry":{"type":"Point","coordinates":[152.5581,-29.1116]},"properties":{"d":"2026-10-02","t":"0253","frp":5.8,"b":336.7,"c":1,"s":"SNPP","n":0}},{"type":"Feature","geometry":{"type":"Point","coordinates":[152.564,-29.1113]},"properties":{"d":"2026-10-02","t":"0253","frp":5.8,"b":339.4,"c":1,"s":"SNPP","n":0}},{"type":"Feature","geometry":{"type":"Point","coordinates":[150.8596,-28.072]},"properties":{"d":"2026-10-02","t":"0253","frp":7.0,"b":343.5,"c":1,"s":"SNPP","n":0}},{"type":"Feature","geometry":{"type":"Point","coordinates":[152.0902,-27.444]},"properties":{"d":"2026-10-02","t":"0253","frp":5.1,"b":334.8,"c":1,"s":"SNPP","n":0}},{"type":"Feature","geometry":{"type":"Point","coordinates":[152.0966,-27.4436]},"properties":{"d":"2026-10-02","t":"0253","frp":5.1,"b":343.0,"c":1,"s":"SNPP","n":0}},{"type":"Feature","geometry":{"type":"Point","coordinates":[152.0919,-27.4433]},"properties":{"d":"2026-10-02","t":"0253","frp":6.9,"b":334.4,"c":1,"s":"SNPP","n":0}},{"type":"Feature","geometry":{"type":"Point","coordinates":[152.0983,-27.4429]},"properties":{"d":"2026-10-02","t":"0253","frp":8.7,"b":338.3,"c":1,"s":"SNPP","n":0}},{"type":"Feature","geometry":{"type":"Point","coordinates":[152.0969,-27.437]},"properties":{"d":"2026-10-02","t":"0253","frp":18.7,"b":367.0,"c":2,"s":"SNPP","n":0}},{"type":"Feature","geometry":{"type":"Point","coordinates":[152.0986,-27.4364]},"properties":{"d":"2026-10-02","t":"0253","frp":17.4,"b":367.0,"c":2,"s":"SNPP","n":0}},{"type":"Feature","geometry":{"type":"Point","coordinates":[152.0837,-27.4313]},"properties":{"d":"2026-10-02","t":"0253","frp":13.6,"b":367.0,"c":2,"s":"SNPP","n":0}},{"type":"Feature","geometry":{"type":"Point","coordinates":[152.0789,-27.4309]},"properties":{"d":"2026-10-02","t":"0253","frp":6.7,"b":333.0,"c":1,"s":"SNPP","n":0}},{"type":"Feature","geometry":{"type":"Point","coordinates":[152.0853,-27.4305]},"properties":{"d":"2026-10-02","t":"0253","frp":18.1,"b":349.7,"c":1,"s":"SNPP","n":0}},{"type":"Feature","geometry":{"type":"Point","coordinates":[152.8971,-27.2017]},"properties":{"d":"2026-10-02","t":"0253","frp":3.7,"b":339.2,"c":1,"s":"SNPP","n":0}},{"type":"Feature","geometry":{"type":"Point","coordinates":[152.8333,-26.7806]},"properties":{"d":"2026-10-02","t":"0253","frp":8.2,"b":345.5,"c":1,"s":"SNPP","n":0}},{"type":"Feature","geometry":{"type":"Point","coordinates":[152.4326,-26.7782]},"properties":{"d":"2026-10-02","t":"0253","frp":10.4,"b":350.9,"c":1,"s":"SNPP","n":0}},{"type":"Feature","geometry":{"type":"Point","coordinates":[152.8311,-26.7764]},"properties":{"d":"2026-10-02","t":"0253","frp":18.8,"b":367.0,"c":2,"s":"SNPP","n":0}},{"type":"Feature","geometry":{"type":"Point","coordinates":[152.8332,-26.7744]},"properties":{"d":"2026-10-02","t":"0253","frp":8.2,"b":367.0,"c":2,"s":"SNPP","n":0}},{"type":"Feature","geometry":{"type":"Point","coordinates":[152.4188,-26.7599]},"properties":{"d":"2026-10-02","t":"0253","frp":8.5,"b":340.0,"c":1,"s":"SNPP","n":0}},{"type":"Feature","geometry":{"type":"Point","coordinates":[152.4121,-26.7539]},"properties":{"d":"2026-10-02","t":"0253","frp":7.6,"b":352.4,"c":1,"s":"SNPP","n":0}},{"type":"Feature","geometry":{"type":"Point","coordinates":[150.6223,-26.6515]},"properties":{"d":"2026-10-02","t":"0253","frp":6.1,"b":333.3,"c":1,"s":"SNPP","n":0}},{"type":"Feature","geometry":{"type":"Point","coordinates":[150.6297,-26.6511]},"properties":{"d":"2026-10-02","t":"0253","frp":6.1,"b":350.4,"c":1,"s":"SNPP","n":0}},{"type":"Feature","geometry":{"type":"Point","coordinates":[150.6295,-26.6441]},"properties":{"d":"2026-10-02","t":"0253","frp":6.1,"b":331.8,"c":0,"s":"SNPP","n":0}},{"type":"Feature","geometry":{"type":"Point","coordinates":[152.5179,-26.4879]},"properties":{"d":"2026-10-02","t":"0253","frp":8.9,"b":333.0,"c":1,"s":"SNPP","n":0}},{"type":"Feature","geometry":{"type":"Point","coordinates":[152.5205,-26.4857]},"properties":{"d":"2026-10-02","t":"0253","frp":4.8,"b":331.8,"c":1,"s":"SNPP","n":0}},{"type":"Feature","geometry":{"type":"Point","coordinates":[152.509,-26.4611]},"properties":{"d":"2026-10-02","t":"0253","frp":6.2,"b":330.1,"c":1,"s":"SNPP","n":0}},{"type":"Feature","geometry":{"type":"Point","coordinates":[152.5142,-26.4607]},"properties":{"d":"2026-10-02","t":"0253","frp":6.2,"b":351.2,"c":1,"s":"SNPP","n":0}},{"type":"Feature","geometry":{"type":"Point","coordinates":[152.519,-26.4604]},"properties":{"d":"2026-10-02","t":"0253","frp":11.0,"b":345.3,"c":1,"s":"SNPP","n":0}},{"type":"Feature","geometry":{"type":"Point","coordinates":[150.0848,-26.4074]},"properties":{"d":"2026-10-02","t":"0253","frp":16.6,"b":367.0,"c":2,"s":"SNPP","n":0}},{"type":"Feature","geometry":{"type":"Point","coordinates":[150.0845,-26.4062]},"properties":{"d":"2026-10-02","t":"0253","frp":28.0,"b":367.0,"c":2,"s":"SNPP","n":0}},{"type":"Feature","geometry":{"type":"Point","coordinates":[150.0846,-26.4001]},"properties":{"d":"2026-10-02","t":"0253","frp":36.1,"b":367.0,"c":2,"s":"SNPP","n":0}},{"type":"Feature","geometry":{"type":"Point","coordinates":[150.0924,-26.3998]},"properties":{"d":"2026-10-02","t":"0253","frp":14.9,"b":349.4,"c":1,"s":"SNPP","n":0}},{"type":"Feature","geometry":{"type":"Point","coordinates":[150.0842,-26.399]},"properties":{"d":"2026-10-02","t":"0253","frp":14.9,"b":367.0,"c":2,"s":"SNPP","n":0}},{"type":"Feature","geometry":{"type":"Point","coordinates":[150.0921,-26.3986]},"properties":{"d":"2026-10-02","t":"0253","frp":14.9,"b":349.5,"c":1,"s":"SNPP","n":0}},{"type":"Feature","geometry":{"type":"Point","coordinates":[150.0921,-26.3925]},"properties":{"d":"2026-10-02","t":"0253","frp":14.9,"b":354.8,"c":1,"s":"SNPP","n":0}},{"type":"Feature","geometry":{"type":"Point","coordinates":[150.0999,-26.3922]},"properties":{"d":"2026-10-02","t":"0253","frp":14.9,"b":332.2,"c":1,"s":"SNPP","n":0}},{"type":"Feature","geometry":{"type":"Point","coordinates":[150.0837,-26.3918]},"properties":{"d":"2026-10-02","t":"0253","frp":14.9,"b":331.1,"c":1,"s":"SNPP","n":0}},{"type":"Feature","geometry":{"type":"Point","coordinates":[150.0917,-26.3914]},"properties":{"d":"2026-10-02","t":"0253","frp":14.9,"b":367.0,"c":2,"s":"SNPP","n":0}},{"type":"Feature","geometry":{"type":"Point","coordinates":[150.0996,-26.391]},"properties":{"d":"2026-10-02","t":"0253","frp":14.8,"b":335.3,"c":1,"s":"SNPP","n":0}},{"type":"Feature","geometry":{"type":"Point","coordinates":[150.1072,-26.3906]},"properties":{"d":"2026-10-02","t":"0253","frp":14.8,"b":338.9,"c":1,"s":"SNPP","n":0}},{"type":"Feature","geometry":{"type":"Point","coordinates":[150.0751,-26.385]},"properties":{"d":"2026-10-02","t":"0253","frp":24.3,"b":349.4,"c":1,"s":"SNPP","n":0}},{"type":"Feature","geometry":{"type":"Point","coordinates":[150.083,-26.3846]},"properties":{"d":"2026-10-02","t":"0253","frp":39.8,"b":367.0,"c":2,"s":"SNPP","n":0}},{"type":"Feature","geometry":{"type":"Point","coordinates":[150.0911,-26.3842]},"properties":{"d":"2026-10-02","t":"0253","frp":39.8,"b":367.0,"c":2,"s":"SNPP","n":0}},{"type":"Feature","geometry":{"type":"Point","coordinates":[150.1068,-26.3834]},"properties":{"d":"2026-10-02","t":"0253","frp":15.3,"b":353.1,"c":1,"s":"SNPP","n":0}},{"type":"Feature","geometry":{"type":"Point","coordinates":[150.1061,-26.3762]},"properties":{"d":"2026-10-02","t":"0253","frp":15.3,"b":339.7,"c":1,"s":"SNPP","n":0}},{"type":"Feature","geometry":{"type":"Point","coordinates":[152.4168,-26.2397]},"properties":{"d":"2026-10-02","t":"0253","frp":10.2,"b":367.0,"c":2,"s":"SNPP","n":0}},{"type":"Feature","geometry":{"type":"Point","coordinates":[152.4223,-26.2393]},"properties":{"d":"2026-10-02","t":"0253","frp":10.2,"b":334.0,"c":1,"s":"SNPP","n":0}},{"type":"Feature","geometry":{"type":"Point","coordinates":[149.4117,-24.3135]},"properties":{"d":"2026-10-02","t":"0256","frp":31.3,"b":367.0,"c":2,"s":"SNPP","n":0}},{"type":"Feature","geometry":{"type":"Point","coordinates":[149.4119,-24.3133]},"properties":{"d":"2026-10-02","t":"0256","frp":29.6,"b":367.0,"c":2,"s":"SNPP","n":0}},{"type":"Feature","geometry":{"type":"Point","coordinates":[149.4198,-24.313]},"properties":{"d":"2026-10-02","t":"0256","frp":31.3,"b":367.0,"c":2,"s":"SNPP","n":0}},{"type":"Feature","geometry":{"type":"Point","coordinates":[149.42,-24.3128]},"properties":{"d":"2026-10-02","t":"0256","frp":43.8,"b":367.0,"c":2,"s":"SNPP","n":0}},{"type":"Feature","geometry":{"type":"Point","coordinates":[149.4033,-24.3064]},"properties":{"d":"2026-10-02","t":"0256","frp":29.6,"b":331.5,"c":1,"s":"SNPP","n":0}},{"type":"Feature","geometry":{"type":"Point","coordinates":[149.4113,-24.3061]},"properties":{"d":"2026-10-02","t":"0256","frp":31.3,"b":349.7,"c":1,"s":"SNPP","n":0}},{"type":"Feature","geometry":{"type":"Point","coordinates":[149.4115,-24.3059]},"properties":{"d":"2026-10-02","t":"0256","frp":29.6,"b":350.5,"c":1,"s":"SNPP","n":0}},{"type":"Feature","geometry":{"type":"Point","coordinates":[149.4194,-24.3057]},"properties":{"d":"2026-10-02","t":"0256","frp":31.3,"b":367.0,"c":2,"s":"SNPP","n":0}},{"type":"Feature","geometry":{"type":"Point","coordinates":[149.4196,-24.3055]},"properties":{"d":"2026-10-02","t":"0256","frp":43.8,"b":367.0,"c":2,"s":"SNPP","n":0}},{"type":"Feature","geometry":{"type":"Point","coordinates":[149.3784,-24.3005]},"properties":{"d":"2026-10-02","t":"0256","frp":78.6,"b":344.3,"c":1,"s":"SNPP","n":0}},{"type":"Feature","geometry":{"type":"Point","coordinates":[149.378,-24.3005]},"properties":{"d":"2026-10-02","t":"0256","frp":107.7,"b":336.5,"c":1,"s":"SNPP","n":0}},{"type":"Feature","geometry":{"type":"Point","coordinates":[149.3944,-24.2996]},"properties":{"d":"2026-10-02","t":"0256","frp":144.7,"b":352.8,"c":1,"s":"SNPP","n":0}},{"type":"Feature","geometry":{"type":"Point","coordinates":[149.3948,-24.2995]},"properties":{"d":"2026-10-02","t":"0256","frp":175.1,"b":350.4,"c":1,"s":"SNPP","n":0}},{"type":"Feature","geometry":{"type":"Point","coordinates":[149.4027,-24.2992]},"properties":{"d":"2026-10-02","t":"0256","frp":144.7,"b":319.6,"c":0,"s":"SNPP","n":0}},{"type":"Feature","geometry":{"type":"Point","coordinates":[149.403,-24.2991]},"properties":{"d":"2026-10-02","t":"0256","frp":133.5,"b":367.0,"c":2,"s":"SNPP","n":0}},{"type":"Feature","geometry":{"type":"Point","coordinates":[149.4109,-24.2987]},"properties":{"d":"2026-10-02","t":"0256","frp":94.4,"b":352.7,"c":1,"s":"SNPP","n":0}},{"type":"Feature","geometry":{"type":"Point","coordinates":[149.4111,-24.2986]},"properties":{"d":"2026-10-02","t":"0256","frp":133.5,"b":353.1,"c":1,"s":"SNPP","n":0}},{"type":"Feature","geometry":{"type":"Point","coordinates":[149.4189,-24.2983]},"properties":{"d":"2026-10-02","t":"0256","frp":94.4,"b":367.0,"c":2,"s":"SNPP","n":0}},{"type":"Feature","geometry":{"type":"Point","coordinates":[149.4192,-24.2981]},"properties":{"d":"2026-10-02","t":"0256","frp":54.0,"b":367.0,"c":2,"s":"SNPP","n":0}},{"type":"Feature","geometry":{"type":"Point","coordinates":[149.3777,-24.2931]},"properties":{"d":"2026-10-02","t":"0256","frp":107.7,"b":331.7,"c":1,"s":"SNPP","n":0}},{"type":"Feature","geometry":{"type":"Point","coordinates":[149.3859,-24.2926]},"properties":{"d":"2026-10-02","t":"0256","frp":107.7,"b":348.3,"c":1,"s":"SNPP","n":0}},{"type":"Feature","geometry":{"type":"Point","coordinates":[149.3863,-24.2926]},"properties":{"d":"2026-10-02","t":"0256","frp":175.1,"b":352.6,"c":1,"s":"SNPP","n":0}},{"type":"Feature","geometry":{"type":"Point","coordinates":[149.3941,-24.2922]},"properties":{"d":"2026-10-02","t":"0256","frp":144.7,"b":351.3,"c":1,"s":"SNPP","n":0}},{"type":"Feature","geometry":{"type":"Point","coordinates":[149.3944,-24.2922]},"properties":{"d":"2026-10-02","t":"0256","frp":175.1,"b":352.9,"c":1,"s":"SNPP","n":0}},{"type":"Feature","geometry":{"type":"Point","coordinates":[149.4022,-24.2918]},"properties":{"d":"2026-10-02","t":"0256","frp":144.7,"b":352.5,"c":1,"s":"SNPP","n":0}},{"type":"Feature","geometry":{"type":"Point","coordinates":[149.4025,-24.2917]},"properties":{"d":"2026-10-02","t":"0256","frp":133.5,"b":354.4,"c":1,"s":"SNPP","n":0}},{"type":"Feature","geometry":{"type":"Point","coordinates":[149.4103,-24.2914]},"properties":{"d":"2026-10-02","t":"0256","frp":94.4,"b":367.0,"c":2,"s":"SNPP","n":0}},{"type":"Feature","geometry":{"type":"Point","coordinates":[149.4106,-24.2912]},"properties":{"d":"2026-10-02","t":"0256","frp":133.5,"b":367.0,"c":2,"s":"SNPP","n":0}},{"type":"Feature","geometry":{"type":"Point","coordinates":[149.4183,-24.2909]},"properties":{"d":"2026-10-02","t":"0256","frp":94.4,"b":337.1,"c":1,"s":"SNPP","n":0}},{"type":"Feature","geometry":{"type":"Point","coordinates":[149.4186,-24.2907]},"properties":{"d":"2026-10-02","t":"0256","frp":54.0,"b":334.9,"c":1,"s":"SNPP","n":0}},{"type":"Feature","geometry":{"type":"Point","coordinates":[149.4098,-24.284]},"properties":{"d":"2026-10-02","t":"0256","frp":7.6,"b":338.8,"c":1,"s":"SNPP","n":0}},{"type":"Feature","geometry":{"type":"Point","coordinates":[149.4101,-24.2839]},"properties":{"d":"2026-10-02","t":"0256","frp":7.4,"b":339.8,"c":1,"s":"SNPP","n":0}},{"type":"Feature","geometry":{"type":"Point","coordinates":[149.4178,-24.2836]},"properties":{"d":"2026-10-02","t":"0256","frp":7.6,"b":349.5,"c":1,"s":"SNPP","n":0}},{"type":"Feature","geometry":{"type":"Point","coordinates":[149.4181,-24.2834]},"properties":{"d":"2026-10-02","t":"0256","frp":12.8,"b":347.1,"c":1,"s":"SNPP","n":0}},{"type":"Feature","geometry":{"type":"Point","coordinates":[149.5324,-24.1665]},"properties":{"d":"2026-10-02","t":"0256","frp":6.3,"b":334.8,"c":1,"s":"SNPP","n":0}},{"type":"Feature","geometry":{"type":"Point","coordinates":[149.5316,-24.1593]},"properties":{"d":"2026-10-02","t":"0256","frp":10.5,"b":344.6,"c":1,"s":"SNPP","n":0}},{"type":"Feature","geometry":{"type":"Point","coordinates":[149.532,-24.1592]},"properties":{"d":"2026-10-02","t":"0256","frp":9.8,"b":343.0,"c":1,"s":"SNPP","n":0}},{"type":"Feature","geometry":{"type":"Point","coordinates":[149.5075,-24.1461]},"properties":{"d":"2026-10-02","t":"0256","frp":55.8,"b":367.0,"c":2,"s":"SNPP","n":0}},{"type":"Feature","geometry":{"type":"Point","coordinates":[149.5068,-24.1314]},"properties":{"d":"2026-10-02","t":"0256","frp":6.0,"b":339.4,"c":1,"s":"SNPP","n":0}},{"type":"Feature","geometry":{"type":"Point","coordinates":[151.0076,-9.9547]},"properties":{"d":"2026-10-02","t":"0300","frp":2.3,"b":325.2,"c":1,"s":"SNPP","n":0}},{"type":"Feature","geometry":{"type":"Point","coordinates":[149.4675,-9.7996]},"properties":{"d":"2026-10-02","t":"0300","frp":4.7,"b":333.6,"c":1,"s":"SNPP","n":0}},{"type":"Feature","geometry":{"type":"Point","coordinates":[149.4673,-9.7977]},"properties":{"d":"2026-10-02","t":"0300","frp":2.4,"b":326.2,"c":1,"s":"SNPP","n":0}},{"type":"Feature","geometry":{"type":"Point","coordinates":[149.5296,-9.6938]},"properties":{"d":"2026-10-02","t":"0300","frp":3.2,"b":330.5,"c":1,"s":"SNPP","n":0}},{"type":"Feature","geometry":{"type":"Point","coordinates":[149.8944,-9.6874]},"properties":{"d":"2026-10-02","t":"0300","frp":3.0,"b":328.1,"c":1,"s":"SNPP","n":0}},{"type":"Feature","geometry":{"type":"Point","coordinates":[149.6186,-9.6726]},"properties":{"d":"2026-10-02","t":"0300","frp":3.1,"b":331.5,"c":1,"s":"SNPP","n":0}},{"type":"Feature","geometry":{"type":"Point","coordinates":[150.3166,-9.4539]},"properties":{"d":"2026-10-02","t":"0300","frp":7.2,"b":331.7,"c":1,"s":"SNPP","n":0}},{"type":"Feature","geometry":{"type":"Point","coordinates":[147.35,-9.4177]},"properties":{"d":"2026-10-02","t":"0300","frp":5.8,"b":328.1,"c":1,"s":"SNPP","n":0}},{"type":"Feature","geometry":{"type":"Point","coordinates":[148.7564,-9.3919]},"properties":{"d":"2026-10-02","t":"0300","frp":10.7,"b":346.1,"c":1,"s":"SNPP","n":0}},{"type":"Feature","geometry":{"type":"Point","coordinates":[148.762,-9.3858]},"properties":{"d":"2026-10-02","t":"0300","frp":5.7,"b":332.9,"c":1,"s":"SNPP","n":0}},{"type":"Feature","geometry":{"type":"Point","coordinates":[148.7613,-9.3846]},"properties":{"d":"2026-10-02","t":"0300","frp":3.7,"b":329.9,"c":1,"s":"SNPP","n":0}},{"type":"Feature","geometry":{"type":"Point","coordinates":[149.0963,-9.3506]},"properties":{"d":"2026-10-02","t":"0300","frp":5.7,"b":330.5,"c":1,"s":"SNPP","n":0}},{"type":"Feature","geometry":{"type":"Point","coordinates":[147.0109,-9.338]},"properties":{"d":"2026-10-02","t":"0300","frp":3.8,"b":331.5,"c":1,"s":"SNPP","n":0}},{"type":"Feature","geometry":{"type":"Point","coordinates":[147.0099,-9.3367]},"properties":{"d":"2026-10-02","t":"0300","frp":4.5,"b":333.9,"c":1,"s":"SNPP","n":0}},{"type":"Feature","geometry":{"type":"Point","coordinates":[148.7835,-9.3297]},"properties":{"d":"2026-10-02","t":"0300","frp":12.5,"b":367.0,"c":2,"s":"SNPP","n":0}},{"type":"Feature","geometry":{"type":"Point","coordinates":[149.1508,-9.3114]},"properties":{"d":"2026-10-02","t":"0300","frp":4.4,"b":328.4,"c":1,"s":"SNPP","n":0}},{"type":"Feature","geometry":{"type":"Point","coordinates":[149.3071,-9.1528]},"properties":{"d":"2026-10-02","t":"0300","frp":5.5,"b":331.6,"c":1,"s":"SNPP","n":0}},{"type":"Feature","geometry":{"type":"Point","coordinates":[148.8066,-9.1496]},"properties":{"d":"2026-10-02","t":"0300","frp":19.6,"b":367.0,"c":2,"s":"SNPP","n":0}},{"type":"Feature","geometry":{"type":"Point","coordinates":[148.8036,-9.1492]},"properties":{"d":"2026-10-02","t":"0300","frp":10.4,"b":338.2,"c":1,"s":"SNPP","n":0}},{"type":"Feature","geometry":{"type":"Point","coordinates":[148.8091,-9.1485]},"properties":{"d":"2026-10-02","t":"0300","frp":10.4,"b":367.0,"c":2,"s":"SNPP","n":0}},{"type":"Feature","geometry":{"type":"Point","coordinates":[148.8058,-9.143]},"properties":{"d":"2026-10-02","t":"0300","frp":9.9,"b":352.0,"c":1,"s":"SNPP","n":0}},{"type":"Feature","geometry":{"type":"Point","coordinates":[123.6057,-10.1989]},"properties":{"d":"2026-10-02","t":"0011","frp":5.3,"b":314.4,"c":1,"s":"MODIS","n":0}},{"type":"Feature","geometry":{"type":"Point","coordinates":[119.8787,-9.8865]},"properties":{"d":"2026-10-02","t":"0011","frp":14.6,"b":316.8,"c":1,"s":"MODIS","n":0}},{"type":"Feature","geometry":{"type":"Point","coordinates":[130.5194,-18.231]},"properties":{"d":"2026-10-02","t":"0013","frp":39.2,"b":321.6,"c":1,"s":"MODIS","n":0}},{"type":"Feature","geometry":{"type":"Point","coordinates":[130.4958,-18.2286]},"properties":{"d":"2026-10-02","t":"0013","frp":34.4,"b":320.4,"c":1,"s":"MODIS","n":0}},{"type":"Feature","geometry":{"type":"Point","coordinates":[130.7686,-17.4038]},"properties":{"d":"2026-10-02","t":"0013","frp":33.1,"b":320.6,"c":1,"s":"MODIS","n":0}},{"type":"Feature","geometry":{"type":"Point","coordinates":[130.788,-17.3997]},"properties":{"d":"2026-10-02","t":"0013","frp":67.9,"b":328.5,"c":1,"s":"MODIS","n":0}},{"type":"Feature","geometry":{"type":"Point","coordinates":[130.7636,-17.3972]},"properties":{"d":"2026-10-02","t":"0013","frp":79.9,"b":331.1,"c":1,"s":"MODIS","n":0}},{"type":"Feature","geometry":{"type":"Point","coordinates":[130.7943,-17.3927]},"properties":{"d":"2026-10-02","t":"0013","frp":52.0,"b":325.0,"c":1,"s":"MODIS","n":0}},{"type":"Feature","geometry":{"type":"Point","coordinates":[130.77,-17.3901]},"properties":{"d":"2026-10-02","t":"0013","frp":105.2,"b":335.4,"c":2,"s":"MODIS","n":0}},{"type":"Feature","geometry":{"type":"Point","coordinates":[130.7892,-17.386]},"properties":{"d":"2026-10-02","t":"0013","frp":48.6,"b":324.3,"c":1,"s":"MODIS","n":0}},{"type":"Feature","geometry":{"type":"Point","coordinates":[123.2396,-17.2069]},"properties":{"d":"2026-10-02","t":"0013","frp":11.4,"b":321.5,"c":1,"s":"MODIS","n":0}},{"type":"Feature","geometry":{"type":"Point","coordinates":[123.2305,-17.2055]},"properties":{"d":"2026-10-02","t":"0013","frp":10.7,"b":320.8,"c":1,"s":"MODIS","n":0}},{"type":"Feature","geometry":{"type":"Point","coordinates":[123.2381,-17.1954]},"properties":{"d":"2026-10-02","t":"0013","frp":162.1,"b":384.6,"c":2,"s":"MODIS","n":0}},{"type":"Feature","geometry":{"type":"Point","coordinates":[123.2289,-17.1941]},"properties":{"d":"2026-10-02","t":"0013","frp":13.6,"b":325.9,"c":0,"s":"MODIS","n":0}},{"type":"Feature","geometry":{"type":"Point","coordinates":[123.2486,-17.1879]},"properties":{"d":"2026-10-02","t":"0013","frp":26.1,"b":337.5,"c":1,"s":"MODIS","n":0}},{"type":"Feature","geometry":{"type":"Point","coordinates":[123.2394,-17.1866]},"properties":{"d":"2026-10-02","t":"0013","frp":69.9,"b":358.4,"c":2,"s":"MODIS","n":0}},{"type":"Feature","geometry":{"type":"Point","coordinates":[123.2499,-17.1791]},"properties":{"d":"2026-10-02","t":"0013","frp":43.9,"b":347.3,"c":2,"s":"MODIS","n":0}},{"type":"Feature","geometry":{"type":"Point","coordinates":[123.2408,-17.1778]},"properties":{"d":"2026-10-02","t":"0013","frp":23.3,"b":334.9,"c":1,"s":"MODIS","n":0}},{"type":"Feature","geometry":{"type":"Point","coordinates":[123.2604,-17.1716]},"properties":{"d":"2026-10-02","t":"0013","frp":178.3,"b":388.2,"c":2,"s":"MODIS","n":0}},{"type":"Feature","geometry":{"type":"Point","coordinates":[123.2512,-17.1703]},"properties":{"d":"2026-10-02","t":"0013","frp":247.2,"b":400.9,"c":2,"s":"MODIS","n":0}},{"type":"Feature","geometry":{"type":"Point","coordinates":[123.2526,-17.1615]},"properties":{"d":"2026-10-02","t":"0013","frp":10.4,"b":321.9,"c":1,"s":"MODIS","n":0}},{"type":"Feature","geometry":{"type":"Point","coordinates":[130.0977,-16.8351]},"properties":{"d":"2026-10-02","t":"0013","frp":184.8,"b":350.8,"c":2,"s":"MODIS","n":0}},{"type":"Feature","geometry":{"type":"Point","coordinates":[130.0768,-16.8328]},"properties":{"d":"2026-10-02","t":"0013","frp":60.0,"b":328.7,"c":1,"s":"MODIS","n":0}},{"type":"Feature","geometry":{"type":"Point","coordinates":[130.0989,-16.8222]},"properties":{"d":"2026-10-02","t":"0013","frp":137.5,"b":344.0,"c":2,"s":"MODIS","n":0}},{"type":"Feature","geometry":{"type":"Point","coordinates":[130.078,-16.8199]},"properties":{"d":"2026-10-02","t":"0013","frp":75.1,"b":333.0,"c":2,"s":"MODIS","n":0}},{"type":"Feature","geometry":{"type":"Point","coordinates":[130.1002,-16.8093]},"properties":{"d":"2026-10-02","t":"0013","frp":59.4,"b":328.8,"c":1,"s":"MODIS","n":0}},{"type":"Feature","geometry":{"type":"Point","coordinates":[130.1285,-16.7996]},"properties":{"d":"2026-10-02","t":"0013","frp":20.0,"b":316.9,"c":0,"s":"MODIS","n":0}},{"type":"Feature","geometry":{"type":"Point","coordinates":[130.1229,-16.7987]},"properties":{"d":"2026-10-02","t":"0013","frp":48.2,"b":325.1,"c":1,"s":"MODIS","n":0}},{"type":"Feature","geometry":{"type":"Point","coordinates":[130.1076,-16.7973]},"properties":{"d":"2026-10-02","t":"0013","frp":81.8,"b":334.2,"c":2,"s":"MODIS","n":0}},{"type":"Feature","geometry":{"type":"Point","coordinates":[130.1019,-16.7965]},"properties":{"d":"2026-10-02","t":"0013","frp":47.6,"b":325.8,"c":1,"s":"MODIS","n":0}},{"type":"Feature","geometry":{"type":"Point","coordinates":[130.1244,-16.7858]},"properties":{"d":"2026-10-02","t":"0013","frp":17.5,"b":315.4,"c":1,"s":"MODIS","n":0}},{"type":"Feature","geometry":{"type":"Point","coordinates":[129.9394,-16.779]},"properties":{"d":"2026-10-02","t":"0013","frp":16.4,"b":317.0,"c":1,"s":"MODIS","n":0}},{"type":"Feature","geometry":{"type":"Point","coordinates":[130.137,-16.7222]},"properties":{"d":"2026-10-02","t":"0013","frp":29.7,"b":320.7,"c":1,"s":"MODIS","n":0}},{"type":"Feature","geometry":{"type":"Point","coordinates":[130.1451,-16.7104]},"properties":{"d":"2026-10-02","t":"0013","frp":29.8,"b":321.6,"c":1,"s":"MODIS","n":0}},{"type":"Feature","geometry":{"type":"Point","coordinates":[130.1385,-16.7093]},"properties":{"d":"2026-10-02","t":"0013","frp":48.3,"b":326.6,"c":1,"s":"MODIS","n":0}},{"type":"Feature","geometry":{"type":"Point","coordinates":[130.14,-16.6964]},"properties":{"d":"2026-10-02","t":"0013","frp":27.5,"b":320.7,"c":1,"s":"MODIS","n":0}},{"type":"Feature","geometry":{"type":"Point","coordinates":[130.1913,-16.6763]},"properties":{"d":"2026-10-02","t":"0013","frp":40.4,"b":323.9,"c":1,"s":"MODIS","n":0}},{"type":"Feature","geometry":{"type":"Point","coordinates":[130.1931,-16.6634]},"properties":{"d":"2026-10-02","t":"0013","frp":47.0,"b":326.3,"c":1,"s":"MODIS","n":0}},{"type":"Feature","geometry":{"type":"Point","coordinates":[130.1973,-16.6246]},"properties":{"d":"2026-10-02","t":"0013","frp":22.6,"b":319.5,"c":0,"s":"MODIS","n":0}},{"type":"Feature","geometry":{"type":"Point","coordinates":[130.2039,-16.6129]},"properties":{"d":"2026-10-02","t":"0013","frp":26.9,"b":320.5,"c":1,"s":"MODIS","n":0}},{"type":"Feature","geometry":{"type":"Point","coordinates":[130.1985,-16.6116]},"properties":{"d":"2026-10-02","t":"0013","frp":35.4,"b":323.1,"c":1,"s":"MODIS","n":0}},{"type":"Feature","geometry":{"type":"Point","coordinates":[133.8394,-15.9892]},"properties":{"d":"2026-10-02","t":"0013","frp":70.1,"b":318.9,"c":1,"s":"MODIS","n":0}},{"type":"Feature","geometry":{"type":"Point","coordinates":[133.8467,-15.9854]},"properties":{"d":"2026-10-02","t":"0013","frp":55.6,"b":317.1,"c":1,"s":"MODIS","n":0}},{"type":"Feature","geometry":{"type":"Point","coordinates":[134.3092,-15.9402]},"properties":{"d":"2026-10-02","t":"0013","frp":47.5,"b":314.6,"c":0,"s":"MODIS","n":0}},{"type":"Feature","geometry":{"type":"Point","coordinates":[128.2603,-15.9276]},"properties":{"d":"2026-10-02","t":"0013","frp":32.7,"b":328.7,"c":1,"s":"MODIS","n":0}},{"type":"Feature","geometry":{"type":"Point","coordinates":[128.267,-15.9261]},"properties":{"d":"2026-10-02","t":"0013","frp":25.7,"b":325.6,"c":1,"s":"MODIS","n":0}},{"type":"Feature","geometry":{"type":"Point","coordinates":[128.7121,-15.6831]},"properties":{"d":"2026-10-02","t":"0013","frp":13.0,"b":317.8,"c":1,"s":"MODIS","n":0}},{"type":"Feature","geometry":{"type":"Point","coordinates":[128.7295,-15.5937]},"properties":{"d":"2026-10-02","t":"0013","frp":21.2,"b":321.7,"c":1,"s":"MODIS","n":0}},{"type":"Feature","geometry":{"type":"Point","coordinates":[128.714,-15.5918]},"properties":{"d":"2026-10-02","t":"0013","frp":37.7,"b":328.2,"c":1,"s":"MODIS","n":0}},{"type":"Feature","geometry":{"type":"Point","coordinates":[133.7648,-15.2783]},"properties":{"d":"2026-10-02","t":"0013","frp":40.0,"b":314.0,"c":1,"s":"MODIS","n":0}},{"type":"Feature","geometry":{"type":"Point","coordinates":[129.8686,-13.7733]},"properties":{"d":"2026-10-02","t":"0013","frp":16.2,"b":313.6,"c":1,"s":"MODIS","n":0}},{"type":"Feature","geometry":{"type":"Point","coordinates":[132.25,-12.6773]},"properties":{"d":"2026-10-02","t":"0013","frp":27.6,"b":315.6,"c":1,"s":"MODIS","n":0}},{"type":"Feature","geometry":{"type":"Point","coordinates":[127.3062,-20.6976]},"properties":{"d":"2026-10-02","t":"0016","frp":13.9,"b":312.4,"c":0,"s":"MODIS","n":0}},{"type":"Feature","geometry":{"type":"Point","coordinates":[126.7265,-20.2156]},"properties":{"d":"2026-10-02","t":"0016","frp":20.5,"b":325.1,"c":1,"s":"MODIS","n":0}},{"type":"Feature","geometry":{"type":"Point","coordinates":[126.7146,-20.2036]},"properties":{"d":"2026-10-02","t":"0016","frp":24.4,"b":327.1,"c":1,"s":"MODIS","n":0}},{"type":"Feature","geometry":{"type":"Point","coordinates":[126.7026,-20.1915]},"properties":{"d":"2026-10-02","t":"0016","frp":18.2,"b":323.5,"c":1,"s":"MODIS","n":0}},{"type":"Feature","geometry":{"type":"Point","coordinates":[126.704,-20.1811]},"properties":{"d":"2026-10-02","t":"0016","frp":15.4,"b":321.4,"c":1,"s":"MODIS","n":0}},{"type":"Feature","geometry":{"type":"Point","coordinates":[130.8585,-28.3648]},"properties":{"d":"2026-10-02","t":"0018","frp":29.2,"b":302.1,"c":0,"s":"MODIS","n":0}}]}