{"type":"FeatureCollection","features":[{"type":"Feature","geometry":{"type":"Point","coordinates":[144.212,-15.7562]},"properties":{"d":"2026-10-04","t":"0323","frp":5.0,"b":347.7,"c":1,"s":"N21","n":0}},{"type":"Feature","geometry":{"type":"Point","coordinates":[144.2049,-15.7519]},"properties":{"d":"2026-10-04","t":"0323","frp":6.1,"b":367.0,"c":2,"s":"N21","n":0}},{"type":"Feature","geometry":{"type":"Point","coordinates":[144.2081,-15.7515]},"properties":{"d":"2026-10-04","t":"0323","frp":6.1,"b":341.3,"c":1,"s":"N21","n":0}},{"type":"Feature","geometry":{"type":"Point","coordinates":[144.542,-15.6471]},"properties":{"d":"2026-10-04","t":"0323","frp":12.2,"b":346.4,"c":1,"s":"N21","n":0}},{"type":"Feature","geometry":{"type":"Point","coordinates":[144.5479,-15.6464]},"properties":{"d":"2026-10-04","t":"0323","frp":9.2,"b":342.9,"c":1,"s":"N21","n":0}},{"type":"Feature","geometry":{"type":"Point","coordinates":[144.5395,-15.6461]},"properties":{"d":"2026-10-04","t":"0323","frp":10.8,"b":346.1,"c":1,"s":"N21","n":0}},{"type":"Feature","geometry":{"type":"Point","coordinates":[144.5456,-15.6453]},"properties":{"d":"2026-10-04","t":"0323","frp":10.8,"b":351.9,"c":1,"s":"N21","n":0}},{"type":"Feature","geometry":{"type":"Point","coordinates":[144.5422,-15.6421]},"properties":{"d":"2026-10-04","t":"0323","frp":3.8,"b":333.2,"c":1,"s":"N21","n":0}},{"type":"Feature","geometry":{"type":"Point","coordinates":[144.5538,-15.6407]},"properties":{"d":"2026-10-04","t":"0323","frp":5.7,"b":335.8,"c":1,"s":"N21","n":0}},{"type":"Feature","geometry":{"type":"Point","coordinates":[144.5647,-15.6395]},"properties":{"d":"2026-10-04","t":"0323","frp":16.1,"b":350.5,"c":1,"s":"N21","n":0}},{"type":"Feature","geometry":{"type":"Point","coordinates":[144.5571,-15.6389]},"properties":{"d":"2026-10-04","t":"0323","frp":12.6,"b":346.3,"c":1,"s":"N21","n":0}},{"type":"Feature","geometry":{"type":"Point","coordinates":[144.5757,-15.6383]},"properties":{"d":"2026-10-04","t":"0323","frp":8.8,"b":341.8,"c":1,"s":"N21","n":0}},{"type":"Feature","geometry":{"type":"Point","coordinates":[144.5625,-15.6382]},"properties":{"d":"2026-10-04","t":"0323","frp":18.9,"b":351.9,"c":1,"s":"N21","n":0}},{"type":"Feature","geometry":{"type":"Point","coordinates":[144.5814,-15.6376]},"properties":{"d":"2026-10-04","t":"0323","frp":11.2,"b":339.8,"c":1,"s":"N21","n":0}},{"type":"Feature","geometry":{"type":"Point","coordinates":[144.5678,-15.6376]},"properties":{"d":"2026-10-04","t":"0323","frp":18.9,"b":336.9,"c":1,"s":"N21","n":0}},{"type":"Feature","geometry":{"type":"Point","coordinates":[144.5789,-15.6363]},"properties":{"d":"2026-10-04","t":"0323","frp":15.7,"b":354.3,"c":1,"s":"N21","n":0}},{"type":"Feature","geometry":{"type":"Point","coordinates":[144.5591,-15.6351]},"properties":{"d":"2026-10-04","t":"0323","frp":16.1,"b":332.1,"c":1,"s":"N21","n":0}},{"type":"Feature","geometry":{"type":"Point","coordinates":[144.5643,-15.6345]},"properties":{"d":"2026-10-04","t":"0323","frp":16.1,"b":331.2,"c":0,"s":"N21","n":0}},{"type":"Feature","geometry":{"type":"Point","coordinates":[144.5695,-15.634]},"properties":{"d":"2026-10-04","t":"0323","frp":8.8,"b":340.3,"c":1,"s":"N21","n":0}},{"type":"Feature","geometry":{"type":"Point","coordinates":[144.5672,-15.6327]},"properties":{"d":"2026-10-04","t":"0323","frp":6.6,"b":337.1,"c":1,"s":"N21","n":0}},{"type":"Feature","geometry":{"type":"Point","coordinates":[144.5841,-15.6306]},"properties":{"d":"2026-10-04","t":"0323","frp":8.1,"b":331.1,"c":0,"s":"N21","n":0}},{"type":"Feature","geometry":{"type":"Point","coordinates":[144.6049,-15.63]},"properties":{"d":"2026-10-04","t":"0323","frp":11.0,"b":367.0,"c":2,"s":"N21","n":0}},{"type":"Feature","geometry":{"type":"Point","coordinates":[144.6106,-15.6293]},"properties":{"d":"2026-10-04","t":"0323","frp":11.0,"b":336.1,"c":1,"s":"N21","n":0}},{"type":"Feature","geometry":{"type":"Point","coordinates":[144.6023,-15.6284]},"properties":{"d":"2026-10-04","t":"0323","frp":12.7,"b":354.8,"c":1,"s":"N21","n":0}},{"type":"Feature","geometry":{"type":"Point","coordinates":[144.6081,-15.6277]},"properties":{"d":"2026-10-04","t":"0323","frp":14.5,"b":349.4,"c":1,"s":"N21","n":0}},{"type":"Feature","geometry":{"type":"Point","coordinates":[144.6137,-15.6271]},"properties":{"d":"2026-10-04","t":"0323","frp":14.5,"b":334.9,"c":1,"s":"N21","n":0}},{"type":"Feature","geometry":{"type":"Point","coordinates":[144.5895,-15.625]},"properties":{"d":"2026-10-04","t":"0323","frp":8.1,"b":333.3,"c":1,"s":"N21","n":0}},{"type":"Feature","geometry":{"type":"Point","coordinates":[144.5957,-15.6242]},"properties":{"d":"2026-10-04","t":"0323","frp":12.7,"b":332.3,"c":1,"s":"N21","n":0}},{"type":"Feature","geometry":{"type":"Point","coordinates":[144.6017,-15.6235]},"properties":{"d":"2026-10-04","t":"0323","frp":12.7,"b":342.0,"c":1,"s":"N21","n":0}},{"type":"Feature","geometry":{"type":"Point","coordinates":[144.6133,-15.6221]},"properties":{"d":"2026-10-04","t":"0323","frp":14.5,"b":343.2,"c":1,"s":"N21","n":0}},{"type":"Feature","geometry":{"type":"Point","coordinates":[144.6189,-15.6214]},"properties":{"d":"2026-10-04","t":"0323","frp":15.8,"b":352.6,"c":1,"s":"N21","n":0}},{"type":"Feature","geometry":{"type":"Point","coordinates":[144.6244,-15.6208]},"properties":{"d":"2026-10-04","t":"0323","frp":15.8,"b":341.6,"c":1,"s":"N21","n":0}},{"type":"Feature","geometry":{"type":"Point","coordinates":[144.6009,-15.6186]},"properties":{"d":"2026-10-04","t":"0323","frp":12.3,"b":343.9,"c":1,"s":"N21","n":0}},{"type":"Feature","geometry":{"type":"Point","coordinates":[144.624,-15.6158]},"properties":{"d":"2026-10-04","t":"0323","frp":11.7,"b":343.0,"c":1,"s":"N21","n":0}},{"type":"Feature","geometry":{"type":"Point","coordinates":[144.6294,-15.6152]},"properties":{"d":"2026-10-04","t":"0323","frp":7.1,"b":332.1,"c":1,"s":"N21","n":0}},{"type":"Feature","geometry":{"type":"Point","coordinates":[144.6001,-15.6137]},"properties":{"d":"2026-10-04","t":"0323","frp":12.3,"b":344.1,"c":1,"s":"N21","n":0}},{"type":"Feature","geometry":{"type":"Point","coordinates":[144.629,-15.6102]},"properties":{"d":"2026-10-04","t":"0323","frp":7.1,"b":344.5,"c":1,"s":"N21","n":0}},{"type":"Feature","geometry":{"type":"Point","coordinates":[144.6284,-15.6053]},"properties":{"d":"2026-10-04","t":"0323","frp":15.9,"b":342.0,"c":1,"s":"N21","n":0}},{"type":"Feature","geometry":{"type":"Point","coordinates":[144.6279,-15.6004]},"properties":{"d":"2026-10-04","t":"0323","frp":15.9,"b":352.1,"c":1,"s":"N21","n":0}},{"type":"Feature","geometry":{"type":"Point","coordinates":[144.6332,-15.5948]},"properties":{"d":"2026-10-04","t":"0323","frp":11.7,"b":342.8,"c":1,"s":"N21","n":0}},{"type":"Feature","geometry":{"type":"Point","coordinates":[144.4445,-15.5918]},"properties":{"d":"2026-10-04","t":"0323","frp":4.2,"b":331.6,"c":0,"s":"N21","n":0}},{"type":"Feature","geometry":{"type":"Point","coordinates":[144.6331,-15.5898]},"properties":{"d":"2026-10-04","t":"0323","frp":11.7,"b":342.1,"c":1,"s":"N21","n":0}},{"type":"Feature","geometry":{"type":"Point","coordinates":[144.6327,-15.5848]},"properties":{"d":"2026-10-04","t":"0323","frp":11.3,"b":349.2,"c":1,"s":"N21","n":0}},{"type":"Feature","geometry":{"type":"Point","coordinates":[144.4431,-15.5818]},"properties":{"d":"2026-10-04","t":"0323","frp":12.1,"b":340.0,"c":1,"s":"N21","n":0}},{"type":"Feature","geometry":{"type":"Point","coordinates":[144.449,-15.5811]},"properties":{"d":"2026-10-04","t":"0323","frp":9.2,"b":330.8,"c":0,"s":"N21","n":0}},{"type":"Feature","geometry":{"type":"Point","coordinates":[144.4548,-15.5805]},"properties":{"d":"2026-10-04","t":"0323","frp":9.2,"b":334.4,"c":1,"s":"N21","n":0}},{"type":"Feature","geometry":{"type":"Point","coordinates":[144.632,-15.5799]},"properties":{"d":"2026-10-04","t":"0323","frp":11.3,"b":345.8,"c":1,"s":"N21","n":0}},{"type":"Feature","geometry":{"type":"Point","coordinates":[144.6311,-15.575]},"properties":{"d":"2026-10-04","t":"0323","frp":10.0,"b":347.2,"c":1,"s":"N21","n":0}},{"type":"Feature","geometry":{"type":"Point","coordinates":[144.6302,-15.5702]},"properties":{"d":"2026-10-04","t":"0323","frp":10.0,"b":331.5,"c":0,"s":"N21","n":0}},{"type":"Feature","geometry":{"type":"Point","coordinates":[144.6297,-15.5652]},"properties":{"d":"2026-10-04","t":"0323","frp":26.4,"b":340.2,"c":1,"s":"N21","n":0}},{"type":"Feature","geometry":{"type":"Point","coordinates":[144.6237,-15.5609]},"properties":{"d":"2026-10-04","t":"0323","frp":26.4,"b":352.9,"c":1,"s":"N21","n":0}},{"type":"Feature","geometry":{"type":"Point","coordinates":[144.6292,-15.5603]},"properties":{"d":"2026-10-04","t":"0323","frp":26.4,"b":340.3,"c":1,"s":"N21","n":0}},{"type":"Feature","geometry":{"type":"Point","coordinates":[144.476,-15.5579]},"properties":{"d":"2026-10-04","t":"0323","frp":7.4,"b":338.1,"c":1,"s":"N21","n":0}},{"type":"Feature","geometry":{"type":"Point","coordinates":[144.473,-15.5571]},"properties":{"d":"2026-10-04","t":"0323","frp":13.6,"b":367.0,"c":2,"s":"N21","n":0}},{"type":"Feature","geometry":{"type":"Point","coordinates":[144.6172,-15.5567]},"properties":{"d":"2026-10-04","t":"0323","frp":7.6,"b":341.5,"c":1,"s":"N21","n":0}},{"type":"Feature","geometry":{"type":"Point","coordinates":[144.6229,-15.556]},"properties":{"d":"2026-10-04","t":"0323","frp":12.9,"b":342.9,"c":1,"s":"N21","n":0}},{"type":"Feature","geometry":{"type":"Point","coordinates":[144.4694,-15.5536]},"properties":{"d":"2026-10-04","t":"0323","frp":10.6,"b":340.3,"c":1,"s":"N21","n":0}},{"type":"Feature","geometry":{"type":"Point","coordinates":[144.4753,-15.5529]},"properties":{"d":"2026-10-04","t":"0323","frp":10.6,"b":332.5,"c":0,"s":"N21","n":0}},{"type":"Feature","geometry":{"type":"Point","coordinates":[144.4812,-15.5522]},"properties":{"d":"2026-10-04","t":"0323","frp":6.9,"b":330.4,"c":0,"s":"N21","n":0}},{"type":"Feature","geometry":{"type":"Point","coordinates":[144.6163,-15.5518]},"properties":{"d":"2026-10-04","t":"0323","frp":7.6,"b":341.6,"c":1,"s":"N21","n":0}},{"type":"Feature","geometry":{"type":"Point","coordinates":[144.4783,-15.5514]},"properties":{"d":"2026-10-04","t":"0323","frp":13.6,"b":335.1,"c":1,"s":"N21","n":0}},{"type":"Feature","geometry":{"type":"Point","coordinates":[144.6188,-15.5493]},"properties":{"d":"2026-10-04","t":"0323","frp":6.5,"b":342.5,"c":1,"s":"N21","n":0}},{"type":"Feature","geometry":{"type":"Point","coordinates":[144.6154,-15.5469]},"properties":{"d":"2026-10-04","t":"0323","frp":15.2,"b":347.0,"c":1,"s":"N21","n":0}},{"type":"Feature","geometry":{"type":"Point","coordinates":[144.6119,-15.5451]},"properties":{"d":"2026-10-04","t":"0323","frp":6.5,"b":335.1,"c":1,"s":"N21","n":0}},{"type":"Feature","geometry":{"type":"Point","coordinates":[144.618,-15.5444]},"properties":{"d":"2026-10-04","t":"0323","frp":6.5,"b":335.7,"c":1,"s":"N21","n":0}},{"type":"Feature","geometry":{"type":"Point","coordinates":[144.6056,-15.5409]},"properties":{"d":"2026-10-04","t":"0323","frp":8.7,"b":336.1,"c":1,"s":"N21","n":0}},{"type":"Feature","geometry":{"type":"Point","coordinates":[144.6024,-15.5384]},"properties":{"d":"2026-10-04","t":"0323","frp":7.5,"b":335.7,"c":1,"s":"N21","n":0}},{"type":"Feature","geometry":{"type":"Point","coordinates":[144.608,-15.5378]},"properties":{"d":"2026-10-04","t":"0323","frp":9.2,"b":342.5,"c":1,"s":"N21","n":0}},{"type":"Feature","geometry":{"type":"Point","coordinates":[144.6048,-15.536]},"properties":{"d":"2026-10-04","t":"0323","frp":8.7,"b":345.7,"c":1,"s":"N21","n":0}},{"type":"Feature","geometry":{"type":"Point","coordinates":[144.6016,-15.5335]},"properties":{"d":"2026-10-04","t":"0323","frp":7.5,"b":339.5,"c":1,"s":"N21","n":0}},{"type":"Feature","geometry":{"type":"Point","coordinates":[144.5985,-15.5318]},"properties":{"d":"2026-10-04","t":"0323","frp":26.1,"b":339.7,"c":1,"s":"N21","n":0}},{"type":"Feature","geometry":{"type":"Point","coordinates":[144.6041,-15.5311]},"properties":{"d":"2026-10-04","t":"0323","frp":26.1,"b":340.4,"c":1,"s":"N21","n":0}},{"type":"Feature","geometry":{"type":"Point","coordinates":[144.5952,-15.5292]},"properties":{"d":"2026-10-04","t":"0323","frp":35.5,"b":334.9,"c":1,"s":"N21","n":0}},{"type":"Feature","geometry":{"type":"Point","coordinates":[144.6009,-15.5286]},"properties":{"d":"2026-10-04","t":"0323","frp":35.5,"b":348.5,"c":1,"s":"N21","n":0}},{"type":"Feature","geometry":{"type":"Point","coordinates":[144.5978,-15.5269]},"properties":{"d":"2026-10-04","t":"0323","frp":26.1,"b":352.9,"c":1,"s":"N21","n":0}},{"type":"Feature","geometry":{"type":"Point","coordinates":[144.539,-15.5189]},"properties":{"d":"2026-10-04","t":"0323","frp":10.2,"b":334.3,"c":1,"s":"N21","n":0}},{"type":"Feature","geometry":{"type":"Point","coordinates":[144.5505,-15.5175]},"properties":{"d":"2026-10-04","t":"0323","frp":7.2,"b":339.6,"c":1,"s":"N21","n":0}},{"type":"Feature","geometry":{"type":"Point","coordinates":[144.5562,-15.5169]},"properties":{"d":"2026-10-04","t":"0323","frp":7.2,"b":339.0,"c":1,"s":"N21","n":0}},{"type":"Feature","geometry":{"type":"Point","coordinates":[144.5617,-15.5162]},"properties":{"d":"2026-10-04","t":"0323","frp":10.1,"b":346.4,"c":1,"s":"N21","n":0}},{"type":"Feature","geometry":{"type":"Point","coordinates":[144.9993,-15.2932]},"properties":{"d":"2026-10-04","t":"0323","frp":11.7,"b":339.2,"c":1,"s":"N21","n":0}},{"type":"Feature","geometry":{"type":"Point","coordinates":[144.9937,-15.289]},"properties":{"d":"2026-10-04","t":"0323","frp":16.3,"b":348.4,"c":1,"s":"N21","n":0}},{"type":"Feature","geometry":{"type":"Point","coordinates":[144.9958,-15.2882]},"properties":{"d":"2026-10-04","t":"0323","frp":16.6,"b":340.0,"c":1,"s":"N21","n":0}},{"type":"Feature","geometry":{"type":"Point","coordinates":[145.0041,-15.2878]},"properties":{"d":"2026-10-04","t":"0323","frp":15.8,"b":338.8,"c":1,"s":"N21","n":0}},{"type":"Feature","geometry":{"type":"Point","coordinates":[145.001,-15.2876]},"properties":{"d":"2026-10-04","t":"0323","frp":13.3,"b":339.6,"c":1,"s":"N21","n":0}},{"type":"Feature","geometry":{"type":"Point","coordinates":[144.4371,-15.2869]},"properties":{"d":"2026-10-04","t":"0323","frp":26.4,"b":351.2,"c":1,"s":"N21","n":0}},{"type":"Feature","geometry":{"type":"Point","coordinates":[144.4428,-15.2862]},"properties":{"d":"2026-10-04","t":"0323","frp":26.4,"b":354.6,"c":1,"s":"N21","n":0}},{"type":"Feature","geometry":{"type":"Point","coordinates":[144.9826,-15.2854]},"properties":{"d":"2026-10-04","t":"0323","frp":4.5,"b":331.2,"c":1,"s":"N21","n":0}},{"type":"Feature","geometry":{"type":"Point","coordinates":[144.9848,-15.2848]},"properties":{"d":"2026-10-04","t":"0323","frp":7.2,"b":334.2,"c":1,"s":"N21","n":0}},{"type":"Feature","geometry":{"type":"Point","coordinates":[144.4365,-15.2819]},"properties":{"d":"2026-10-04","t":"0323","frp":26.4,"b":367.0,"c":2,"s":"N21","n":0}},{"type":"Feature","geometry":{"type":"Point","coordinates":[144.4423,-15.2812]},"properties":{"d":"2026-10-04","t":"0323","frp":26.4,"b":330.1,"c":1,"s":"N21","n":0}},{"type":"Feature","geometry":{"type":"Point","coordinates":[144.4359,-15.277]},"properties":{"d":"2026-10-04","t":"0323","frp":8.2,"b":331.6,"c":1,"s":"N21","n":0}},{"type":"Feature","geometry":{"type":"Point","coordinates":[144.4417,-15.2763]},"properties":{"d":"2026-10-04","t":"0323","frp":8.2,"b":332.3,"c":1,"s":"N21","n":0}},{"type":"Feature","geometry":{"type":"Point","coordinates":[144.4475,-15.2756]},"properties":{"d":"2026-10-04","t":"0323","frp":4.0,"b":339.4,"c":1,"s":"N21","n":0}},{"type":"Feature","geometry":{"type":"Point","coordinates":[144.4295,-15.2727]},"properties":{"d":"2026-10-04","t":"0323","frp":8.9,"b":330.7,"c":0,"s":"N21","n":0}},{"type":"Feature","geometry":{"type":"Point","coordinates":[141.6839,-15.0471]},"properties":{"d":"2026-10-04","t":"0323","frp":1.9,"b":330.0,"c":0,"s":"N21","n":0}},{"type":"Feature","geometry":{"type":"Point","coordinates":[141.6877,-15.0406]},"properties":{"d":"2026-10-04","t":"0323","frp":35.4,"b":338.1,"c":1,"s":"N21","n":0}},{"type":"Feature","geometry":{"type":"Point","coordinates":[141.6921,-15.0402]},"properties":{"d":"2026-10-04","t":"0323","frp":35.4,"b":367.0,"c":2,"s":"N21","n":0}},{"type":"Feature","geometry":{"type":"Point","coordinates":[141.6774,-14.9836]},"properties":{"d":"2026-10-04","t":"0323","frp":5.0,"b":333.0,"c":0,"s":"N21","n":0}},{"type":"Feature","geometry":{"type":"Point","coordinates":[141.9064,-14.9525]},"properties":{"d":"2026-10-04","t":"0323","frp":4.0,"b":350.3,"c":1,"s":"N21","n":0}},{"type":"Feature","geometry":{"type":"Point","coordinates":[141.9107,-14.952]},"properties":{"d":"2026-10-04","t":"0323","frp":4.0,"b":330.2,"c":1,"s":"N21","n":0}},{"type":"Feature","geometry":{"type":"Point","coordinates":[141.9264,-14.9384]},"properties":{"d":"2026-10-04","t":"0323","frp":7.9,"b":332.4,"c":1,"s":"N21","n":0}},{"type":"Feature","geometry":{"type":"Point","coordinates":[144.9212,-14.8249]},"properties":{"d":"2026-10-04","t":"0323","frp":2.7,"b":331.1,"c":0,"s":"N21","n":0}},{"type":"Feature","geometry":{"type":"Point","coordinates":[144.4989,-14.7745]},"properties":{"d":"2026-10-04","t":"0323","frp":11.2,"b":367.0,"c":2,"s":"N21","n":0}},{"type":"Feature","geometry":{"type":"Point","coordinates":[144.5046,-14.7738]},"properties":{"d":"2026-10-04","t":"0323","frp":11.2,"b":335.3,"c":1,"s":"N21","n":0}},{"type":"Feature","geometry":{"type":"Point","coordinates":[144.504,-14.7689]},"properties":{"d":"2026-10-04","t":"0323","frp":11.2,"b":344.7,"c":1,"s":"N21","n":0}},{"type":"Feature","geometry":{"type":"Point","coordinates":[144.5096,-14.7682]},"properties":{"d":"2026-10-04","t":"0323","frp":13.4,"b":346.6,"c":1,"s":"N21","n":0}},{"type":"Feature","geometry":{"type":"Point","coordinates":[144.5152,-14.7675]},"properties":{"d":"2026-10-04","t":"0323","frp":13.4,"b":367.0,"c":2,"s":"N21","n":0}},{"type":"Feature","geometry":{"type":"Point","coordinates":[144.5209,-14.7669]},"properties":{"d":"2026-10-04","t":"0323","frp":11.6,"b":367.0,"c":2,"s":"N21","n":0}},{"type":"Feature","geometry":{"type":"Point","coordinates":[144.5265,-14.7662]},"properties":{"d":"2026-10-04","t":"0323","frp":11.6,"b":333.3,"c":1,"s":"N21","n":0}},{"type":"Feature","geometry":{"type":"Point","coordinates":[144.5203,-14.762]},"properties":{"d":"2026-10-04","t":"0323","frp":7.2,"b":343.3,"c":1,"s":"N21","n":0}},{"type":"Feature","geometry":{"type":"Point","coordinates":[144.5259,-14.7613]},"properties":{"d":"2026-10-04","t":"0323","frp":7.2,"b":333.0,"c":1,"s":"N21","n":0}},{"type":"Feature","geometry":{"type":"Point","coordinates":[144.5316,-14.7606]},"properties":{"d":"2026-10-04","t":"0323","frp":11.0,"b":344.1,"c":1,"s":"N21","n":0}},{"type":"Feature","geometry":{"type":"Point","coordinates":[144.531,-14.7557]},"properties":{"d":"2026-10-04","t":"0323","frp":11.0,"b":351.2,"c":1,"s":"N21","n":0}},{"type":"Feature","geometry":{"type":"Point","coordinates":[144.8354,-14.7528]},"properties":{"d":"2026-10-04","t":"0323","frp":3.5,"b":331.4,"c":1,"s":"N21","n":0}},{"type":"Feature","geometry":{"type":"Point","coordinates":[144.5304,-14.7508]},"properties":{"d":"2026-10-04","t":"0323","frp":6.6,"b":331.1,"c":0,"s":"N21","n":0}},{"type":"Feature","geometry":{"type":"Point","coordinates":[144.5298,-14.7459]},"properties":{"d":"2026-10-04","t":"0323","frp":6.6,"b":337.4,"c":0,"s":"N21","n":0}},{"type":"Feature","geometry":{"type":"Point","coordinates":[144.5925,-14.6988]},"properties":{"d":"2026-10-04","t":"0323","frp":6.3,"b":343.3,"c":1,"s":"N21","n":0}},{"type":"Feature","geometry":{"type":"Point","coordinates":[144.5895,-14.6958]},"properties":{"d":"2026-10-04","t":"0323","frp":13.5,"b":342.5,"c":1,"s":"N21","n":0}},{"type":"Feature","geometry":{"type":"Point","coordinates":[144.5948,-14.6951]},"properties":{"d":"2026-10-04","t":"0323","frp":6.8,"b":335.5,"c":1,"s":"N21","n":0}},{"type":"Feature","geometry":{"type":"Point","coordinates":[144.5921,-14.6938]},"properties":{"d":"2026-10-04","t":"0323","frp":12.3,"b":345.0,"c":1,"s":"N21","n":0}},{"type":"Feature","geometry":{"type":"Point","coordinates":[143.8411,-14.674]},"properties":{"d":"2026-10-04","t":"0323","frp":14.1,"b":367.0,"c":2,"s":"N21","n":0}},{"type":"Feature","geometry":{"type":"Point","coordinates":[143.845,-14.6708]},"properties":{"d":"2026-10-04","t":"0323","frp":15.7,"b":353.1,"c":1,"s":"N21","n":0}},{"type":"Feature","geometry":{"type":"Point","coordinates":[143.8481,-14.6704]},"properties":{"d":"2026-10-04","t":"0323","frp":15.7,"b":352.0,"c":1,"s":"N21","n":0}},{"type":"Feature","geometry":{"type":"Point","coordinates":[143.8437,-14.6685]},"properties":{"d":"2026-10-04","t":"0323","frp":14.1,"b":346.6,"c":1,"s":"N21","n":0}},{"type":"Feature","geometry":{"type":"Point","coordinates":[143.8469,-14.6682]},"properties":{"d":"2026-10-04","t":"0323","frp":23.6,"b":367.0,"c":2,"s":"N21","n":0}},{"type":"Feature","geometry":{"type":"Point","coordinates":[143.8425,-14.6583]},"properties":{"d":"2026-10-04","t":"0323","frp":4.1,"b":332.1,"c":1,"s":"N21","n":0}},{"type":"Feature","geometry":{"type":"Point","coordinates":[143.8369,-14.6562]},"properties":{"d":"2026-10-04","t":"0323","frp":3.6,"b":331.0,"c":1,"s":"N21","n":0}},{"type":"Feature","geometry":{"type":"Point","coordinates":[143.8401,-14.6558]},"properties":{"d":"2026-10-04","t":"0323","frp":3.6,"b":350.9,"c":1,"s":"N21","n":0}},{"type":"Feature","geometry":{"type":"Point","coordinates":[143.8363,-14.651]},"properties":{"d":"2026-10-04","t":"0323","frp":4.0,"b":345.9,"c":1,"s":"N21","n":0}},{"type":"Feature","geometry":{"type":"Point","coordinates":[141.6212,-14.4895]},"properties":{"d":"2026-10-04","t":"0323","frp":4.0,"b":340.0,"c":1,"s":"N21","n":0}},{"type":"Feature","geometry":{"type":"Point","coordinates":[141.6233,-14.4876]},"properties":{"d":"2026-10-04","t":"0323","frp":10.5,"b":367.0,"c":2,"s":"N21","n":0}},{"type":"Feature","geometry":{"type":"Point","coordinates":[141.6206,-14.4836]},"properties":{"d":"2026-10-04","t":"0323","frp":3.9,"b":340.1,"c":1,"s":"N21","n":0}},{"type":"Feature","geometry":{"type":"Point","coordinates":[141.625,-14.4831]},"properties":{"d":"2026-10-04","t":"0323","frp":5.2,"b":338.3,"c":1,"s":"N21","n":0}},{"type":"Feature","geometry":{"type":"Point","coordinates":[141.8454,-13.6733]},"properties":{"d":"2026-10-04","t":"0323","frp":5.8,"b":330.5,"c":1,"s":"N21","n":0}},{"type":"Feature","geometry":{"type":"Point","coordinates":[141.849,-13.667]},"properties":{"d":"2026-10-04","t":"0323","frp":11.9,"b":367.0,"c":2,"s":"N21","n":0}},{"type":"Feature","geometry":{"type":"Point","coordinates":[141.853,-13.6666]},"properties":{"d":"2026-10-04","t":"0323","frp":11.9,"b":336.8,"c":1,"s":"N21","n":0}},{"type":"Feature","geometry":{"type":"Point","coordinates":[141.8613,-13.6656]},"properties":{"d":"2026-10-04","t":"0323","frp":10.0,"b":367.0,"c":2,"s":"N21","n":0}},{"type":"Feature","geometry":{"type":"Point","coordinates":[141.8607,-13.6599]},"properties":{"d":"2026-10-04","t":"0323","frp":10.0,"b":334.5,"c":1,"s":"N21","n":0}},{"type":"Feature","geometry":{"type":"Point","coordinates":[141.8648,-13.6594]},"properties":{"d":"2026-10-04","t":"0323","frp":16.9,"b":351.0,"c":1,"s":"N21","n":0}},{"type":"Feature","geometry":{"type":"Point","coordinates":[141.8435,-13.656]},"properties":{"d":"2026-10-04","t":"0323","frp":4.1,"b":331.9,"c":1,"s":"N21","n":0}},{"type":"Feature","geometry":{"type":"Point","coordinates":[141.8683,-13.6532]},"properties":{"d":"2026-10-04","t":"0323","frp":10.5,"b":337.8,"c":1,"s":"N21","n":0}},{"type":"Feature","geometry":{"type":"Point","coordinates":[141.8724,-13.6527]},"properties":{"d":"2026-10-04","t":"0323","frp":9.9,"b":343.8,"c":1,"s":"N21","n":0}},{"type":"Feature","geometry":{"type":"Point","coordinates":[141.8794,-13.6402]},"properties":{"d":"2026-10-04","t":"0323","frp":4.6,"b":330.1,"c":1,"s":"N21","n":0}},{"type":"Feature","geometry":{"type":"Point","coordinates":[141.8788,-13.6345]},"properties":{"d":"2026-10-04","t":"0323","frp":4.6,"b":342.6,"c":1,"s":"N21","n":0}},{"type":"Feature","geometry":{"type":"Point","coordinates":[141.8823,-13.6282]},"properties":{"d":"2026-10-04","t":"0323","frp":7.2,"b":340.8,"c":1,"s":"N21","n":0}},{"type":"Feature","geometry":{"type":"Point","coordinates":[141.8815,-13.6271]},"properties":{"d":"2026-10-04","t":"0323","frp":5.9,"b":336.2,"c":1,"s":"N21","n":0}},{"type":"Feature","geometry":{"type":"Point","coordinates":[143.1696,-13.5881]},"properties":{"d":"2026-10-04","t":"0323","frp":8.9,"b":354.2,"c":1,"s":"N21","n":0}},{"type":"Feature","geometry":{"type":"Point","coordinates":[143.1498,-13.489]},"properties":{"d":"2026-10-04","t":"0323","frp":1.6,"b":331.3,"c":1,"s":"N21","n":0}},{"type":"Feature","geometry":{"type":"Point","coordinates":[143.1524,-13.4833]},"properties":{"d":"2026-10-04","t":"0323","frp":7.9,"b":337.1,"c":1,"s":"N21","n":0}},{"type":"Feature","geometry":{"type":"Point","coordinates":[143.1557,-13.4829]},"properties":{"d":"2026-10-04","t":"0323","frp":7.9,"b":367.0,"c":2,"s":"N21","n":0}},{"type":"Feature","geometry":{"type":"Point","coordinates":[143.155,-13.4776]},"properties":{"d":"2026-10-04","t":"0323","frp":7.9,"b":331.1,"c":1,"s":"N21","n":0}},{"type":"Feature","geometry":{"type":"Point","coordinates":[143.1583,-13.4772]},"properties":{"d":"2026-10-04","t":"0323","frp":10.3,"b":341.5,"c":1,"s":"N21","n":0}},{"type":"Feature","geometry":{"type":"Point","coordinates":[143.1558,-13.4726]},"properties":{"d":"2026-10-04","t":"0323","frp":5.0,"b":353.1,"c":1,"s":"N21","n":0}},{"type":"Feature","geometry":{"type":"Point","coordinates":[143.1544,-13.4724]},"properties":{"d":"2026-10-04","t":"0323","frp":7.2,"b":347.2,"c":1,"s":"N21","n":0}},{"type":"Feature","geometry":{"type":"Point","coordinates":[143.1342,-13.4324]},"properties":{"d":"2026-10-04","t":"0323","frp":9.9,"b":354.4,"c":1,"s":"N21","n":0}},{"type":"Feature","geometry":{"type":"Point","coordinates":[143.1375,-13.432]},"properties":{"d":"2026-10-04","t":"0323","frp":13.6,"b":367.0,"c":2,"s":"N21","n":0}},{"type":"Feature","geometry":{"type":"Point","coordinates":[143.1407,-13.4316]},"properties":{"d":"2026-10-04","t":"0323","frp":13.6,"b":334.1,"c":1,"s":"N21","n":0}},{"type":"Feature","geometry":{"type":"Point","coordinates":[143.1335,-13.4271]},"properties":{"d":"2026-10-04","t":"0323","frp":9.9,"b":344.4,"c":1,"s":"N21","n":0}},{"type":"Feature","geometry":{"type":"Point","coordinates":[141.9942,-13.09]},"properties":{"d":"2026-10-04","t":"0323","frp":7.9,"b":348.8,"c":1,"s":"N21","n":0}},{"type":"Feature","geometry":{"type":"Point","coordinates":[141.9982,-13.0896]},"properties":{"d":"2026-10-04","t":"0323","frp":6.7,"b":344.9,"c":1,"s":"N21","n":0}},{"type":"Feature","geometry":{"type":"Point","coordinates":[142.0021,-13.0891]},"properties":{"d":"2026-10-04","t":"0323","frp":6.7,"b":350.2,"c":1,"s":"N21","n":0}},{"type":"Feature","geometry":{"type":"Point","coordinates":[142.0055,-13.083]},"properties":{"d":"2026-10-04","t":"0323","frp":8.1,"b":346.1,"c":1,"s":"N21","n":0}},{"type":"Feature","geometry":{"type":"Point","coordinates":[142.0093,-13.0825]},"properties":{"d":"2026-10-04","t":"0323","frp":8.1,"b":338.0,"c":1,"s":"N21","n":0}},{"type":"Feature","geometry":{"type":"Point","coordinates":[142.0081,-13.0796]},"properties":{"d":"2026-10-04","t":"0323","frp":6.6,"b":330.2,"c":1,"s":"N21","n":0}},{"type":"Feature","geometry":{"type":"Point","coordinates":[142.0119,-13.0791]},"properties":{"d":"2026-10-04","t":"0323","frp":6.7,"b":367.0,"c":2,"s":"N21","n":0}},{"type":"Feature","geometry":{"type":"Point","coordinates":[142.0158,-13.0786]},"properties":{"d":"2026-10-04","t":"0323","frp":6.7,"b":332.4,"c":1,"s":"N21","n":0}},{"type":"Feature","geometry":{"type":"Point","coordinates":[142.0127,-13.0764]},"properties":{"d":"2026-10-04","t":"0323","frp":8.7,"b":367.0,"c":2,"s":"N21","n":0}},{"type":"Feature","geometry":{"type":"Point","coordinates":[142.0166,-13.076]},"properties":{"d":"2026-10-04","t":"0323","frp":8.7,"b":336.3,"c":1,"s":"N21","n":0}},{"type":"Feature","geometry":{"type":"Point","coordinates":[142.0153,-13.073]},"properties":{"d":"2026-10-04","t":"0323","frp":6.7,"b":333.6,"c":1,"s":"N21","n":0}},{"type":"Feature","geometry":{"type":"Point","coordinates":[142.0173,-13.0555]},"properties":{"d":"2026-10-04","t":"0323","frp":4.8,"b":331.6,"c":1,"s":"N21","n":0}},{"type":"Feature","geometry":{"type":"Point","coordinates":[142.0212,-13.055]},"properties":{"d":"2026-10-04","t":"0323","frp":4.8,"b":344.9,"c":1,"s":"N21","n":0}},{"type":"Feature","geometry":{"type":"Point","coordinates":[142.018,-13.0529]},"properties":{"d":"2026-10-04","t":"0323","frp":11.0,"b":346.9,"c":1,"s":"N21","n":0}},{"type":"Feature","geometry":{"type":"Point","coordinates":[142.0129,-13.0503]},"properties":{"d":"2026-10-04","t":"0323","frp":6.3,"b":340.6,"c":1,"s":"N21","n":0}},{"type":"Feature","geometry":{"type":"Point","coordinates":[142.0168,-13.0498]},"properties":{"d":"2026-10-04","t":"0323","frp":4.8,"b":337.1,"c":1,"s":"N21","n":0}},{"type":"Feature","geometry":{"type":"Point","coordinates":[142.7536,-13.0075]},"properties":{"d":"2026-10-04","t":"0323","frp":10.5,"b":367.0,"c":2,"s":"N21","n":0}},{"type":"Feature","geometry":{"type":"Point","coordinates":[142.7495,-13.0025]},"properties":{"d":"2026-10-04","t":"0323","frp":16.1,"b":367.0,"c":2,"s":"N21","n":0}},{"type":"Feature","geometry":{"type":"Point","coordinates":[142.753,-13.0021]},"properties":{"d":"2026-10-04","t":"0323","frp":10.5,"b":367.0,"c":2,"s":"N21","n":0}},{"type":"Feature","geometry":{"type":"Point","coordinates":[142.7565,-13.0017]},"properties":{"d":"2026-10-04","t":"0323","frp":10.5,"b":338.5,"c":1,"s":"N21","n":0}},{"type":"Feature","geometry":{"type":"Point","coordinates":[142.7419,-12.998]},"properties":{"d":"2026-10-04","t":"0323","frp":27.1,"b":333.8,"c":1,"s":"N21","n":0}},{"type":"Feature","geometry":{"type":"Point","coordinates":[142.7454,-12.9976]},"properties":{"d":"2026-10-04","t":"0323","frp":33.1,"b":349.8,"c":1,"s":"N21","n":0}},{"type":"Feature","geometry":{"type":"Point","coordinates":[142.7489,-12.9971]},"properties":{"d":"2026-10-04","t":"0323","frp":33.1,"b":367.0,"c":2,"s":"N21","n":0}},{"type":"Feature","geometry":{"type":"Point","coordinates":[142.7524,-12.9967]},"properties":{"d":"2026-10-04","t":"0323","frp":23.0,"b":352.1,"c":1,"s":"N21","n":0}},{"type":"Feature","geometry":{"type":"Point","coordinates":[142.7447,-12.9922]},"properties":{"d":"2026-10-04","t":"0323","frp":33.1,"b":349.6,"c":1,"s":"N21","n":0}},{"type":"Feature","geometry":{"type":"Point","coordinates":[142.7482,-12.9917]},"properties":{"d":"2026-10-04","t":"0323","frp":33.1,"b":367.0,"c":2,"s":"N21","n":0}},{"type":"Feature","geometry":{"type":"Point","coordinates":[142.3292,-12.9227]},"properties":{"d":"2026-10-04","t":"0323","frp":3.0,"b":333.3,"c":1,"s":"N21","n":0}},{"type":"Feature","geometry":{"type":"Point","coordinates":[142.3305,-12.9223]},"properties":{"d":"2026-10-04","t":"0323","frp":6.4,"b":341.1,"c":1,"s":"N21","n":0}},{"type":"Feature","geometry":{"type":"Point","coordinates":[142.3329,-12.9223]},"properties":{"d":"2026-10-04","t":"0323","frp":10.8,"b":350.9,"c":1,"s":"N21","n":0}},{"type":"Feature","geometry":{"type":"Point","coordinates":[142.3342,-12.9219]},"properties":{"d":"2026-10-04","t":"0323","frp":11.5,"b":367.0,"c":2,"s":"N21","n":0}},{"type":"Feature","geometry":{"type":"Point","coordinates":[142.3366,-12.9218]},"properties":{"d":"2026-10-04","t":"0323","frp":10.8,"b":367.0,"c":2,"s":"N21","n":0}},{"type":"Feature","geometry":{"type":"Point","coordinates":[142.3379,-12.9214]},"properties":{"d":"2026-10-04","t":"0323","frp":11.5,"b":367.0,"c":2,"s":"N21","n":0}},{"type":"Feature","geometry":{"type":"Point","coordinates":[142.3416,-12.921]},"properties":{"d":"2026-10-04","t":"0323","frp":15.9,"b":343.7,"c":1,"s":"N21","n":0}},{"type":"Feature","geometry":{"type":"Point","coordinates":[142.344,-12.9209]},"properties":{"d":"2026-10-04","t":"0323","frp":30.9,"b":367.0,"c":2,"s":"N21","n":0}},{"type":"Feature","geometry":{"type":"Point","coordinates":[142.3453,-12.9206]},"properties":{"d":"2026-10-04","t":"0323","frp":15.9,"b":367.0,"c":2,"s":"N21","n":0}},{"type":"Feature","geometry":{"type":"Point","coordinates":[142.3477,-12.9205]},"properties":{"d":"2026-10-04","t":"0323","frp":15.3,"b":355.7,"c":1,"s":"N21","n":0}},{"type":"Feature","geometry":{"type":"Point","coordinates":[142.3491,-12.9202]},"properties":{"d":"2026-10-04","t":"0323","frp":21.2,"b":367.0,"c":2,"s":"N21","n":0}},{"type":"Feature","geometry":{"type":"Point","coordinates":[142.3514,-12.92]},"properties":{"d":"2026-10-04","t":"0323","frp":15.3,"b":367.0,"c":2,"s":"N21","n":0}},{"type":"Feature","geometry":{"type":"Point","coordinates":[142.3528,-12.9197]},"properties":{"d":"2026-10-04","t":"0323","frp":21.2,"b":367.0,"c":2,"s":"N21","n":0}},{"type":"Feature","geometry":{"type":"Point","coordinates":[142.3551,-12.9196]},"properties":{"d":"2026-10-04","t":"0323","frp":15.5,"b":367.0,"c":2,"s":"N21","n":0}},{"type":"Feature","geometry":{"type":"Point","coordinates":[142.3565,-12.9193]},"properties":{"d":"2026-10-04","t":"0323","frp":15.4,"b":367.0,"c":2,"s":"N21","n":0}},{"type":"Feature","geometry":{"type":"Point","coordinates":[142.347,-12.9149]},"properties":{"d":"2026-10-04","t":"0323","frp":15.3,"b":332.1,"c":1,"s":"N21","n":0}},{"type":"Feature","geometry":{"type":"Point","coordinates":[142.3484,-12.9146]},"properties":{"d":"2026-10-04","t":"0323","frp":5.3,"b":330.1,"c":1,"s":"N21","n":0}},{"type":"Feature","geometry":{"type":"Point","coordinates":[142.3522,-12.9142]},"properties":{"d":"2026-10-04","t":"0323","frp":5.3,"b":330.1,"c":1,"s":"N21","n":0}},{"type":"Feature","geometry":{"type":"Point","coordinates":[142.3545,-12.914]},"properties":{"d":"2026-10-04","t":"0323","frp":15.5,"b":347.0,"c":1,"s":"N21","n":0}},{"type":"Feature","geometry":{"type":"Point","coordinates":[142.3559,-12.9138]},"properties":{"d":"2026-10-04","t":"0323","frp":14.5,"b":367.0,"c":2,"s":"N21","n":0}},{"type":"Feature","geometry":{"type":"Point","coordinates":[142.3582,-12.9136]},"properties":{"d":"2026-10-04","t":"0323","frp":15.5,"b":367.0,"c":2,"s":"N21","n":0}},{"type":"Feature","geometry":{"type":"Point","coordinates":[142.3596,-12.9134]},"properties":{"d":"2026-10-04","t":"0323","frp":14.5,"b":367.0,"c":2,"s":"N21","n":0}},{"type":"Feature","geometry":{"type":"Point","coordinates":[142.3619,-12.9131]},"properties":{"d":"2026-10-04","t":"0323","frp":11.1,"b":346.7,"c":1,"s":"N21","n":0}},{"type":"Feature","geometry":{"type":"Point","coordinates":[142.3589,-12.9078]},"properties":{"d":"2026-10-04","t":"0323","frp":14.5,"b":341.5,"c":1,"s":"N21","n":0}},{"type":"Feature","geometry":{"type":"Point","coordinates":[142.3612,-12.9076]},"properties":{"d":"2026-10-04","t":"0323","frp":10.9,"b":367.0,"c":2,"s":"N21","n":0}},{"type":"Feature","geometry":{"type":"Point","coordinates":[142.3626,-12.9074]},"properties":{"d":"2026-10-04","t":"0323","frp":28.7,"b":367.0,"c":2,"s":"N21","n":0}},{"type":"Feature","geometry":{"type":"Point","coordinates":[142.3649,-12.9072]},"properties":{"d":"2026-10-04","t":"0323","frp":10.9,"b":335.0,"c":1,"s":"N21","n":0}},{"type":"Feature","geometry":{"type":"Point","coordinates":[142.3605,-12.9021]},"properties":{"d":"2026-10-04","t":"0323","frp":10.9,"b":337.6,"c":1,"s":"N21","n":0}},{"type":"Feature","geometry":{"type":"Point","coordinates":[142.3642,-12.9016]},"properties":{"d":"2026-10-04","t":"0323","frp":10.9,"b":367.0,"c":2,"s":"N21","n":0}},{"type":"Feature","geometry":{"type":"Point","coordinates":[142.3636,-12.8961]},"properties":{"d":"2026-10-04","t":"0323","frp":3.4,"b":332.8,"c":1,"s":"N21","n":0}},{"type":"Feature","geometry":{"type":"Point","coordinates":[142.3629,-12.8906]},"properties":{"d":"2026-10-04","t":"0323","frp":3.4,"b":332.6,"c":1,"s":"N21","n":0}},{"type":"Feature","geometry":{"type":"Point","coordinates":[142.3666,-12.8901]},"properties":{"d":"2026-10-04","t":"0323","frp":5.0,"b":336.9,"c":1,"s":"N21","n":0}},{"type":"Feature","geometry":{"type":"Point","coordinates":[142.366,-12.8846]},"properties":{"d":"2026-10-04","t":"0323","frp":10.9,"b":367.0,"c":2,"s":"N21","n":0}},{"type":"Feature","geometry":{"type":"Point","coordinates":[142.3654,-12.8791]},"properties":{"d":"2026-10-04","t":"0323","frp":10.9,"b":340.6,"c":1,"s":"N21","n":0}},{"type":"Feature","geometry":{"type":"Point","coordinates":[143.3581,-12.7534]},"properties":{"d":"2026-10-04","t":"0323","frp":7.0,"b":331.6,"c":1,"s":"N21","n":0}},{"type":"Feature","geometry":{"type":"Point","coordinates":[143.3612,-12.753]},"properties":{"d":"2026-10-04","t":"0323","frp":3.2,"b":337.6,"c":1,"s":"N21","n":0}},{"type":"Feature","geometry":{"type":"Point","coordinates":[143.3606,-12.7478]},"properties":{"d":"2026-10-04","t":"0323","frp":3.2,"b":331.9,"c":1,"s":"N21","n":0}},{"type":"Feature","geometry":{"type":"Point","coordinates":[143.3637,-12.7475]},"properties":{"d":"2026-10-04","t":"0323","frp":3.2,"b":332.6,"c":1,"s":"N21","n":0}},{"type":"Feature","geometry":{"type":"Point","coordinates":[143.3625,-12.7371]},"properties":{"d":"2026-10-04","t":"0323","frp":9.8,"b":342.1,"c":1,"s":"N21","n":0}},{"type":"Feature","geometry":{"type":"Point","coordinates":[141.8674,-12.5554]},"properties":{"d":"2026-10-04","t":"0323","frp":8.3,"b":349.1,"c":1,"s":"N21","n":0}},{"type":"Feature","geometry":{"type":"Point","coordinates":[141.8669,-12.5528]},"properties":{"d":"2026-10-04","t":"0323","frp":7.5,"b":348.4,"c":1,"s":"N21","n":0}},{"type":"Feature","geometry":{"type":"Point","coordinates":[142.3131,-12.4198]},"properties":{"d":"2026-10-04","t":"0323","frp":5.0,"b":332.5,"c":1,"s":"N21","n":0}},{"type":"Feature","geometry":{"type":"Point","coordinates":[142.3161,-12.4139]},"properties":{"d":"2026-10-04","t":"0323","frp":10.5,"b":344.5,"c":1,"s":"N21","n":0}},{"type":"Feature","geometry":{"type":"Point","coordinates":[142.3149,-12.4028]},"properties":{"d":"2026-10-04","t":"0323","frp":11.2,"b":352.0,"c":1,"s":"N21","n":0}},{"type":"Feature","geometry":{"type":"Point","coordinates":[142.3149,-12.4022]},"properties":{"d":"2026-10-04","t":"0325","frp":5.3,"b":352.6,"c":1,"s":"N21","n":0}},{"type":"Feature","geometry":{"type":"Point","coordinates":[142.3032,-12.3986]},"properties":{"d":"2026-10-04","t":"0325","frp":3.7,"b":334.3,"c":1,"s":"N21","n":0}},{"type":"Feature","geometry":{"type":"Point","coordinates":[142.3033,-12.398]},"properties":{"d":"2026-10-04","t":"0325","frp":1.6,"b":335.4,"c":1,"s":"N21","n":0}},{"type":"Feature","geometry":{"type":"Point","coordinates":[142.3142,-12.3973]},"properties":{"d":"2026-10-04","t":"0325","frp":6.5,"b":335.4,"c":1,"s":"N21","n":0}},{"type":"Feature","geometry":{"type":"Point","coordinates":[142.3143,-12.3967]},"properties":{"d":"2026-10-04","t":"0325","frp":5.3,"b":334.7,"c":1,"s":"N21","n":0}},{"type":"Feature","geometry":{"type":"Point","coordinates":[142.3026,-12.3931]},"properties":{"d":"2026-10-04","t":"0325","frp":3.7,"b":335.4,"c":1,"s":"N21","n":0}},{"type":"Feature","geometry":{"type":"Point","coordinates":[142.3027,-12.3925]},"properties":{"d":"2026-10-04","t":"0325","frp":17.4,"b":336.4,"c":1,"s":"N21","n":0}},{"type":"Feature","geometry":{"type":"Point","coordinates":[142.3099,-12.3923]},"properties":{"d":"2026-10-04","t":"0325","frp":13.1,"b":333.2,"c":1,"s":"N21","n":0}},{"type":"Feature","geometry":{"type":"Point","coordinates":[142.3136,-12.3918]},"properties":{"d":"2026-10-04","t":"0325","frp":6.5,"b":367.0,"c":2,"s":"N21","n":0}},{"type":"Feature","geometry":{"type":"Point","coordinates":[142.31,-12.3916]},"properties":{"d":"2026-10-04","t":"0325","frp":10.0,"b":348.9,"c":1,"s":"N21","n":0}},{"type":"Feature","geometry":{"type":"Point","coordinates":[142.3137,-12.3912]},"properties":{"d":"2026-10-04","t":"0325","frp":12.0,"b":367.0,"c":2,"s":"N21","n":0}},{"type":"Feature","geometry":{"type":"Point","coordinates":[142.2946,-12.3884]},"properties":{"d":"2026-10-04","t":"0325","frp":18.2,"b":339.3,"c":1,"s":"N21","n":0}},{"type":"Feature","geometry":{"type":"Point","coordinates":[142.2983,-12.388]},"properties":{"d":"2026-10-04","t":"0325","frp":15.0,"b":367.0,"c":2,"s":"N21","n":0}},{"type":"Feature","geometry":{"type":"Point","coordinates":[142.2947,-12.3879]},"properties":{"d":"2026-10-04","t":"0325","frp":17.6,"b":348.3,"c":1,"s":"N21","n":0}},{"type":"Feature","geometry":{"type":"Point","coordinates":[142.302,-12.3876]},"properties":{"d":"2026-10-04","t":"0325","frp":15.0,"b":367.0,"c":2,"s":"N21","n":0}},{"type":"Feature","geometry":{"type":"Point","coordinates":[142.2985,-12.3875]},"properties":{"d":"2026-10-04","t":"0325","frp":17.4,"b":367.0,"c":2,"s":"N21","n":0}},{"type":"Feature","geometry":{"type":"Point","coordinates":[142.3056,-12.3872]},"properties":{"d":"2026-10-04","t":"0325","frp":10.5,"b":367.0,"c":2,"s":"N21","n":0}},{"type":"Feature","geometry":{"type":"Point","coordinates":[142.3021,-12.387]},"properties":{"d":"2026-10-04","t":"0325","frp":17.4,"b":367.0,"c":2,"s":"N21","n":0}},{"type":"Feature","geometry":{"type":"Point","coordinates":[142.3093,-12.3867]},"properties":{"d":"2026-10-04","t":"0325","frp":10.5,"b":349.3,"c":1,"s":"N21","n":0}},{"type":"Feature","geometry":{"type":"Point","coordinates":[142.3058,-12.3866]},"properties":{"d":"2026-10-04","t":"0325","frp":10.0,"b":367.0,"c":2,"s":"N21","n":0}},{"type":"Feature","geometry":{"type":"Point","coordinates":[142.3094,-12.3861]},"properties":{"d":"2026-10-04","t":"0325","frp":10.0,"b":334.6,"c":1,"s":"N21","n":0}},{"type":"Feature","geometry":{"type":"Point","coordinates":[142.2977,-12.3825]},"properties":{"d":"2026-10-04","t":"0325","frp":15.0,"b":367.0,"c":2,"s":"N21","n":0}},{"type":"Feature","geometry":{"type":"Point","coordinates":[141.8075,-12.0937]},"properties":{"d":"2026-10-04","t":"0325","frp":5.0,"b":335.1,"c":1,"s":"N21","n":0}},{"type":"Feature","geometry":{"type":"Point","coordinates":[142.0749,-12.0557]},"properties":{"d":"2026-10-04","t":"0325","frp":6.5,"b":341.1,"c":1,"s":"N21","n":0}},{"type":"Feature","geometry":{"type":"Point","coordinates":[142.4858,-12.0167]},"properties":{"d":"2026-10-04","t":"0325","frp":3.0,"b":335.1,"c":1,"s":"N21","n":0}},{"type":"Feature","geometry":{"type":"Point","coordinates":[142.4852,-12.0112]},"properties":{"d":"2026-10-04","t":"0325","frp":3.0,"b":331.9,"c":1,"s":"N21","n":0}},{"type":"Feature","geometry":{"type":"Point","coordinates":[142.6353,-11.971]},"properties":{"d":"2026-10-04","t":"0325","frp":2.6,"b":331.4,"c":1,"s":"N21","n":0}},{"type":"Feature","geometry":{"type":"Point","coordinates":[142.6388,-11.9706]},"properties":{"d":"2026-10-04","t":"0325","frp":2.6,"b":335.5,"c":1,"s":"N21","n":0}},{"type":"Feature","geometry":{"type":"Point","coordinates":[142.6416,-11.9648]},"properties":{"d":"2026-10-04","t":"0325","frp":5.1,"b":346.1,"c":1,"s":"N21","n":0}},{"type":"Feature","geometry":{"type":"Point","coordinates":[141.9451,-11.942]},"properties":{"d":"2026-10-04","t":"0325","frp":6.0,"b":334.8,"c":1,"s":"N21","n":0}},{"type":"Feature","geometry":{"type":"Point","coordinates":[141.9482,-11.9359]},"properties":{"d":"2026-10-04","t":"0325","frp":6.8,"b":335.1,"c":1,"s":"N21","n":0}},{"type":"Feature","geometry":{"type":"Point","coordinates":[142.2156,-11.045]},"properties":{"d":"2026-10-04","t":"0325","frp":27.3,"b":329.8,"c":1,"s":"N21","n":0}},{"type":"Feature","geometry":{"type":"Point","coordinates":[142.2192,-11.0446]},"properties":{"d":"2026-10-04","t":"0325","frp":3.4,"b":334.6,"c":1,"s":"N21","n":0}},{"type":"Feature","geometry":{"type":"Point","coordinates":[142.2044,-11.0409]},"properties":{"d":"2026-10-04","t":"0325","frp":71.0,"b":344.5,"c":1,"s":"N21","n":0}},{"type":"Feature","geometry":{"type":"Point","coordinates":[142.2079,-11.0405]},"properties":{"d":"2026-10-04","t":"0325","frp":71.0,"b":355.3,"c":1,"s":"N21","n":0}},{"type":"Feature","geometry":{"type":"Point","coordinates":[142.2115,-11.04]},"properties":{"d":"2026-10-04","t":"0325","frp":27.3,"b":367.0,"c":2,"s":"N21","n":0}},{"type":"Feature","geometry":{"type":"Point","coordinates":[142.2326,-11.0374]},"properties":{"d":"2026-10-04","t":"0325","frp":8.5,"b":367.0,"c":2,"s":"N21","n":0}},{"type":"Feature","geometry":{"type":"Point","coordinates":[142.2361,-11.037]},"properties":{"d":"2026-10-04","t":"0325","frp":8.5,"b":351.0,"c":1,"s":"N21","n":0}},{"type":"Feature","geometry":{"type":"Point","coordinates":[142.2397,-11.0366]},"properties":{"d":"2026-10-04","t":"0325","frp":6.0,"b":341.5,"c":1,"s":"N21","n":0}},{"type":"Feature","geometry":{"type":"Point","coordinates":[142.232,-11.032]},"properties":{"d":"2026-10-04","t":"0325","frp":4.8,"b":367.0,"c":2,"s":"N21","n":0}},{"type":"Feature","geometry":{"type":"Point","coordinates":[142.2355,-11.0316]},"properties":{"d":"2026-10-04","t":"0325","frp":4.8,"b":330.1,"c":1,"s":"N21","n":0}},{"type":"Feature","geometry":{"type":"Point","coordinates":[142.1036,-10.9967]},"properties":{"d":"2026-10-04","t":"0325","frp":11.1,"b":345.0,"c":1,"s":"N21","n":0}},{"type":"Feature","geometry":{"type":"Point","coordinates":[142.1029,-10.9912]},"properties":{"d":"2026-10-04","t":"0325","frp":11.1,"b":346.6,"c":1,"s":"N21","n":0}},{"type":"Feature","geometry":{"type":"Point","coordinates":[142.1065,-10.9908]},"properties":{"d":"2026-10-04","t":"0325","frp":11.1,"b":367.0,"c":2,"s":"N21","n":0}},{"type":"Feature","geometry":{"type":"Point","coordinates":[149.3006,-10.2496]},"properties":{"d":"2026-10-04","t":"0325","frp":4.6,"b":339.7,"c":0,"s":"N21","n":0}},{"type":"Feature","geometry":{"type":"Point","coordinates":[150.5342,-10.2189]},"properties":{"d":"2026-10-04","t":"0325","frp":2.0,"b":330.9,"c":1,"s":"N21","n":0}},{"type":"Feature","geometry":{"type":"Point","coordinates":[149.9914,-10.1801]},"properties":{"d":"2026-10-04","t":"0325","frp":4.2,"b":331.1,"c":1,"s":"N21","n":0}},{"type":"Feature","geometry":{"type":"Point","coordinates":[149.9217,-10.1647]},"properties":{"d":"2026-10-04","t":"0325","frp":3.3,"b":330.3,"c":1,"s":"N21","n":0}},{"type":"Feature","geometry":{"type":"Point","coordinates":[142.1359,-10.1545]},"properties":{"d":"2026-10-04","t":"0325","frp":6.5,"b":330.3,"c":1,"s":"N21","n":0}},{"type":"Feature","geometry":{"type":"Point","coordinates":[148.0626,-10.1082]},"properties":{"d":"2026-10-04","t":"0325","frp":6.3,"b":332.4,"c":0,"s":"N21","n":0}},{"type":"Feature","geometry":{"type":"Point","coordinates":[148.1412,-10.1042]},"properties":{"d":"2026-10-04","t":"0325","frp":9.1,"b":339.5,"c":1,"s":"N21","n":0}},{"type":"Feature","geometry":{"type":"Point","coordinates":[149.8168,-10.0889]},"properties":{"d":"2026-10-04","t":"0325","frp":9.5,"b":330.4,"c":0,"s":"N21","n":0}},{"type":"Feature","geometry":{"type":"Point","coordinates":[142.1199,-10.0796]},"properties":{"d":"2026-10-04","t":"0325","frp":5.5,"b":328.6,"c":1,"s":"N21","n":0}},{"type":"Feature","geometry":{"type":"Point","coordinates":[149.5822,-10.0083]},"properties":{"d":"2026-10-04","t":"0325","frp":6.7,"b":338.3,"c":1,"s":"N21","n":0}},{"type":"Feature","geometry":{"type":"Point","coordinates":[149.5857,-10.0077]},"properties":{"d":"2026-10-04","t":"0325","frp":6.3,"b":331.6,"c":1,"s":"N21","n":0}},{"type":"Feature","geometry":{"type":"Point","coordinates":[150.9102,-9.9929]},"properties":{"d":"2026-10-04","t":"0325","frp":4.0,"b":332.7,"c":1,"s":"N21","n":0}},{"type":"Feature","geometry":{"type":"Point","coordinates":[148.0341,-9.989]},"properties":{"d":"2026-10-04","t":"0325","frp":5.2,"b":335.0,"c":1,"s":"N21","n":0}},{"type":"Feature","geometry":{"type":"Point","coordinates":[148.45,-9.9788]},"properties":{"d":"2026-10-04","t":"0325","frp":8.5,"b":333.2,"c":0,"s":"N21","n":0}},{"type":"Feature","geometry":{"type":"Point","coordinates":[148.4399,-9.9597]},"properties":{"d":"2026-10-04","t":"0325","frp":10.9,"b":335.5,"c":1,"s":"N21","n":0}},{"type":"Feature","geometry":{"type":"Point","coordinates":[149.7861,-9.9468]},"properties":{"d":"2026-10-04","t":"0325","frp":4.7,"b":335.9,"c":1,"s":"N21","n":0}},{"type":"Feature","geometry":{"type":"Point","coordinates":[148.1976,-9.9396]},"properties":{"d":"2026-10-04","t":"0325","frp":6.1,"b":334.6,"c":1,"s":"N21","n":0}},{"type":"Feature","geometry":{"type":"Point","coordinates":[149.5302,-9.9392]},"properties":{"d":"2026-10-04","t":"0325","frp":3.1,"b":331.5,"c":1,"s":"N21","n":0}},{"type":"Feature","geometry":{"type":"Point","coordinates":[148.1753,-9.9353]},"properties":{"d":"2026-10-04","t":"0325","frp":3.4,"b":331.7,"c":1,"s":"N21","n":0}},{"type":"Feature","geometry":{"type":"Point","coordinates":[147.8186,-9.8813]},"properties":{"d":"2026-10-04","t":"0325","frp":2.9,"b":332.1,"c":0,"s":"N21","n":0}},{"type":"Feature","geometry":{"type":"Point","coordinates":[149.3996,-9.8671]},"properties":{"d":"2026-10-04","t":"0325","frp":8.2,"b":332.4,"c":0,"s":"N21","n":0}},{"type":"Feature","geometry":{"type":"Point","coordinates":[149.6202,-9.8661]},"properties":{"d":"2026-10-04","t":"0325","frp":3.3,"b":330.4,"c":1,"s":"N21","n":0}},{"type":"Feature","geometry":{"type":"Point","coordinates":[147.7706,-9.8617]},"properties":{"d":"2026-10-04","t":"0325","frp":5.3,"b":335.5,"c":1,"s":"N21","n":0}},{"type":"Feature","geometry":{"type":"Point","coordinates":[147.7884,-9.8592]},"properties":{"d":"2026-10-04","t":"0325","frp":7.7,"b":336.7,"c":0,"s":"N21","n":0}},{"type":"Feature","geometry":{"type":"Point","coordinates":[148.0641,-9.8501]},"properties":{"d":"2026-10-04","t":"0325","frp":8.3,"b":331.0,"c":1,"s":"N21","n":0}},{"type":"Feature","geometry":{"type":"Point","coordinates":[149.5975,-9.8451]},"properties":{"d":"2026-10-04","t":"0325","frp":10.2,"b":331.7,"c":0,"s":"N21","n":0}},{"type":"Feature","geometry":{"type":"Point","coordinates":[149.3444,-9.8401]},"properties":{"d":"2026-10-04","t":"0325","frp":10.5,"b":333.3,"c":1,"s":"N21","n":0}},{"type":"Feature","geometry":{"type":"Point","coordinates":[149.5801,-9.8337]},"properties":{"d":"2026-10-04","t":"0325","frp":46.0,"b":339.7,"c":1,"s":"N21","n":0}},{"type":"Feature","geometry":{"type":"Point","coordinates":[149.3654,-9.8335]},"properties":{"d":"2026-10-04","t":"0325","frp":3.3,"b":330.4,"c":0,"s":"N21","n":0}},{"type":"Feature","geometry":{"type":"Point","coordinates":[149.5608,-9.8331]},"properties":{"d":"2026-10-04","t":"0325","frp":9.6,"b":348.3,"c":1,"s":"N21","n":0}},{"type":"Feature","geometry":{"type":"Point","coordinates":[148.5948,-9.832]},"properties":{"d":"2026-10-04","t":"0325","frp":5.3,"b":333.2,"c":0,"s":"N21","n":0}},{"type":"Feature","geometry":{"type":"Point","coordinates":[148.5946,-9.8318]},"properties":{"d":"2026-10-04","t":"0325","frp":5.7,"b":335.9,"c":1,"s":"N21","n":0}},{"type":"Feature","geometry":{"type":"Point","coordinates":[148.5746,-9.8313]},"properties":{"d":"2026-10-04","t":"0325","frp":11.2,"b":346.9,"c":1,"s":"N21","n":0}},{"type":"Feature","geometry":{"type":"Point","coordinates":[148.5866,-9.8295]},"properties":{"d":"2026-10-04","t":"0325","frp":6.5,"b":332.3,"c":1,"s":"N21","n":0}},{"type":"Feature","geometry":{"type":"Point","coordinates":[149.5907,-9.8287]},"properties":{"d":"2026-10-04","t":"0325","frp":3.4,"b":332.1,"c":0,"s":"N21","n":0}},{"type":"Feature","geometry":{"type":"Point","coordinates":[147.7567,-9.8197]},"properties":{"d":"2026-10-04","t":"0325","frp":10.8,"b":347.1,"c":1,"s":"N21","n":0}},{"type":"Feature","geometry":{"type":"Point","coordinates":[148.5806,-9.8195]},"properties":{"d":"2026-10-04","t":"0325","frp":9.5,"b":338.8,"c":1,"s":"N21","n":0}},{"type":"Feature","geometry":{"type":"Point","coordinates":[149.3371,-9.8133]},"properties":{"d":"2026-10-04","t":"0325","frp":50.7,"b":352.9,"c":1,"s":"N21","n":0}},{"type":"Feature","geometry":{"type":"Point","coordinates":[149.3329,-9.8104]},"properties":{"d":"2026-10-04","t":"0325","frp":18.6,"b":331.1,"c":0,"s":"N21","n":0}},{"type":"Feature","geometry":{"type":"Point","coordinates":[149.3133,-9.8098]},"properties":{"d":"2026-10-04","t":"0325","frp":24.8,"b":347.3,"c":1,"s":"N21","n":0}},{"type":"Feature","geometry":{"type":"Point","coordinates":[149.3404,-9.8093]},"properties":{"d":"2026-10-04","t":"0325","frp":50.7,"b":345.7,"c":0,"s":"N21","n":0}},{"type":"Feature","geometry":{"type":"Point","coordinates":[149.3171,-9.8092]},"properties":{"d":"2026-10-04","t":"0325","frp":24.8,"b":345.3,"c":1,"s":"N21","n":0}},{"type":"Feature","geometry":{"type":"Point","coordinates":[149.3286,-9.8075]},"properties":{"d":"2026-10-04","t":"0325","frp":27.8,"b":334.6,"c":0,"s":"N21","n":0}},{"type":"Feature","geometry":{"type":"Point","coordinates":[149.3129,-9.8063]},"properties":{"d":"2026-10-04","t":"0325","frp":24.8,"b":344.5,"c":1,"s":"N21","n":0}},{"type":"Feature","geometry":{"type":"Point","coordinates":[149.3166,-9.8058]},"properties":{"d":"2026-10-04","t":"0325","frp":24.8,"b":342.6,"c":1,"s":"N21","n":0}},{"type":"Feature","geometry":{"type":"Point","coordinates":[149.4724,-9.8004]},"properties":{"d":"2026-10-04","t":"0325","frp":5.9,"b":339.9,"c":1,"s":"N21","n":0}},{"type":"Feature","geometry":{"type":"Point","coordinates":[149.2684,-9.7953]},"properties":{"d":"2026-10-04","t":"0325","frp":24.3,"b":335.4,"c":0,"s":"N21","n":0}},{"type":"Feature","geometry":{"type":"Point","coordinates":[147.826,-9.7871]},"properties":{"d":"2026-10-04","t":"0325","frp":5.3,"b":337.6,"c":1,"s":"N21","n":0}},{"type":"Feature","geometry":{"type":"Point","coordinates":[149.2934,-9.7811]},"properties":{"d":"2026-10-04","t":"0325","frp":156.2,"b":341.6,"c":0,"s":"N21","n":0}},{"type":"Feature","geometry":{"type":"Point","coordinates":[149.2927,-9.7777]},"properties":{"d":"2026-10-04","t":"0325","frp":4.0,"b":332.1,"c":0,"s":"N21","n":0}},{"type":"Feature","geometry":{"type":"Point","coordinates":[149.5747,-9.7748]},"properties":{"d":"2026-10-04","t":"0325","frp":6.9,"b":335.1,"c":0,"s":"N21","n":0}},{"type":"Feature","geometry":{"type":"Point","coordinates":[149.6156,-9.7688]},"properties":{"d":"2026-10-04","t":"0325","frp":1.7,"b":332.7,"c":1,"s":"N21","n":0}},{"type":"Feature","geometry":{"type":"Point","coordinates":[149.8631,-9.7645]},"properties":{"d":"2026-10-04","t":"0325","frp":5.2,"b":341.9,"c":1,"s":"N21","n":0}},{"type":"Feature","geometry":{"type":"Point","coordinates":[148.5885,-9.764]},"properties":{"d":"2026-10-04","t":"0325","frp":6.5,"b":337.9,"c":0,"s":"N21","n":0}},{"type":"Feature","geometry":{"type":"Point","coordinates":[148.5841,-9.7611]},"properties":{"d":"2026-10-04","t":"0325","frp":8.1,"b":338.2,"c":1,"s":"N21","n":0}},{"type":"Feature","geometry":{"type":"Point","coordinates":[148.588,-9.7605]},"properties":{"d":"2026-10-04","t":"0325","frp":6.5,"b":344.5,"c":1,"s":"N21","n":0}},{"type":"Feature","geometry":{"type":"Point","coordinates":[148.592,-9.7599]},"properties":{"d":"2026-10-04","t":"0325","frp":6.5,"b":334.9,"c":0,"s":"N21","n":0}},{"type":"Feature","geometry":{"type":"Point","coordinates":[148.5915,-9.7564]},"properties":{"d":"2026-10-04","t":"0325","frp":8.0,"b":334.0,"c":1,"s":"N21","n":0}},{"type":"Feature","geometry":{"type":"Point","coordinates":[147.6555,-9.7468]},"properties":{"d":"2026-10-04","t":"0325","frp":2.7,"b":331.0,"c":0,"s":"N21","n":0}},{"type":"Feature","geometry":{"type":"Point","coordinates":[147.6569,-9.7446]},"properties":{"d":"2026-10-04","t":"0325","frp":3.0,"b":333.6,"c":0,"s":"N21","n":0}},{"type":"Feature","geometry":{"type":"Point","coordinates":[149.6377,-9.7376]},"properties":{"d":"2026-10-04","t":"0325","frp":4.0,"b":335.3,"c":1,"s":"N21","n":0}},{"type":"Feature","geometry":{"type":"Point","coordinates":[149.9522,-9.736]},"properties":{"d":"2026-10-04","t":"0325","frp":3.6,"b":335.5,"c":0,"s":"N21","n":0}},{"type":"Feature","geometry":{"type":"Point","coordinates":[149.8324,-9.7331]},"properties":{"d":"2026-10-04","t":"0325","frp":5.3,"b":336.8,"c":1,"s":"N21","n":0}},{"type":"Feature","geometry":{"type":"Point","coordinates":[147.9331,-9.7269]},"properties":{"d":"2026-10-04","t":"0325","frp":4.9,"b":332.0,"c":1,"s":"N21","n":0}},{"type":"Feature","geometry":{"type":"Point","coordinates":[148.7448,-9.7236]},"properties":{"d":"2026-10-04","t":"0325","frp":4.5,"b":329.7,"c":0,"s":"N21","n":0}},{"type":"Feature","geometry":{"type":"Point","coordinates":[147.4818,-9.7201]},"properties":{"d":"2026-10-04","t":"0325","frp":9.1,"b":336.3,"c":0,"s":"N21","n":0}},{"type":"Feature","geometry":{"type":"Point","coordinates":[147.9975,-9.7141]},"properties":{"d":"2026-10-04","t":"0325","frp":4.7,"b":333.1,"c":1,"s":"N21","n":0}},{"type":"Feature","geometry":{"type":"Point","coordinates":[147.7559,-9.7038]},"properties":{"d":"2026-10-04","t":"0325","frp":6.2,"b":332.7,"c":0,"s":"N21","n":0}},{"type":"Feature","geometry":{"type":"Point","coordinates":[147.741,-9.6946]},"properties":{"d":"2026-10-04","t":"0325","frp":3.7,"b":332.8,"c":1,"s":"N21","n":0}},{"type":"Feature","geometry":{"type":"Point","coordinates":[149.2899,-9.6871]},"properties":{"d":"2026-10-04","t":"0325","frp":3.9,"b":332.0,"c":1,"s":"N21","n":0}},{"type":"Feature","geometry":{"type":"Point","coordinates":[147.8223,-9.6867]},"properties":{"d":"2026-10-04","t":"0325","frp":7.7,"b":344.7,"c":1,"s":"N21","n":0}},{"type":"Feature","geometry":{"type":"Point","coordinates":[147.6719,-9.6855]},"properties":{"d":"2026-10-04","t":"0325","frp":9.9,"b":344.5,"c":1,"s":"N21","n":0}},{"type":"Feature","geometry":{"type":"Point","coordinates":[147.6801,-9.6806]},"properties":{"d":"2026-10-04","t":"0325","frp":4.3,"b":331.9,"c":1,"s":"N21","n":0}},{"type":"Feature","geometry":{"type":"Point","coordinates":[147.8169,-9.68]},"properties":{"d":"2026-10-04","t":"0325","frp":4.6,"b":332.7,"c":1,"s":"N21","n":0}},{"type":"Feature","geometry":{"type":"Point","coordinates":[147.7595,-9.6655]},"properties":{"d":"2026-10-04","t":"0325","frp":6.0,"b":336.8,"c":0,"s":"N21","n":0}},{"type":"Feature","geometry":{"type":"Point","coordinates":[149.2954,-9.6547]},"properties":{"d":"2026-10-04","t":"0325","frp":9.2,"b":336.9,"c":1,"s":"N21","n":0}},{"type":"Feature","geometry":{"type":"Point","coordinates":[147.7933,-9.6495]},"properties":{"d":"2026-10-04","t":"0325","frp":10.4,"b":337.2,"c":1,"s":"N21","n":0}},{"type":"Feature","geometry":{"type":"Point","coordinates":[149.2863,-9.6454]},"properties":{"d":"2026-10-04","t":"0325","frp":4.4,"b":335.3,"c":1,"s":"N21","n":0}},{"type":"Feature","geometry":{"type":"Point","coordinates":[147.9814,-9.6415]},"properties":{"d":"2026-10-04","t":"0325","frp":5.6,"b":332.6,"c":1,"s":"N21","n":0}},{"type":"Feature","geometry":{"type":"Point","coordinates":[149.3084,-9.6387]},"properties":{"d":"2026-10-04","t":"0325","frp":9.3,"b":346.7,"c":1,"s":"N21","n":0}},{"type":"Feature","geometry":{"type":"Point","coordinates":[147.9803,-9.6379]},"properties":{"d":"2026-10-04","t":"0325","frp":5.6,"b":340.1,"c":1,"s":"N21","n":0}},{"type":"Feature","geometry":{"type":"Point","coordinates":[149.2928,-9.6375]},"properties":{"d":"2026-10-04","t":"0325","frp":11.5,"b":351.6,"c":1,"s":"N21","n":0}},{"type":"Feature","geometry":{"type":"Point","coordinates":[149.2966,-9.6369]},"properties":{"d":"2026-10-04","t":"0325","frp":11.3,"b":337.8,"c":0,"s":"N21","n":0}},{"type":"Feature","geometry":{"type":"Point","coordinates":[149.3079,-9.6353]},"properties":{"d":"2026-10-04","t":"0325","frp":9.3,"b":341.9,"c":1,"s":"N21","n":0}},{"type":"Feature","geometry":{"type":"Point","coordinates":[149.392,-9.6301]},"properties":{"d":"2026-10-04","t":"0325","frp":5.8,"b":335.3,"c":1,"s":"N21","n":0}},{"type":"Feature","geometry":{"type":"Point","coordinates":[147.6884,-9.628]},"properties":{"d":"2026-10-04","t":"0325","frp":10.2,"b":367.0,"c":2,"s":"N21","n":0}},{"type":"Feature","geometry":{"type":"Point","coordinates":[147.6925,-9.6274]},"properties":{"d":"2026-10-04","t":"0325","frp":10.2,"b":331.1,"c":1,"s":"N21","n":0}},{"type":"Feature","geometry":{"type":"Point","coordinates":[149.3905,-9.6198]},"properties":{"d":"2026-10-04","t":"0325","frp":6.6,"b":332.7,"c":1,"s":"N21","n":0}},{"type":"Feature","geometry":{"type":"Point","coordinates":[148.5838,-9.613]},"properties":{"d":"2026-10-04","t":"0325","frp":4.6,"b":333.3,"c":0,"s":"N21","n":0}},{"type":"Feature","geometry":{"type":"Point","coordinates":[148.3029,-9.5955]},"properties":{"d":"2026-10-04","t":"0325","frp":18.3,"b":332.3,"c":0,"s":"N21","n":0}},{"type":"Feature","geometry":{"type":"Point","coordinates":[150.7579,-9.5945]},"properties":{"d":"2026-10-04","t":"0325","frp":2.6,"b":330.8,"c":1,"s":"N21","n":0}},{"type":"Feature","geometry":{"type":"Point","coordinates":[147.3754,-9.5803]},"properties":{"d":"2026-10-04","t":"0325","frp":9.5,"b":332.8,"c":0,"s":"N21","n":0}},{"type":"Feature","geometry":{"type":"Point","coordinates":[149.2421,-9.5575]},"properties":{"d":"2026-10-04","t":"0325","frp":6.4,"b":332.5,"c":0,"s":"N21","n":0}},{"type":"Feature","geometry":{"type":"Point","coordinates":[148.6646,-9.5434]},"properties":{"d":"2026-10-04","t":"0325","frp":6.2,"b":344.0,"c":1,"s":"N21","n":0}},{"type":"Feature","geometry":{"type":"Point","coordinates":[148.4557,-9.5299]},"properties":{"d":"2026-10-04","t":"0325","frp":8.8,"b":338.2,"c":0,"s":"N21","n":0}},{"type":"Feature","geometry":{"type":"Point","coordinates":[148.515,-9.5074]},"properties":{"d":"2026-10-04","t":"0325","frp":7.9,"b":337.8,"c":0,"s":"N21","n":0}},{"type":"Feature","geometry":{"type":"Point","coordinates":[148.3315,-9.5014]},"properties":{"d":"2026-10-04","t":"0325","frp":5.3,"b":342.1,"c":1,"s":"N21","n":0}},{"type":"Feature","geometry":{"type":"Point","coordinates":[148.3285,-9.4835]},"properties":{"d":"2026-10-04","t":"0325","frp":10.0,"b":344.6,"c":1,"s":"N21","n":0}},{"type":"Feature","geometry":{"type":"Point","coordinates":[148.8373,-9.4826]},"properties":{"d":"2026-10-04","t":"0325","frp":7.4,"b":339.2,"c":1,"s":"N21","n":0}},{"type":"Feature","geometry":{"type":"Point","coordinates":[148.8411,-9.4821]},"properties":{"d":"2026-10-04","t":"0325","frp":18.9,"b":338.4,"c":0,"s":"N21","n":0}},{"type":"Feature","geometry":{"type":"Point","coordinates":[147.2949,-9.4798]},"properties":{"d":"2026-10-04","t":"0325","frp":10.8,"b":336.4,"c":1,"s":"N21","n":0}},{"type":"Feature","geometry":{"type":"Point","coordinates":[147.2972,-9.4795]},"properties":{"d":"2026-10-04","t":"0325","frp":9.6,"b":343.1,"c":1,"s":"N21","n":0}},{"type":"Feature","geometry":{"type":"Point","coordinates":[148.3151,-9.4781]},"properties":{"d":"2026-10-04","t":"0325","frp":4.2,"b":330.4,"c":0,"s":"N21","n":0}},{"type":"Feature","geometry":{"type":"Point","coordinates":[148.3191,-9.4775]},"properties":{"d":"2026-10-04","t":"0325","frp":4.2,"b":337.1,"c":1,"s":"N21","n":0}},{"type":"Feature","geometry":{"type":"Point","coordinates":[148.4899,-9.4748]},"properties":{"d":"2026-10-04","t":"0325","frp":6.3,"b":334.8,"c":0,"s":"N21","n":0}},{"type":"Feature","geometry":{"type":"Point","coordinates":[148.8438,-9.4746]},"properties":{"d":"2026-10-04","t":"0325","frp":5.9,"b":332.9,"c":0,"s":"N21","n":0}},{"type":"Feature","geometry":{"type":"Point","coordinates":[148.3186,-9.474]},"properties":{"d":"2026-10-04","t":"0325","frp":4.2,"b":336.4,"c":1,"s":"N21","n":0}},{"type":"Feature","geometry":{"type":"Point","coordinates":[148.8398,-9.4739]},"properties":{"d":"2026-10-04","t":"0325","frp":5.2,"b":331.6,"c":0,"s":"N21","n":0}},{"type":"Feature","geometry":{"type":"Point","coordinates":[148.3227,-9.4734]},"properties":{"d":"2026-10-04","t":"0325","frp":9.0,"b":329.8,"c":0,"s":"N21","n":0}},{"type":"Feature","geometry":{"type":"Point","coordinates":[148.8437,-9.4734]},"properties":{"d":"2026-10-04","t":"0325","frp":5.2,"b":331.8,"c":0,"s":"N21","n":0}},{"type":"Feature","geometry":{"type":"Point","coordinates":[148.8393,-9.4716]},"properties":{"d":"2026-10-04","t":"0325","frp":5.9,"b":329.3,"c":0,"s":"N21","n":0}},{"type":"Feature","geometry":{"type":"Point","coordinates":[148.7725,-9.4552]},"properties":{"d":"2026-10-04","t":"0325","frp":5.9,"b":339.0,"c":0,"s":"N21","n":0}},{"type":"Feature","geometry":{"type":"Point","coordinates":[148.354,-9.4543]},"properties":{"d":"2026-10-04","t":"0325","frp":6.0,"b":337.0,"c":0,"s":"N21","n":0}},{"type":"Feature","geometry":{"type":"Point","coordinates":[148.772,-9.4517]},"properties":{"d":"2026-10-04","t":"0325","frp":5.9,"b":334.6,"c":0,"s":"N21","n":0}},{"type":"Feature","geometry":{"type":"Point","coordinates":[149.0229,-9.4489]},"properties":{"d":"2026-10-04","t":"0325","frp":6.2,"b":337.3,"c":0,"s":"N21","n":0}},{"type":"Feature","geometry":{"type":"Point","coordinates":[148.7581,-9.4394]},"properties":{"d":"2026-10-04","t":"0325","frp":8.2,"b":334.8,"c":0,"s":"N21","n":0}},{"type":"Feature","geometry":{"type":"Point","coordinates":[148.762,-9.4388]},"properties":{"d":"2026-10-04","t":"0325","frp":7.0,"b":331.2,"c":0,"s":"N21","n":0}},{"type":"Feature","geometry":{"type":"Point","coordinates":[148.348,-9.4379]},"properties":{"d":"2026-10-04","t":"0325","frp":30.3,"b":335.1,"c":0,"s":"N21","n":0}},{"type":"Feature","geometry":{"type":"Point","coordinates":[148.3475,-9.4369]},"properties":{"d":"2026-10-04","t":"0325","frp":16.1,"b":335.1,"c":0,"s":"N21","n":0}},{"type":"Feature","geometry":{"type":"Point","coordinates":[148.765,-9.4312]},"properties":{"d":"2026-10-04","t":"0325","frp":7.8,"b":332.5,"c":0,"s":"N21","n":0}},{"type":"Feature","geometry":{"type":"Point","coordinates":[149.1105,-9.4303]},"properties":{"d":"2026-10-04","t":"0325","frp":6.5,"b":340.9,"c":1,"s":"N21","n":0}},{"type":"Feature","geometry":{"type":"Point","coordinates":[148.2538,-9.4261]},"properties":{"d":"2026-10-04","t":"0325","frp":4.5,"b":330.4,"c":0,"s":"N21","n":0}},{"type":"Feature","geometry":{"type":"Point","coordinates":[148.3549,-9.426]},"properties":{"d":"2026-10-04","t":"0325","frp":50.8,"b":343.0,"c":1,"s":"N21","n":0}},{"type":"Feature","geometry":{"type":"Point","coordinates":[147.4226,-9.4153]},"properties":{"d":"2026-10-04","t":"0325","frp":8.5,"b":329.9,"c":0,"s":"N21","n":0}},{"type":"Feature","geometry":{"type":"Point","coordinates":[148.7906,-9.4132]},"properties":{"d":"2026-10-04","t":"0325","frp":14.4,"b":338.3,"c":0,"s":"N21","n":0}},{"type":"Feature","geometry":{"type":"Point","coordinates":[147.4454,-9.412]},"properties":{"d":"2026-10-04","t":"0325","frp":8.8,"b":329.9,"c":0,"s":"N21","n":0}},{"type":"Feature","geometry":{"type":"Point","coordinates":[148.762,-9.4102]},"properties":{"d":"2026-10-04","t":"0325","frp":19.5,"b":346.2,"c":0,"s":"N21","n":0}},{"type":"Feature","geometry":{"type":"Point","coordinates":[147.3784,-9.3985]},"properties":{"d":"2026-10-04","t":"0325","frp":4.3,"b":331.7,"c":0,"s":"N21","n":0}},{"type":"Feature","geometry":{"type":"Point","coordinates":[148.7757,-9.3939]},"properties":{"d":"2026-10-04","t":"0325","frp":5.4,"b":331.7,"c":0,"s":"N21","n":0}},{"type":"Feature","geometry":{"type":"Point","coordinates":[147.4708,-9.3931]},"properties":{"d":"2026-10-04","t":"0325","frp":8.4,"b":331.6,"c":0,"s":"N21","n":0}},{"type":"Feature","geometry":{"type":"Point","coordinates":[149.0635,-9.3771]},"properties":{"d":"2026-10-04","t":"0325","frp":5.5,"b":350.5,"c":0,"s":"N21","n":0}},{"type":"Feature","geometry":{"type":"Point","coordinates":[149.063,-9.3736]},"properties":{"d":"2026-10-04","t":"0325","frp":5.5,"b":333.9,"c":0,"s":"N21","n":0}},{"type":"Feature","geometry":{"type":"Point","coordinates":[149.1411,-9.3728]},"properties":{"d":"2026-10-04","t":"0325","frp":12.5,"b":342.7,"c":1,"s":"N21","n":0}},{"type":"Feature","geometry":{"type":"Point","coordinates":[149.0548,-9.3712]},"properties":{"d":"2026-10-04","t":"0325","frp":5.8,"b":334.7,"c":0,"s":"N21","n":0}},{"type":"Feature","geometry":{"type":"Point","coordinates":[149.0586,-9.3707]},"properties":{"d":"2026-10-04","t":"0325","frp":5.8,"b":331.5,"c":0,"s":"N21","n":0}},{"type":"Feature","geometry":{"type":"Point","coordinates":[149.0855,-9.3668]},"properties":{"d":"2026-10-04","t":"0325","frp":8.1,"b":335.7,"c":0,"s":"N21","n":0}},{"type":"Feature","geometry":{"type":"Point","coordinates":[149.0955,-9.3547]},"properties":{"d":"2026-10-04","t":"0325","frp":10.1,"b":338.7,"c":0,"s":"N21","n":0}},{"type":"Feature","geometry":{"type":"Point","coordinates":[147.2889,-9.3414]},"properties":{"d":"2026-10-04","t":"0325","frp":6.0,"b":334.0,"c":0,"s":"N21","n":0}},{"type":"Feature","geometry":{"type":"Point","coordinates":[149.1193,-9.3301]},"properties":{"d":"2026-10-04","t":"0325","frp":7.3,"b":334.2,"c":0,"s":"N21","n":0}},{"type":"Feature","geometry":{"type":"Point","coordinates":[149.1336,-9.3217]},"properties":{"d":"2026-10-04","t":"0325","frp":8.9,"b":341.6,"c":0,"s":"N21","n":0}},{"type":"Feature","geometry":{"type":"Point","coordinates":[149.1336,-9.321]},"properties":{"d":"2026-10-04","t":"0325","frp":7.8,"b":342.3,"c":1,"s":"N21","n":0}},{"type":"Feature","geometry":{"type":"Point","coordinates":[149.144,-9.3131]},"properties":{"d":"2026-10-04","t":"0325","frp":5.8,"b":335.5,"c":0,"s":"N21","n":0}},{"type":"Feature","geometry":{"type":"Point","coordinates":[149.1511,-9.3086]},"properties":{"d":"2026-10-04","t":"0325","frp":8.5,"b":337.3,"c":0,"s":"N21","n":0}},{"type":"Feature","geometry":{"type":"Point","coordinates":[149.1549,-9.308]},"properties":{"d":"2026-10-04","t":"0325","frp":7.2,"b":336.6,"c":0,"s":"N21","n":0}},{"type":"Feature","geometry":{"type":"Point","coordinates":[149.1625,-9.3069]},"properties":{"d":"2026-10-04","t":"0325","frp":7.7,"b":334.3,"c":0,"s":"N21","n":0}},{"type":"Feature","geometry":{"type":"Point","coordinates":[149.1738,-9.3052]},"properties":{"d":"2026-10-04","t":"0325","frp":10.3,"b":335.0,"c":0,"s":"N21","n":0}},{"type":"Feature","geometry":{"type":"Point","coordinates":[149.1544,-9.3045]},"properties":{"d":"2026-10-04","t":"0325","frp":9.1,"b":333.1,"c":0,"s":"N21","n":0}},{"type":"Feature","geometry":{"type":"Point","coordinates":[149.162,-9.3034]},"properties":{"d":"2026-10-04","t":"0325","frp":14.3,"b":350.9,"c":1,"s":"N21","n":0}},{"type":"Feature","geometry":{"type":"Point","coordinates":[149.1734,-9.3017]},"properties":{"d":"2026-10-04","t":"0325","frp":20.2,"b":346.3,"c":1,"s":"N21","n":0}},{"type":"Feature","geometry":{"type":"Point","coordinates":[149.1459,-9.2987]},"properties":{"d":"2026-10-04","t":"0325","frp":9.0,"b":346.6,"c":1,"s":"N21","n":0}},{"type":"Feature","geometry":{"type":"Point","coordinates":[149.1724,-9.2948]},"properties":{"d":"2026-10-04","t":"0325","frp":5.4,"b":339.6,"c":0,"s":"N21","n":0}},{"type":"Feature","geometry":{"type":"Point","coordinates":[149.1644,-9.2925]},"properties":{"d":"2026-10-04","t":"0325","frp":8.7,"b":341.1,"c":1,"s":"N21","n":0}},{"type":"Feature","geometry":{"type":"Point","coordinates":[149.1681,-9.2919]},"properties":{"d":"2026-10-04","t":"0325","frp":5.4,"b":336.7,"c":0,"s":"N21","n":0}},{"type":"Feature","geometry":{"type":"Point","coordinates":[149.1719,-9.2914]},"properties":{"d":"2026-10-04","t":"0325","frp":5.4,"b":335.3,"c":0,"s":"N21","n":0}},{"type":"Feature","geometry":{"type":"Point","coordinates":[149.1639,-9.289]},"properties":{"d":"2026-10-04","t":"0325","frp":14.2,"b":353.1,"c":1,"s":"N21","n":0}},{"type":"Feature","geometry":{"type":"Point","coordinates":[149.1634,-9.2856]},"properties":{"d":"2026-10-04","t":"0325","frp":14.2,"b":345.4,"c":0,"s":"N21","n":0}},{"type":"Feature","geometry":{"type":"Point","coordinates":[149.1549,-9.2798]},"properties":{"d":"2026-10-04","t":"0325","frp":10.2,"b":337.9,"c":0,"s":"N21","n":0}},{"type":"Feature","geometry":{"type":"Point","coordinates":[147.1457,-9.2654]},"properties":{"d":"2026-10-04","t":"0325","frp":17.6,"b":330.9,"c":1,"s":"N21","n":0}},{"type":"Feature","geometry":{"type":"Point","coordinates":[149.1939,-9.2565]},"properties":{"d":"2026-10-04","t":"0325","frp":7.1,"b":332.6,"c":0,"s":"N21","n":0}},{"type":"Feature","geometry":{"type":"Point","coordinates":[149.1858,-9.2541]},"properties":{"d":"2026-10-04","t":"0325","frp":4.6,"b":331.6,"c":1,"s":"N21","n":0}},{"type":"Feature","geometry":{"type":"Point","coordinates":[148.6083,-9.2407]},"properties":{"d":"2026-10-04","t":"0325","frp":113.7,"b":318.7,"c":0,"s":"N21","n":0}},{"type":"Feature","geometry":{"type":"Point","coordinates":[148.6123,-9.2401]},"properties":{"d":"2026-10-04","t":"0325","frp":22.1,"b":332.2,"c":1,"s":"N21","n":0}},{"type":"Feature","geometry":{"type":"Point","coordinates":[148.6078,-9.2371]},"properties":{"d":"2026-10-04","t":"0325","frp":113.7,"b":335.0,"c":0,"s":"N21","n":0}},{"type":"Feature","geometry":{"type":"Point","coordinates":[148.6118,-9.2366]},"properties":{"d":"2026-10-04","t":"0325","frp":22.1,"b":342.2,"c":0,"s":"N21","n":0}},{"type":"Feature","geometry":{"type":"Point","coordinates":[147.2954,-9.2361]},"properties":{"d":"2026-10-04","t":"0325","frp":5.5,"b":337.3,"c":1,"s":"N21","n":0}},{"type":"Feature","geometry":{"type":"Point","coordinates":[147.1656,-9.2353]},"properties":{"d":"2026-10-04","t":"0325","frp":3.8,"b":333.2,"c":1,"s":"N21","n":0}},{"type":"Feature","geometry":{"type":"Point","coordinates":[148.6073,-9.2336]},"properties":{"d":"2026-10-04","t":"0325","frp":23.8,"b":340.9,"c":0,"s":"N21","n":0}},{"type":"Feature","geometry":{"type":"Point","coordinates":[148.5268,-9.2127]},"properties":{"d":"2026-10-04","t":"0325","frp":6.2,"b":332.2,"c":0,"s":"N21","n":0}},{"type":"Feature","geometry":{"type":"Point","coordinates":[147.2829,-9.1877]},"properties":{"d":"2026-10-04","t":"0325","frp":15.4,"b":347.6,"c":1,"s":"N21","n":0}},{"type":"Feature","geometry":{"type":"Point","coordinates":[147.2825,-9.1839]},"properties":{"d":"2026-10-04","t":"0325","frp":7.6,"b":333.6,"c":0,"s":"N21","n":0}},{"type":"Feature","geometry":{"type":"Point","coordinates":[147.2773,-9.1808]},"properties":{"d":"2026-10-04","t":"0325","frp":7.6,"b":342.0,"c":1,"s":"N21","n":0}},{"type":"Feature","geometry":{"type":"Point","coordinates":[147.2764,-9.1732]},"properties":{"d":"2026-10-04","t":"0325","frp":6.3,"b":335.4,"c":0,"s":"N21","n":0}},{"type":"Feature","geometry":{"type":"Point","coordinates":[147.281,-9.1726]},"properties":{"d":"2026-10-04","t":"0325","frp":6.3,"b":333.8,"c":0,"s":"N21","n":0}},{"type":"Feature","geometry":{"type":"Point","coordinates":[142.3762,-9.1649]},"properties":{"d":"2026-10-04","t":"0325","frp":4.1,"b":337.8,"c":1,"s":"N21","n":0}},{"type":"Feature","geometry":{"type":"Point","coordinates":[141.8328,-9.1526]},"properties":{"d":"2026-10-04","t":"0325","frp":3.4,"b":338.5,"c":1,"s":"N21","n":0}},{"type":"Feature","geometry":{"type":"Point","coordinates":[148.9434,-9.1456]},"properties":{"d":"2026-10-04","t":"0325","frp":5.0,"b":336.6,"c":1,"s":"N21","n":0}},{"type":"Feature","geometry":{"type":"Point","coordinates":[148.9473,-9.145]},"properties":{"d":"2026-10-04","t":"0325","frp":5.0,"b":330.4,"c":0,"s":"N21","n":0}},{"type":"Feature","geometry":{"type":"Point","coordinates":[141.6543,-9.143]},"properties":{"d":"2026-10-04","t":"0325","frp":5.4,"b":339.2,"c":1,"s":"N21","n":0}},{"type":"Feature","geometry":{"type":"Point","coordinates":[149.2782,-9.1426]},"properties":{"d":"2026-10-04","t":"0325","frp":3.3,"b":331.1,"c":1,"s":"N21","n":0}},{"type":"Feature","geometry":{"type":"Point","coordinates":[147.173,-9.1375]},"properties":{"d":"2026-10-04","t":"0325","frp":3.7,"b":328.6,"c":0,"s":"N21","n":0}},{"type":"Feature","geometry":{"type":"Point","coordinates":[142.3329,-9.1333]},"properties":{"d":"2026-10-04","t":"0325","frp":4.4,"b":332.0,"c":1,"s":"N21","n":0}},{"type":"Feature","geometry":{"type":"Point","coordinates":[141.9675,-9.129]},"properties":{"d":"2026-10-04","t":"0325","frp":5.5,"b":347.2,"c":1,"s":"N21","n":0}},{"type":"Feature","geometry":{"type":"Point","coordinates":[141.9657,-9.1265]},"properties":{"d":"2026-10-04","t":"0325","frp":7.0,"b":339.2,"c":1,"s":"N21","n":0}},{"type":"Feature","geometry":{"type":"Point","coordinates":[141.9691,-9.126]},"properties":{"d":"2026-10-04","t":"0325","frp":6.4,"b":334.2,"c":1,"s":"N21","n":0}},{"type":"Feature","geometry":{"type":"Point","coordinates":[141.9668,-9.1236]},"properties":{"d":"2026-10-04","t":"0325","frp":2.1,"b":333.0,"c":1,"s":"N21","n":0}},{"type":"Feature","geometry":{"type":"Point","coordinates":[142.7055,-9.1207]},"properties":{"d":"2026-10-04","t":"0325","frp":5.7,"b":347.6,"c":1,"s":"N21","n":0}},{"type":"Feature","geometry":{"type":"Point","coordinates":[141.6293,-9.1182]},"properties":{"d":"2026-10-04","t":"0325","frp":9.1,"b":348.4,"c":1,"s":"N21","n":0}},{"type":"Feature","geometry":{"type":"Point","coordinates":[141.1866,-9.1177]},"properties":{"d":"2026-10-04","t":"0325","frp":10.7,"b":350.8,"c":1,"s":"N21","n":0}},{"type":"Feature","geometry":{"type":"Point","coordinates":[141.2524,-9.1175]},"properties":{"d":"2026-10-04","t":"0325","frp":32.3,"b":367.0,"c":2,"s":"N21","n":0}},{"type":"Feature","geometry":{"type":"Point","coordinates":[141.2562,-9.117]},"properties":{"d":"2026-10-04","t":"0325","frp":12.4,"b":336.1,"c":1,"s":"N21","n":0}},{"type":"Feature","geometry":{"type":"Point","coordinates":[141.2454,-9.1161]},"properties":{"d":"2026-10-04","t":"0325","frp":67.3,"b":334.4,"c":1,"s":"N21","n":0}},{"type":"Feature","geometry":{"type":"Point","coordinates":[141.2493,-9.1156]},"properties":{"d":"2026-10-04","t":"0325","frp":166.7,"b":331.1,"c":1,"s":"N21","n":0}},{"type":"Feature","geometry":{"type":"Point","coordinates":[141.2531,-9.1152]},"properties":{"d":"2026-10-04","t":"0325","frp":166.7,"b":367.0,"c":2,"s":"N21","n":0}},{"type":"Feature","geometry":{"type":"Point","coordinates":[141.1854,-9.1149]},"properties":{"d":"2026-10-04","t":"0325","frp":9.4,"b":341.7,"c":1,"s":"N21","n":0}},{"type":"Feature","geometry":{"type":"Point","coordinates":[141.2402,-9.1134]},"properties":{"d":"2026-10-04","t":"0325","frp":47.0,"b":334.6,"c":1,"s":"N21","n":0}},{"type":"Feature","geometry":{"type":"Point","coordinates":[141.244,-9.1129]},"properties":{"d":"2026-10-04","t":"0325","frp":47.0,"b":351.6,"c":1,"s":"N21","n":0}},{"type":"Feature","geometry":{"type":"Point","coordinates":[141.2479,-9.1124]},"properties":{"d":"2026-10-04","t":"0325","frp":164.1,"b":207.4,"c":0,"s":"N21","n":0}},{"type":"Feature","geometry":{"type":"Point","coordinates":[141.2517,-9.1119]},"properties":{"d":"2026-10-04","t":"0325","frp":164.1,"b":367.0,"c":2,"s":"N21","n":0}},{"type":"Feature","geometry":{"type":"Point","coordinates":[141.2409,-9.111]},"properties":{"d":"2026-10-04","t":"0325","frp":67.3,"b":338.5,"c":1,"s":"N21","n":0}},{"type":"Feature","geometry":{"type":"Point","coordinates":[141.2447,-9.1105]},"properties":{"d":"2026-10-04","t":"0325","frp":67.3,"b":207.4,"c":0,"s":"N21","n":0}},{"type":"Feature","geometry":{"type":"Point","coordinates":[148.5853,-9.1102]},"properties":{"d":"2026-10-04","t":"0325","frp":6.4,"b":332.3,"c":1,"s":"N21","n":0}},{"type":"Feature","geometry":{"type":"Point","coordinates":[141.1808,-9.1097]},"properties":{"d":"2026-10-04","t":"0325","frp":8.4,"b":337.1,"c":1,"s":"N21","n":0}},{"type":"Feature","geometry":{"type":"Point","coordinates":[141.2054,-9.1096]},"properties":{"d":"2026-10-04","t":"0325","frp":8.7,"b":335.4,"c":1,"s":"N21","n":0}},{"type":"Feature","geometry":{"type":"Point","coordinates":[141.2524,-9.1095]},"properties":{"d":"2026-10-04","t":"0325","frp":166.7,"b":367.0,"c":2,"s":"N21","n":0}},{"type":"Feature","geometry":{"type":"Point","coordinates":[141.1848,-9.1092]},"properties":{"d":"2026-10-04","t":"0325","frp":13.3,"b":349.9,"c":1,"s":"N21","n":0}},{"type":"Feature","geometry":{"type":"Point","coordinates":[147.1018,-9.1088]},"properties":{"d":"2026-10-04","t":"0325","frp":4.4,"b":330.6,"c":1,"s":"N21","n":0}},{"type":"Feature","geometry":{"type":"Point","coordinates":[141.2434,-9.1072]},"properties":{"d":"2026-10-04","t":"0325","frp":47.0,"b":331.6,"c":1,"s":"N21","n":0}},{"type":"Feature","geometry":{"type":"Point","coordinates":[141.1814,-9.1068]},"properties":{"d":"2026-10-04","t":"0325","frp":10.7,"b":350.5,"c":1,"s":"N21","n":0}},{"type":"Feature","geometry":{"type":"Point","coordinates":[141.2472,-9.1067]},"properties":{"d":"2026-10-04","t":"0325","frp":164.1,"b":338.8,"c":1,"s":"N21","n":0}},{"type":"Feature","geometry":{"type":"Point","coordinates":[141.2041,-9.1066]},"properties":{"d":"2026-10-04","t":"0325","frp":5.8,"b":333.5,"c":1,"s":"N21","n":0}},{"type":"Feature","geometry":{"type":"Point","coordinates":[141.3023,-9.1033]},"properties":{"d":"2026-10-04","t":"0325","frp":3.9,"b":332.4,"c":1,"s":"N21","n":0}},{"type":"Feature","geometry":{"type":"Point","coordinates":[147.1969,-9.1031]},"properties":{"d":"2026-10-04","t":"0325","frp":8.9,"b":338.0,"c":0,"s":"N21","n":0}},{"type":"Feature","geometry":{"type":"Point","coordinates":[141.1522,-9.1019]},"properties":{"d":"2026-10-04","t":"0325","frp":22.7,"b":367.0,"c":2,"s":"N21","n":0}},{"type":"Feature","geometry":{"type":"Point","coordinates":[141.1561,-9.1014]},"properties":{"d":"2026-10-04","t":"0325","frp":22.7,"b":350.5,"c":1,"s":"N21","n":0}},{"type":"Feature","geometry":{"type":"Point","coordinates":[141.16,-9.1009]},"properties":{"d":"2026-10-04","t":"0325","frp":22.1,"b":337.5,"c":1,"s":"N21","n":0}},{"type":"Feature","geometry":{"type":"Point","coordinates":[147.1101,-9.0998]},"properties":{"d":"2026-10-04","t":"0325","frp":4.1,"b":332.9,"c":1,"s":"N21","n":0}},{"type":"Feature","geometry":{"type":"Point","coordinates":[141.5517,-9.0889]},"properties":{"d":"2026-10-04","t":"0325","frp":4.5,"b":331.9,"c":1,"s":"N21","n":0}},{"type":"Feature","geometry":{"type":"Point","coordinates":[141.2291,-9.0861]},"properties":{"d":"2026-10-04","t":"0325","frp":7.5,"b":353.0,"c":1,"s":"N21","n":0}},{"type":"Feature","geometry":{"type":"Point","coordinates":[142.0299,-9.0715]},"properties":{"d":"2026-10-04","t":"0325","frp":3.3,"b":336.1,"c":1,"s":"N21","n":0}},{"type":"Feature","geometry":{"type":"Point","coordinates":[149.2711,-9.07]},"properties":{"d":"2026-10-04","t":"0325","frp":3.8,"b":333.4,"c":0,"s":"N21","n":0}},{"type":"Feature","geometry":{"type":"Point","coordinates":[141.3589,-9.0691]},"properties":{"d":"2026-10-04","t":"0325","frp":4.3,"b":339.1,"c":1,"s":"N21","n":0}},{"type":"Feature","geometry":{"type":"Point","coordinates":[147.1601,-9.0661]},"properties":{"d":"2026-10-04","t":"0325","frp":9.6,"b":334.0,"c":0,"s":"N21","n":0}},{"type":"Feature","geometry":{"type":"Point","coordinates":[147.1632,-9.0653]},"properties":{"d":"2026-10-04","t":"0325","frp":10.1,"b":343.0,"c":1,"s":"N21","n":0}},{"type":"Feature","geometry":{"type":"Point","coordinates":[141.6523,-9.0649]},"properties":{"d":"2026-10-04","t":"0325","frp":3.5,"b":330.6,"c":1,"s":"N21","n":0}},{"type":"Feature","geometry":{"type":"Point","coordinates":[141.6508,-9.0643]},"properties":{"d":"2026-10-04","t":"0325","frp":4.6,"b":331.8,"c":1,"s":"N21","n":0}},{"type":"Feature","geometry":{"type":"Point","coordinates":[141.9631,-9.0638]},"properties":{"d":"2026-10-04","t":"0325","frp":5.3,"b":333.2,"c":1,"s":"N21","n":0}},{"type":"Feature","geometry":{"type":"Point","coordinates":[141.9521,-9.0598]},"properties":{"d":"2026-10-04","t":"0325","frp":6.1,"b":341.3,"c":1,"s":"N21","n":0}},{"type":"Feature","geometry":{"type":"Point","coordinates":[147.2623,-9.0553]},"properties":{"d":"2026-10-04","t":"0325","frp":7.4,"b":340.3,"c":1,"s":"N21","n":0}},{"type":"Feature","geometry":{"type":"Point","coordinates":[147.2637,-9.0548]},"properties":{"d":"2026-10-04","t":"0325","frp":6.9,"b":339.9,"c":1,"s":"N21","n":0}},{"type":"Feature","geometry":{"type":"Point","coordinates":[141.3682,-9.0508]},"properties":{"d":"2026-10-04","t":"0325","frp":1.9,"b":330.5,"c":1,"s":"N21","n":0}},{"type":"Feature","geometry":{"type":"Point","coordinates":[142.5992,-9.0458]},"properties":{"d":"2026-10-04","t":"0325","frp":5.5,"b":337.7,"c":1,"s":"N21","n":0}},{"type":"Feature","geometry":{"type":"Point","coordinates":[142.6023,-9.0454]},"properties":{"d":"2026-10-04","t":"0325","frp":4.5,"b":335.2,"c":1,"s":"N21","n":0}},{"type":"Feature","geometry":{"type":"Point","coordinates":[142.5965,-9.044]},"properties":{"d":"2026-10-04","t":"0325","frp":10.8,"b":331.6,"c":1,"s":"N21","n":0}},{"type":"Feature","geometry":{"type":"Point","coordinates":[142.5996,-9.0436]},"properties":{"d":"2026-10-04","t":"0325","frp":24.0,"b":367.0,"c":2,"s":"N21","n":0}},{"type":"Feature","geometry":{"type":"Point","coordinates":[141.915,-9.0426]},"properties":{"d":"2026-10-04","t":"0325","frp":5.0,"b":332.7,"c":1,"s":"N21","n":0}},{"type":"Feature","geometry":{"type":"Point","coordinates":[141.9185,-9.0422]},"properties":{"d":"2026-10-04","t":"0325","frp":5.0,"b":330.4,"c":1,"s":"N21","n":0}},{"type":"Feature","geometry":{"type":"Point","coordinates":[142.5985,-9.0406]},"properties":{"d":"2026-10-04","t":"0325","frp":11.8,"b":367.0,"c":2,"s":"N21","n":0}},{"type":"Feature","geometry":{"type":"Point","coordinates":[142.6016,-9.0402]},"properties":{"d":"2026-10-04","t":"0325","frp":8.3,"b":337.8,"c":1,"s":"N21","n":0}},{"type":"Feature","geometry":{"type":"Point","coordinates":[152.7324,-9.0398]},"properties":{"d":"2026-10-04","t":"0325","frp":3.5,"b":332.1,"c":1,"s":"N21","n":0}},{"type":"Feature","geometry":{"type":"Point","coordinates":[141.9556,-9.032]},"properties":{"d":"2026-10-04","t":"0325","frp":5.5,"b":338.3,"c":1,"s":"N21","n":0}},{"type":"Feature","geometry":{"type":"Point","coordinates":[141.959,-9.0315]},"properties":{"d":"2026-10-04","t":"0325","frp":5.5,"b":340.6,"c":1,"s":"N21","n":0}},{"type":"Feature","geometry":{"type":"Point","coordinates":[141.9171,-9.0314]},"properties":{"d":"2026-10-04","t":"0325","frp":8.1,"b":330.6,"c":1,"s":"N21","n":0}},{"type":"Feature","geometry":{"type":"Point","coordinates":[141.7375,-9.0305]},"properties":{"d":"2026-10-04","t":"0325","frp":5.4,"b":332.0,"c":1,"s":"N21","n":0}},{"type":"Feature","geometry":{"type":"Point","coordinates":[141.9117,-9.0293]},"properties":{"d":"2026-10-04","t":"0325","frp":8.3,"b":337.4,"c":1,"s":"N21","n":0}},{"type":"Feature","geometry":{"type":"Point","coordinates":[141.9535,-9.0292]},"properties":{"d":"2026-10-04","t":"0325","frp":9.3,"b":331.4,"c":1,"s":"N21","n":0}},{"type":"Feature","geometry":{"type":"Point","coordinates":[141.9569,-9.0287]},"properties":{"d":"2026-10-04","t":"0325","frp":9.3,"b":350.2,"c":1,"s":"N21","n":0}},{"type":"Feature","geometry":{"type":"Point","coordinates":[141.9515,-9.027]},"properties":{"d":"2026-10-04","t":"0325","frp":16.6,"b":335.9,"c":1,"s":"N21","n":0}},{"type":"Feature","geometry":{"type":"Point","coordinates":[141.9549,-9.0266]},"properties":{"d":"2026-10-04","t":"0325","frp":14.0,"b":353.4,"c":1,"s":"N21","n":0}},{"type":"Feature","geometry":{"type":"Point","coordinates":[141.946,-9.0247]},"properties":{"d":"2026-10-04","t":"0325","frp":14.9,"b":330.1,"c":1,"s":"N21","n":0}},{"type":"Feature","geometry":{"type":"Point","coordinates":[141.9495,-9.0243]},"properties":{"d":"2026-10-04","t":"0325","frp":14.9,"b":367.0,"c":2,"s":"N21","n":0}},{"type":"Feature","geometry":{"type":"Point","coordinates":[141.9529,-9.0238]},"properties":{"d":"2026-10-04","t":"0325","frp":9.3,"b":367.0,"c":2,"s":"N21","n":0}},{"type":"Feature","geometry":{"type":"Point","coordinates":[141.9474,-9.022]},"properties":{"d":"2026-10-04","t":"0325","frp":16.6,"b":351.1,"c":1,"s":"N21","n":0}},{"type":"Feature","geometry":{"type":"Point","coordinates":[141.7185,-9.0219]},"properties":{"d":"2026-10-04","t":"0325","frp":5.6,"b":343.1,"c":1,"s":"N21","n":0}},{"type":"Feature","geometry":{"type":"Point","coordinates":[141.9508,-9.0216]},"properties":{"d":"2026-10-04","t":"0325","frp":16.6,"b":367.0,"c":2,"s":"N21","n":0}},{"type":"Feature","geometry":{"type":"Point","coordinates":[141.9488,-9.0189]},"properties":{"d":"2026-10-04","t":"0325","frp":14.7,"b":367.0,"c":2,"s":"N21","n":0}},{"type":"Feature","geometry":{"type":"Point","coordinates":[141.9398,-9.0175]},"properties":{"d":"2026-10-04","t":"0325","frp":4.1,"b":333.0,"c":1,"s":"N21","n":0}},{"type":"Feature","geometry":{"type":"Point","coordinates":[142.4465,-9.0166]},"properties":{"d":"2026-10-04","t":"0325","frp":5.1,"b":340.9,"c":1,"s":"N21","n":0}},{"type":"Feature","geometry":{"type":"Point","coordinates":[141.9412,-9.0144]},"properties":{"d":"2026-10-04","t":"0325","frp":9.0,"b":343.7,"c":1,"s":"N21","n":0}},{"type":"Feature","geometry":{"type":"Point","coordinates":[152.6207,-9.0126]},"properties":{"d":"2026-10-04","t":"0325","frp":2.5,"b":332.7,"c":1,"s":"N21","n":0}},{"type":"Feature","geometry":{"type":"Point","coordinates":[141.9392,-9.0121]},"properties":{"d":"2026-10-04","t":"0325","frp":4.1,"b":346.0,"c":1,"s":"N21","n":0}},{"type":"Feature","geometry":{"type":"Point","coordinates":[141.9371,-9.0095]},"properties":{"d":"2026-10-04","t":"0325","frp":8.3,"b":343.1,"c":1,"s":"N21","n":0}},{"type":"Feature","geometry":{"type":"Point","coordinates":[141.2248,-9.0088]},"properties":{"d":"2026-10-04","t":"0325","frp":10.1,"b":339.4,"c":1,"s":"N21","n":0}},{"type":"Feature","geometry":{"type":"Point","coordinates":[141.2325,-9.0078]},"properties":{"d":"2026-10-04","t":"0325","frp":13.7,"b":340.0,"c":1,"s":"N21","n":0}},{"type":"Feature","geometry":{"type":"Point","coordinates":[141.2234,-9.0064]},"properties":{"d":"2026-10-04","t":"0325","frp":7.4,"b":343.0,"c":1,"s":"N21","n":0}},{"type":"Feature","geometry":{"type":"Point","coordinates":[141.9262,-9.0054]},"properties":{"d":"2026-10-04","t":"0325","frp":3.6,"b":330.4,"c":1,"s":"N21","n":0}},{"type":"Feature","geometry":{"type":"Point","coordinates":[141.2311,-9.0054]},"properties":{"d":"2026-10-04","t":"0325","frp":23.9,"b":367.0,"c":2,"s":"N21","n":0}},{"type":"Feature","geometry":{"type":"Point","coordinates":[141.9331,-9.0045]},"properties":{"d":"2026-10-04","t":"0325","frp":11.0,"b":344.6,"c":1,"s":"N21","n":0}},{"type":"Feature","geometry":{"type":"Point","coordinates":[141.2318,-9.0021]},"properties":{"d":"2026-10-04","t":"0325","frp":13.7,"b":342.4,"c":1,"s":"N21","n":0}},{"type":"Feature","geometry":{"type":"Point","coordinates":[141.9221,-9.0005]},"properties":{"d":"2026-10-04","t":"0325","frp":16.7,"b":347.5,"c":1,"s":"N21","n":0}},{"type":"Feature","geometry":{"type":"Point","coordinates":[141.9255,-9.0]},"properties":{"d":"2026-10-04","t":"0325","frp":16.7,"b":367.0,"c":2,"s":"N21","n":0}}]}