{"type":"FeatureCollection","features":[{"type":"Feature","geometry":{"type":"Point","coordinates":[118.5686,-20.445]},"properties":{"d":"2026-10-03","t":"0054","frp":24.4,"b":322.1,"c":1,"s":"MODIS","n":0}},{"type":"Feature","geometry":{"type":"Point","coordinates":[118.57,-20.4331]},"properties":{"d":"2026-10-03","t":"0054","frp":15.2,"b":318.5,"c":1,"s":"MODIS","n":0}},{"type":"Feature","geometry":{"type":"Point","coordinates":[123.2231,-17.1693]},"properties":{"d":"2026-10-03","t":"0054","frp":65.9,"b":320.6,"c":1,"s":"MODIS","n":0}},{"type":"Feature","geometry":{"type":"Point","coordinates":[123.2307,-17.1619]},"properties":{"d":"2026-10-03","t":"0054","frp":66.6,"b":320.2,"c":1,"s":"MODIS","n":0}},{"type":"Feature","geometry":{"type":"Point","coordinates":[115.8131,-32.1016]},"properties":{"d":"2026-10-03","t":"0056","frp":5.9,"b":304.0,"c":0,"s":"MODIS","n":0}},{"type":"Feature","geometry":{"type":"Point","coordinates":[115.8068,-32.099]},"properties":{"d":"2026-10-03","t":"0056","frp":7.2,"b":304.4,"c":1,"s":"MODIS","n":0}},{"type":"Feature","geometry":{"type":"Point","coordinates":[115.9279,-32.0662]},"properties":{"d":"2026-10-03","t":"0056","frp":6.9,"b":305.0,"c":1,"s":"MODIS","n":0}},{"type":"Feature","geometry":{"type":"Point","coordinates":[115.9095,-32.0644]},"properties":{"d":"2026-10-03","t":"0056","frp":9.2,"b":306.5,"c":1,"s":"MODIS","n":0}},{"type":"Feature","geometry":{"type":"Point","coordinates":[115.9433,-31.9884]},"properties":{"d":"2026-10-03","t":"0056","frp":8.1,"b":306.6,"c":1,"s":"MODIS","n":0}},{"type":"Feature","geometry":{"type":"Point","coordinates":[115.8136,-31.9082]},"properties":{"d":"2026-10-03","t":"0056","frp":8.0,"b":304.9,"c":1,"s":"MODIS","n":0}},{"type":"Feature","geometry":{"type":"Point","coordinates":[115.8074,-31.9057]},"properties":{"d":"2026-10-03","t":"0056","frp":7.0,"b":304.4,"c":0,"s":"MODIS","n":0}},{"type":"Feature","geometry":{"type":"Point","coordinates":[115.9107,-31.8595]},"properties":{"d":"2026-10-03","t":"0056","frp":6.6,"b":304.4,"c":1,"s":"MODIS","n":0}},{"type":"Feature","geometry":{"type":"Point","coordinates":[115.8925,-31.8577]},"properties":{"d":"2026-10-03","t":"0056","frp":8.0,"b":305.5,"c":1,"s":"MODIS","n":0}},{"type":"Feature","geometry":{"type":"Point","coordinates":[115.8513,-31.7976]},"properties":{"d":"2026-10-03","t":"0056","frp":9.2,"b":305.9,"c":1,"s":"MODIS","n":0}},{"type":"Feature","geometry":{"type":"Point","coordinates":[115.8333,-31.7958]},"properties":{"d":"2026-10-03","t":"0056","frp":9.3,"b":306.0,"c":1,"s":"MODIS","n":0}}]}