{"type":"FeatureCollection","features":[{"type":"Feature","geometry":{"type":"Point","coordinates":[152.445,-32.1951]},"properties":{"d":"2026-10-01","t":"0234","frp":29.5,"b":367.0,"c":2,"s":"N21","n":0}},{"type":"Feature","geometry":{"type":"Point","coordinates":[152.4211,-32.1888]},"properties":{"d":"2026-10-01","t":"0234","frp":4.7,"b":330.7,"c":1,"s":"N21","n":0}},{"type":"Feature","geometry":{"type":"Point","coordinates":[152.7764,-31.3958]},"properties":{"d":"2026-10-01","t":"0234","frp":4.7,"b":327.9,"c":1,"s":"N21","n":0}},{"type":"Feature","geometry":{"type":"Point","coordinates":[152.7773,-31.3956]},"properties":{"d":"2026-10-01","t":"0234","frp":3.8,"b":329.4,"c":1,"s":"N21","n":0}},{"type":"Feature","geometry":{"type":"Point","coordinates":[152.5606,-29.1201]},"properties":{"d":"2026-10-01","t":"0236","frp":6.9,"b":327.4,"c":1,"s":"N21","n":0}},{"type":"Feature","geometry":{"type":"Point","coordinates":[152.5714,-29.1131]},"properties":{"d":"2026-10-01","t":"0236","frp":10.9,"b":331.4,"c":1,"s":"N21","n":0}},{"type":"Feature","geometry":{"type":"Point","coordinates":[152.5672,-29.1129]},"properties":{"d":"2026-10-01","t":"0236","frp":14.5,"b":326.5,"c":1,"s":"N21","n":0}},{"type":"Feature","geometry":{"type":"Point","coordinates":[152.2073,-27.7513]},"properties":{"d":"2026-10-01","t":"0236","frp":12.9,"b":337.1,"c":1,"s":"N21","n":0}},{"type":"Feature","geometry":{"type":"Point","coordinates":[152.2128,-27.751]},"properties":{"d":"2026-10-01","t":"0236","frp":18.1,"b":346.0,"c":1,"s":"N21","n":0}},{"type":"Feature","geometry":{"type":"Point","coordinates":[152.0902,-27.4385]},"properties":{"d":"2026-10-01","t":"0236","frp":23.3,"b":351.5,"c":1,"s":"N21","n":0}},{"type":"Feature","geometry":{"type":"Point","coordinates":[152.0982,-27.4381]},"properties":{"d":"2026-10-01","t":"0236","frp":23.3,"b":354.9,"c":1,"s":"N21","n":0}},{"type":"Feature","geometry":{"type":"Point","coordinates":[152.8514,-27.0275]},"properties":{"d":"2026-10-01","t":"0236","frp":10.9,"b":340.8,"c":1,"s":"N21","n":0}},{"type":"Feature","geometry":{"type":"Point","coordinates":[152.8482,-27.0248]},"properties":{"d":"2026-10-01","t":"0236","frp":7.8,"b":343.7,"c":1,"s":"N21","n":0}},{"type":"Feature","geometry":{"type":"Point","coordinates":[153.3059,-11.3993]},"properties":{"d":"2026-10-01","t":"0241","frp":2.5,"b":326.8,"c":1,"s":"N21","n":0}},{"type":"Feature","geometry":{"type":"Point","coordinates":[149.8268,-9.9815]},"properties":{"d":"2026-10-01","t":"0243","frp":6.7,"b":334.2,"c":1,"s":"N21","n":0}},{"type":"Feature","geometry":{"type":"Point","coordinates":[149.8227,-9.9782]},"properties":{"d":"2026-10-01","t":"0243","frp":9.5,"b":334.4,"c":1,"s":"N21","n":0}},{"type":"Feature","geometry":{"type":"Point","coordinates":[149.4389,-9.8207]},"properties":{"d":"2026-10-01","t":"0243","frp":11.9,"b":331.7,"c":1,"s":"N21","n":0}},{"type":"Feature","geometry":{"type":"Point","coordinates":[149.3101,-9.6127]},"properties":{"d":"2026-10-01","t":"0243","frp":9.2,"b":336.7,"c":1,"s":"N21","n":0}},{"type":"Feature","geometry":{"type":"Point","coordinates":[149.3094,-9.6118]},"properties":{"d":"2026-10-01","t":"0243","frp":10.7,"b":337.7,"c":1,"s":"N21","n":0}},{"type":"Feature","geometry":{"type":"Point","coordinates":[148.7721,-9.3875]},"properties":{"d":"2026-10-01","t":"0243","frp":6.8,"b":327.8,"c":1,"s":"N21","n":0}},{"type":"Feature","geometry":{"type":"Point","coordinates":[148.7758,-9.3584]},"properties":{"d":"2026-10-01","t":"0243","frp":29.6,"b":353.0,"c":1,"s":"N21","n":0}},{"type":"Feature","geometry":{"type":"Point","coordinates":[148.7729,-9.3541]},"properties":{"d":"2026-10-01","t":"0243","frp":25.7,"b":367.0,"c":2,"s":"N21","n":0}},{"type":"Feature","geometry":{"type":"Point","coordinates":[148.7918,-9.3374]},"properties":{"d":"2026-10-01","t":"0243","frp":19.2,"b":338.8,"c":1,"s":"N21","n":0}},{"type":"Feature","geometry":{"type":"Point","coordinates":[148.9476,-9.3328]},"properties":{"d":"2026-10-01","t":"0243","frp":5.5,"b":331.3,"c":1,"s":"N21","n":0}},{"type":"Feature","geometry":{"type":"Point","coordinates":[148.586,-9.1043]},"properties":{"d":"2026-10-01","t":"0243","frp":17.1,"b":334.0,"c":1,"s":"N21","n":0}},{"type":"Feature","geometry":{"type":"Point","coordinates":[148.5891,-9.101]},"properties":{"d":"2026-10-01","t":"0243","frp":16.4,"b":332.8,"c":1,"s":"N21","n":0}},{"type":"Feature","geometry":{"type":"Point","coordinates":[148.5923,-9.0963]},"properties":{"d":"2026-10-01","t":"0243","frp":20.8,"b":333.3,"c":1,"s":"N21","n":0}},{"type":"Feature","geometry":{"type":"Point","coordinates":[152.4426,-32.1989]},"properties":{"d":"2026-10-01","t":"0313","frp":7.3,"b":351.5,"c":1,"s":"SNPP","n":0}},{"type":"Feature","geometry":{"type":"Point","coordinates":[152.4421,-32.1938]},"properties":{"d":"2026-10-01","t":"0313","frp":7.3,"b":328.8,"c":1,"s":"SNPP","n":0}},{"type":"Feature","geometry":{"type":"Point","coordinates":[152.4347,-32.1892]},"properties":{"d":"2026-10-01","t":"0313","frp":36.1,"b":334.3,"c":1,"s":"SNPP","n":0}},{"type":"Feature","geometry":{"type":"Point","coordinates":[152.4416,-32.1887]},"properties":{"d":"2026-10-01","t":"0313","frp":36.1,"b":335.5,"c":1,"s":"SNPP","n":0}},{"type":"Feature","geometry":{"type":"Point","coordinates":[150.9439,-31.6297]},"properties":{"d":"2026-10-01","t":"0313","frp":2.6,"b":338.8,"c":1,"s":"SNPP","n":0}},{"type":"Feature","geometry":{"type":"Point","coordinates":[150.9478,-31.6291]},"properties":{"d":"2026-10-01","t":"0313","frp":3.9,"b":333.9,"c":1,"s":"SNPP","n":0}},{"type":"Feature","geometry":{"type":"Point","coordinates":[146.9896,-31.624]},"properties":{"d":"2026-10-01","t":"0313","frp":9.6,"b":330.2,"c":1,"s":"SNPP","n":0}},{"type":"Feature","geometry":{"type":"Point","coordinates":[152.7798,-31.3977]},"properties":{"d":"2026-10-01","t":"0313","frp":4.7,"b":339.7,"c":1,"s":"SNPP","n":0}},{"type":"Feature","geometry":{"type":"Point","coordinates":[152.7477,-31.3501]},"properties":{"d":"2026-10-01","t":"0313","frp":4.9,"b":338.2,"c":1,"s":"SNPP","n":0}},{"type":"Feature","geometry":{"type":"Point","coordinates":[146.7564,-31.125]},"properties":{"d":"2026-10-01","t":"0313","frp":14.0,"b":367.0,"c":2,"s":"SNPP","n":0}},{"type":"Feature","geometry":{"type":"Point","coordinates":[146.7576,-31.1235]},"properties":{"d":"2026-10-01","t":"0313","frp":10.4,"b":367.0,"c":2,"s":"SNPP","n":0}},{"type":"Feature","geometry":{"type":"Point","coordinates":[146.8055,-31.0952]},"properties":{"d":"2026-10-01","t":"0313","frp":9.2,"b":339.3,"c":1,"s":"SNPP","n":0}},{"type":"Feature","geometry":{"type":"Point","coordinates":[146.8066,-31.094]},"properties":{"d":"2026-10-01","t":"0313","frp":5.9,"b":333.6,"c":1,"s":"SNPP","n":0}},{"type":"Feature","geometry":{"type":"Point","coordinates":[151.8195,-30.9263]},"properties":{"d":"2026-10-01","t":"0313","frp":4.7,"b":334.4,"c":1,"s":"SNPP","n":0}},{"type":"Feature","geometry":{"type":"Point","coordinates":[146.7607,-30.5873]},"properties":{"d":"2026-10-01","t":"0313","frp":5.3,"b":333.1,"c":1,"s":"SNPP","n":0}},{"type":"Feature","geometry":{"type":"Point","coordinates":[146.7647,-30.587]},"properties":{"d":"2026-10-01","t":"0313","frp":4.5,"b":330.2,"c":0,"s":"SNPP","n":0}},{"type":"Feature","geometry":{"type":"Point","coordinates":[151.5247,-30.0595]},"properties":{"d":"2026-10-01","t":"0313","frp":3.8,"b":347.6,"c":1,"s":"SNPP","n":0}},{"type":"Feature","geometry":{"type":"Point","coordinates":[151.5283,-30.0592]},"properties":{"d":"2026-10-01","t":"0313","frp":3.8,"b":336.4,"c":1,"s":"SNPP","n":0}},{"type":"Feature","geometry":{"type":"Point","coordinates":[149.9044,-30.0395]},"properties":{"d":"2026-10-01","t":"0313","frp":3.7,"b":337.2,"c":1,"s":"SNPP","n":0}},{"type":"Feature","geometry":{"type":"Point","coordinates":[149.9039,-30.0338]},"properties":{"d":"2026-10-01","t":"0313","frp":3.7,"b":333.3,"c":0,"s":"SNPP","n":0}},{"type":"Feature","geometry":{"type":"Point","coordinates":[149.5226,-29.3263]},"properties":{"d":"2026-10-01","t":"0313","frp":7.0,"b":348.9,"c":1,"s":"SNPP","n":0}},{"type":"Feature","geometry":{"type":"Point","coordinates":[149.5273,-29.326]},"properties":{"d":"2026-10-01","t":"0313","frp":6.7,"b":347.5,"c":1,"s":"SNPP","n":0}},{"type":"Feature","geometry":{"type":"Point","coordinates":[149.532,-29.3256]},"properties":{"d":"2026-10-01","t":"0313","frp":6.7,"b":346.5,"c":1,"s":"SNPP","n":0}},{"type":"Feature","geometry":{"type":"Point","coordinates":[149.5187,-29.3228]},"properties":{"d":"2026-10-01","t":"0313","frp":14.0,"b":338.5,"c":1,"s":"SNPP","n":0}},{"type":"Feature","geometry":{"type":"Point","coordinates":[149.5234,-29.3224]},"properties":{"d":"2026-10-01","t":"0313","frp":14.0,"b":345.7,"c":1,"s":"SNPP","n":0}},{"type":"Feature","geometry":{"type":"Point","coordinates":[149.5281,-29.3221]},"properties":{"d":"2026-10-01","t":"0313","frp":25.0,"b":341.1,"c":1,"s":"SNPP","n":0}},{"type":"Feature","geometry":{"type":"Point","coordinates":[149.5174,-29.3207]},"properties":{"d":"2026-10-01","t":"0313","frp":12.7,"b":339.5,"c":1,"s":"SNPP","n":0}},{"type":"Feature","geometry":{"type":"Point","coordinates":[149.5221,-29.3204]},"properties":{"d":"2026-10-01","t":"0313","frp":12.7,"b":344.7,"c":1,"s":"SNPP","n":0}},{"type":"Feature","geometry":{"type":"Point","coordinates":[149.5268,-29.3201]},"properties":{"d":"2026-10-01","t":"0313","frp":47.0,"b":367.0,"c":2,"s":"SNPP","n":0}},{"type":"Feature","geometry":{"type":"Point","coordinates":[149.5362,-29.3195]},"properties":{"d":"2026-10-01","t":"0313","frp":10.9,"b":367.0,"c":2,"s":"SNPP","n":0}},{"type":"Feature","geometry":{"type":"Point","coordinates":[149.5182,-29.3169]},"properties":{"d":"2026-10-01","t":"0313","frp":14.0,"b":345.2,"c":1,"s":"SNPP","n":0}},{"type":"Feature","geometry":{"type":"Point","coordinates":[149.5229,-29.3166]},"properties":{"d":"2026-10-01","t":"0313","frp":14.0,"b":340.3,"c":1,"s":"SNPP","n":0}},{"type":"Feature","geometry":{"type":"Point","coordinates":[149.5323,-29.3159]},"properties":{"d":"2026-10-01","t":"0313","frp":25.0,"b":353.1,"c":1,"s":"SNPP","n":0}},{"type":"Feature","geometry":{"type":"Point","coordinates":[149.537,-29.3156]},"properties":{"d":"2026-10-01","t":"0313","frp":19.3,"b":352.8,"c":1,"s":"SNPP","n":0}},{"type":"Feature","geometry":{"type":"Point","coordinates":[149.5216,-29.3145]},"properties":{"d":"2026-10-01","t":"0313","frp":12.7,"b":331.6,"c":1,"s":"SNPP","n":0}},{"type":"Feature","geometry":{"type":"Point","coordinates":[149.5357,-29.3136]},"properties":{"d":"2026-10-01","t":"0313","frp":10.9,"b":330.5,"c":1,"s":"SNPP","n":0}},{"type":"Feature","geometry":{"type":"Point","coordinates":[148.2612,-29.277]},"properties":{"d":"2026-10-01","t":"0313","frp":4.0,"b":339.9,"c":1,"s":"SNPP","n":0}},{"type":"Feature","geometry":{"type":"Point","coordinates":[148.2631,-29.2737]},"properties":{"d":"2026-10-01","t":"0313","frp":3.4,"b":339.8,"c":1,"s":"SNPP","n":0}},{"type":"Feature","geometry":{"type":"Point","coordinates":[152.5624,-29.122]},"properties":{"d":"2026-10-01","t":"0313","frp":9.0,"b":349.1,"c":1,"s":"SNPP","n":0}},{"type":"Feature","geometry":{"type":"Point","coordinates":[152.5618,-29.1171]},"properties":{"d":"2026-10-01","t":"0313","frp":5.0,"b":338.5,"c":1,"s":"SNPP","n":0}},{"type":"Feature","geometry":{"type":"Point","coordinates":[152.5737,-29.1161]},"properties":{"d":"2026-10-01","t":"0313","frp":7.5,"b":330.1,"c":1,"s":"SNPP","n":0}},{"type":"Feature","geometry":{"type":"Point","coordinates":[152.5672,-29.1117]},"properties":{"d":"2026-10-01","t":"0313","frp":5.0,"b":329.4,"c":1,"s":"SNPP","n":0}},{"type":"Feature","geometry":{"type":"Point","coordinates":[147.6968,-28.8557]},"properties":{"d":"2026-10-01","t":"0313","frp":3.8,"b":333.7,"c":1,"s":"SNPP","n":0}},{"type":"Feature","geometry":{"type":"Point","coordinates":[150.9871,-28.7508]},"properties":{"d":"2026-10-01","t":"0313","frp":2.7,"b":336.9,"c":1,"s":"SNPP","n":0}},{"type":"Feature","geometry":{"type":"Point","coordinates":[150.9852,-28.4759]},"properties":{"d":"2026-10-01","t":"0313","frp":2.5,"b":341.1,"c":1,"s":"SNPP","n":0}},{"type":"Feature","geometry":{"type":"Point","coordinates":[148.476,-28.416]},"properties":{"d":"2026-10-01","t":"0313","frp":8.5,"b":348.8,"c":1,"s":"SNPP","n":0}},{"type":"Feature","geometry":{"type":"Point","coordinates":[148.4736,-28.4171]},"properties":{"d":"2026-10-01","t":"0315","frp":5.7,"b":350.6,"c":1,"s":"SNPP","n":0}},{"type":"Feature","geometry":{"type":"Point","coordinates":[150.8339,-28.11]},"properties":{"d":"2026-10-01","t":"0315","frp":1.5,"b":337.0,"c":0,"s":"SNPP","n":0}},{"type":"Feature","geometry":{"type":"Point","coordinates":[150.0247,-27.9206]},"properties":{"d":"2026-10-01","t":"0315","frp":5.9,"b":367.0,"c":2,"s":"SNPP","n":0}},{"type":"Feature","geometry":{"type":"Point","coordinates":[150.0244,-27.9184]},"properties":{"d":"2026-10-01","t":"0315","frp":14.1,"b":367.0,"c":2,"s":"SNPP","n":0}},{"type":"Feature","geometry":{"type":"Point","coordinates":[150.02,-27.9153]},"properties":{"d":"2026-10-01","t":"0315","frp":5.9,"b":337.1,"c":1,"s":"SNPP","n":0}},{"type":"Feature","geometry":{"type":"Point","coordinates":[150.0241,-27.915]},"properties":{"d":"2026-10-01","t":"0315","frp":5.9,"b":347.8,"c":1,"s":"SNPP","n":0}},{"type":"Feature","geometry":{"type":"Point","coordinates":[148.7393,-27.8591]},"properties":{"d":"2026-10-01","t":"0315","frp":7.9,"b":350.9,"c":1,"s":"SNPP","n":0}},{"type":"Feature","geometry":{"type":"Point","coordinates":[148.7338,-27.8534]},"properties":{"d":"2026-10-01","t":"0315","frp":9.9,"b":367.0,"c":2,"s":"SNPP","n":0}},{"type":"Feature","geometry":{"type":"Point","coordinates":[148.7389,-27.8531]},"properties":{"d":"2026-10-01","t":"0315","frp":11.1,"b":340.8,"c":1,"s":"SNPP","n":0}},{"type":"Feature","geometry":{"type":"Point","coordinates":[148.7724,-27.8006]},"properties":{"d":"2026-10-01","t":"0315","frp":1.5,"b":335.3,"c":1,"s":"SNPP","n":0}},{"type":"Feature","geometry":{"type":"Point","coordinates":[148.7693,-27.7963]},"properties":{"d":"2026-10-01","t":"0315","frp":1.9,"b":339.4,"c":1,"s":"SNPP","n":0}},{"type":"Feature","geometry":{"type":"Point","coordinates":[152.2067,-27.7499]},"properties":{"d":"2026-10-01","t":"0315","frp":33.1,"b":353.3,"c":1,"s":"SNPP","n":0}},{"type":"Feature","geometry":{"type":"Point","coordinates":[152.2119,-27.7494]},"properties":{"d":"2026-10-01","t":"0315","frp":13.7,"b":341.4,"c":1,"s":"SNPP","n":0}},{"type":"Feature","geometry":{"type":"Point","coordinates":[152.0933,-27.4425]},"properties":{"d":"2026-10-01","t":"0315","frp":10.8,"b":346.0,"c":1,"s":"SNPP","n":0}},{"type":"Feature","geometry":{"type":"Point","coordinates":[152.0931,-27.4376]},"properties":{"d":"2026-10-01","t":"0315","frp":6.1,"b":349.4,"c":1,"s":"SNPP","n":0}},{"type":"Feature","geometry":{"type":"Point","coordinates":[152.0994,-27.437]},"properties":{"d":"2026-10-01","t":"0315","frp":6.1,"b":334.3,"c":1,"s":"SNPP","n":0}},{"type":"Feature","geometry":{"type":"Point","coordinates":[152.0927,-27.4326]},"properties":{"d":"2026-10-01","t":"0315","frp":6.1,"b":330.9,"c":1,"s":"SNPP","n":0}},{"type":"Feature","geometry":{"type":"Point","coordinates":[152.0993,-27.432]},"properties":{"d":"2026-10-01","t":"0315","frp":6.1,"b":334.9,"c":1,"s":"SNPP","n":0}},{"type":"Feature","geometry":{"type":"Point","coordinates":[152.0993,-27.4309]},"properties":{"d":"2026-10-01","t":"0315","frp":5.7,"b":332.9,"c":1,"s":"SNPP","n":0}},{"type":"Feature","geometry":{"type":"Point","coordinates":[152.8515,-27.0277]},"properties":{"d":"2026-10-01","t":"0315","frp":13.3,"b":342.9,"c":1,"s":"SNPP","n":0}},{"type":"Feature","geometry":{"type":"Point","coordinates":[152.8533,-27.0252]},"properties":{"d":"2026-10-01","t":"0315","frp":9.0,"b":333.1,"c":1,"s":"SNPP","n":0}},{"type":"Feature","geometry":{"type":"Point","coordinates":[147.6743,-26.5279]},"properties":{"d":"2026-10-01","t":"0315","frp":4.9,"b":337.3,"c":1,"s":"SNPP","n":0}},{"type":"Feature","geometry":{"type":"Point","coordinates":[150.1156,-26.4018]},"properties":{"d":"2026-10-01","t":"0315","frp":5.7,"b":348.4,"c":1,"s":"SNPP","n":0}},{"type":"Feature","geometry":{"type":"Point","coordinates":[150.1112,-26.3966]},"properties":{"d":"2026-10-01","t":"0315","frp":19.9,"b":340.9,"c":1,"s":"SNPP","n":0}},{"type":"Feature","geometry":{"type":"Point","coordinates":[150.1151,-26.3963]},"properties":{"d":"2026-10-01","t":"0315","frp":24.1,"b":367.0,"c":2,"s":"SNPP","n":0}},{"type":"Feature","geometry":{"type":"Point","coordinates":[150.119,-26.3959]},"properties":{"d":"2026-10-01","t":"0315","frp":24.1,"b":351.0,"c":1,"s":"SNPP","n":0}},{"type":"Feature","geometry":{"type":"Point","coordinates":[150.1381,-26.3943]},"properties":{"d":"2026-10-01","t":"0315","frp":9.7,"b":334.6,"c":1,"s":"SNPP","n":0}},{"type":"Feature","geometry":{"type":"Point","coordinates":[150.142,-26.394]},"properties":{"d":"2026-10-01","t":"0315","frp":9.7,"b":367.0,"c":2,"s":"SNPP","n":0}},{"type":"Feature","geometry":{"type":"Point","coordinates":[150.1459,-26.3937]},"properties":{"d":"2026-10-01","t":"0315","frp":9.8,"b":338.8,"c":1,"s":"SNPP","n":0}},{"type":"Feature","geometry":{"type":"Point","coordinates":[150.1108,-26.3911]},"properties":{"d":"2026-10-01","t":"0315","frp":19.9,"b":367.0,"c":2,"s":"SNPP","n":0}},{"type":"Feature","geometry":{"type":"Point","coordinates":[150.1147,-26.3908]},"properties":{"d":"2026-10-01","t":"0315","frp":24.1,"b":367.0,"c":2,"s":"SNPP","n":0}},{"type":"Feature","geometry":{"type":"Point","coordinates":[150.1185,-26.3904]},"properties":{"d":"2026-10-01","t":"0315","frp":24.1,"b":346.7,"c":1,"s":"SNPP","n":0}},{"type":"Feature","geometry":{"type":"Point","coordinates":[150.1223,-26.3901]},"properties":{"d":"2026-10-01","t":"0315","frp":8.3,"b":355.5,"c":1,"s":"SNPP","n":0}},{"type":"Feature","geometry":{"type":"Point","coordinates":[150.1261,-26.3898]},"properties":{"d":"2026-10-01","t":"0315","frp":8.3,"b":347.9,"c":1,"s":"SNPP","n":0}},{"type":"Feature","geometry":{"type":"Point","coordinates":[150.1338,-26.3891]},"properties":{"d":"2026-10-01","t":"0315","frp":18.4,"b":367.0,"c":2,"s":"SNPP","n":0}},{"type":"Feature","geometry":{"type":"Point","coordinates":[150.1377,-26.3888]},"properties":{"d":"2026-10-01","t":"0315","frp":9.7,"b":367.0,"c":2,"s":"SNPP","n":0}},{"type":"Feature","geometry":{"type":"Point","coordinates":[150.1415,-26.3885]},"properties":{"d":"2026-10-01","t":"0315","frp":9.7,"b":350.4,"c":1,"s":"SNPP","n":0}},{"type":"Feature","geometry":{"type":"Point","coordinates":[150.1103,-26.3856]},"properties":{"d":"2026-10-01","t":"0315","frp":9.3,"b":353.0,"c":1,"s":"SNPP","n":0}},{"type":"Feature","geometry":{"type":"Point","coordinates":[150.1141,-26.3852]},"properties":{"d":"2026-10-01","t":"0315","frp":8.0,"b":351.9,"c":1,"s":"SNPP","n":0}},{"type":"Feature","geometry":{"type":"Point","coordinates":[150.1257,-26.3843]},"properties":{"d":"2026-10-01","t":"0315","frp":14.1,"b":349.1,"c":1,"s":"SNPP","n":0}},{"type":"Feature","geometry":{"type":"Point","coordinates":[150.1295,-26.384]},"properties":{"d":"2026-10-01","t":"0315","frp":14.2,"b":367.0,"c":2,"s":"SNPP","n":0}},{"type":"Feature","geometry":{"type":"Point","coordinates":[150.1334,-26.3836]},"properties":{"d":"2026-10-01","t":"0315","frp":14.2,"b":367.0,"c":2,"s":"SNPP","n":0}},{"type":"Feature","geometry":{"type":"Point","coordinates":[150.1372,-26.3833]},"properties":{"d":"2026-10-01","t":"0315","frp":40.2,"b":367.0,"c":2,"s":"SNPP","n":0}},{"type":"Feature","geometry":{"type":"Point","coordinates":[150.1411,-26.383]},"properties":{"d":"2026-10-01","t":"0315","frp":40.2,"b":367.0,"c":2,"s":"SNPP","n":0}},{"type":"Feature","geometry":{"type":"Point","coordinates":[150.1449,-26.3827]},"properties":{"d":"2026-10-01","t":"0315","frp":11.6,"b":338.8,"c":1,"s":"SNPP","n":0}},{"type":"Feature","geometry":{"type":"Point","coordinates":[150.1136,-26.3798]},"properties":{"d":"2026-10-01","t":"0315","frp":8.0,"b":367.0,"c":2,"s":"SNPP","n":0}},{"type":"Feature","geometry":{"type":"Point","coordinates":[150.1175,-26.3794]},"properties":{"d":"2026-10-01","t":"0315","frp":8.0,"b":348.1,"c":1,"s":"SNPP","n":0}},{"type":"Feature","geometry":{"type":"Point","coordinates":[150.1329,-26.3782]},"properties":{"d":"2026-10-01","t":"0315","frp":14.2,"b":344.4,"c":1,"s":"SNPP","n":0}},{"type":"Feature","geometry":{"type":"Point","coordinates":[150.1406,-26.3775]},"properties":{"d":"2026-10-01","t":"0315","frp":40.2,"b":367.0,"c":2,"s":"SNPP","n":0}},{"type":"Feature","geometry":{"type":"Point","coordinates":[150.1444,-26.3772]},"properties":{"d":"2026-10-01","t":"0315","frp":11.6,"b":331.9,"c":1,"s":"SNPP","n":0}},{"type":"Feature","geometry":{"type":"Point","coordinates":[150.1362,-26.3723]},"properties":{"d":"2026-10-01","t":"0315","frp":8.0,"b":340.1,"c":1,"s":"SNPP","n":0}},{"type":"Feature","geometry":{"type":"Point","coordinates":[150.1401,-26.372]},"properties":{"d":"2026-10-01","t":"0315","frp":8.0,"b":367.0,"c":2,"s":"SNPP","n":0}},{"type":"Feature","geometry":{"type":"Point","coordinates":[150.1439,-26.3717]},"properties":{"d":"2026-10-01","t":"0315","frp":24.0,"b":349.9,"c":1,"s":"SNPP","n":0}},{"type":"Feature","geometry":{"type":"Point","coordinates":[150.1478,-26.3714]},"properties":{"d":"2026-10-01","t":"0315","frp":24.0,"b":367.0,"c":2,"s":"SNPP","n":0}},{"type":"Feature","geometry":{"type":"Point","coordinates":[150.1516,-26.3711]},"properties":{"d":"2026-10-01","t":"0315","frp":13.7,"b":367.0,"c":2,"s":"SNPP","n":0}},{"type":"Feature","geometry":{"type":"Point","coordinates":[150.1396,-26.3665]},"properties":{"d":"2026-10-01","t":"0315","frp":8.0,"b":333.8,"c":1,"s":"SNPP","n":0}},{"type":"Feature","geometry":{"type":"Point","coordinates":[150.1434,-26.3662]},"properties":{"d":"2026-10-01","t":"0315","frp":24.0,"b":351.3,"c":1,"s":"SNPP","n":0}},{"type":"Feature","geometry":{"type":"Point","coordinates":[150.1473,-26.3659]},"properties":{"d":"2026-10-01","t":"0315","frp":24.0,"b":350.4,"c":1,"s":"SNPP","n":0}},{"type":"Feature","geometry":{"type":"Point","coordinates":[150.1511,-26.3656]},"properties":{"d":"2026-10-01","t":"0315","frp":13.7,"b":367.0,"c":2,"s":"SNPP","n":0}},{"type":"Feature","geometry":{"type":"Point","coordinates":[150.1549,-26.3652]},"properties":{"d":"2026-10-01","t":"0315","frp":13.7,"b":346.4,"c":1,"s":"SNPP","n":0}},{"type":"Feature","geometry":{"type":"Point","coordinates":[150.1078,-26.3636]},"properties":{"d":"2026-10-01","t":"0315","frp":3.5,"b":349.9,"c":1,"s":"SNPP","n":0}},{"type":"Feature","geometry":{"type":"Point","coordinates":[150.1118,-26.3633]},"properties":{"d":"2026-10-01","t":"0315","frp":5.4,"b":340.8,"c":1,"s":"SNPP","n":0}},{"type":"Feature","geometry":{"type":"Point","coordinates":[150.1157,-26.3629]},"properties":{"d":"2026-10-01","t":"0315","frp":5.4,"b":347.4,"c":1,"s":"SNPP","n":0}},{"type":"Feature","geometry":{"type":"Point","coordinates":[150.1197,-26.3626]},"properties":{"d":"2026-10-01","t":"0315","frp":4.4,"b":335.8,"c":1,"s":"SNPP","n":0}},{"type":"Feature","geometry":{"type":"Point","coordinates":[150.1505,-26.3601]},"properties":{"d":"2026-10-01","t":"0315","frp":4.1,"b":352.8,"c":1,"s":"SNPP","n":0}},{"type":"Feature","geometry":{"type":"Point","coordinates":[150.1543,-26.3598]},"properties":{"d":"2026-10-01","t":"0315","frp":4.1,"b":337.5,"c":1,"s":"SNPP","n":0}},{"type":"Feature","geometry":{"type":"Point","coordinates":[150.1072,-26.3581]},"properties":{"d":"2026-10-01","t":"0315","frp":3.5,"b":338.3,"c":1,"s":"SNPP","n":0}},{"type":"Feature","geometry":{"type":"Point","coordinates":[150.119,-26.3571]},"properties":{"d":"2026-10-01","t":"0315","frp":4.4,"b":349.7,"c":1,"s":"SNPP","n":0}},{"type":"Feature","geometry":{"type":"Point","coordinates":[150.1229,-26.3568]},"properties":{"d":"2026-10-01","t":"0315","frp":4.4,"b":347.1,"c":1,"s":"SNPP","n":0}},{"type":"Feature","geometry":{"type":"Point","coordinates":[150.1499,-26.3546]},"properties":{"d":"2026-10-01","t":"0315","frp":4.1,"b":337.6,"c":1,"s":"SNPP","n":0}},{"type":"Feature","geometry":{"type":"Point","coordinates":[150.13,-26.3507]},"properties":{"d":"2026-10-01","t":"0315","frp":5.8,"b":349.6,"c":1,"s":"SNPP","n":0}},{"type":"Feature","geometry":{"type":"Point","coordinates":[150.1339,-26.3504]},"properties":{"d":"2026-10-01","t":"0315","frp":6.6,"b":346.1,"c":1,"s":"SNPP","n":0}},{"type":"Feature","geometry":{"type":"Point","coordinates":[149.6424,-26.3078]},"properties":{"d":"2026-10-01","t":"0315","frp":12.2,"b":367.0,"c":2,"s":"SNPP","n":0}},{"type":"Feature","geometry":{"type":"Point","coordinates":[150.5368,-26.1225]},"properties":{"d":"2026-10-01","t":"0315","frp":4.4,"b":348.1,"c":1,"s":"SNPP","n":0}},{"type":"Feature","geometry":{"type":"Point","coordinates":[150.5399,-26.1168]},"properties":{"d":"2026-10-01","t":"0315","frp":3.7,"b":333.0,"c":1,"s":"SNPP","n":0}},{"type":"Feature","geometry":{"type":"Point","coordinates":[150.5444,-26.0895]},"properties":{"d":"2026-10-01","t":"0315","frp":2.2,"b":331.0,"c":0,"s":"SNPP","n":0}},{"type":"Feature","geometry":{"type":"Point","coordinates":[150.548,-26.0892]},"properties":{"d":"2026-10-01","t":"0315","frp":3.0,"b":337.5,"c":1,"s":"SNPP","n":0}},{"type":"Feature","geometry":{"type":"Point","coordinates":[152.7487,-26.0639]},"properties":{"d":"2026-10-01","t":"0315","frp":8.4,"b":348.7,"c":1,"s":"SNPP","n":0}},{"type":"Feature","geometry":{"type":"Point","coordinates":[152.4242,-25.229]},"properties":{"d":"2026-10-01","t":"0315","frp":10.3,"b":342.4,"c":1,"s":"SNPP","n":0}},{"type":"Feature","geometry":{"type":"Point","coordinates":[152.4236,-25.2243]},"properties":{"d":"2026-10-01","t":"0315","frp":10.3,"b":350.2,"c":1,"s":"SNPP","n":0}},{"type":"Feature","geometry":{"type":"Point","coordinates":[152.0013,-24.9875]},"properties":{"d":"2026-10-01","t":"0315","frp":11.9,"b":340.9,"c":1,"s":"SNPP","n":0}},{"type":"Feature","geometry":{"type":"Point","coordinates":[151.9972,-24.9873]},"properties":{"d":"2026-10-01","t":"0315","frp":6.2,"b":342.1,"c":1,"s":"SNPP","n":0}},{"type":"Feature","geometry":{"type":"Point","coordinates":[145.5603,-24.5078]},"properties":{"d":"2026-10-01","t":"0315","frp":14.6,"b":367.0,"c":2,"s":"SNPP","n":0}},{"type":"Feature","geometry":{"type":"Point","coordinates":[145.5674,-24.5074]},"properties":{"d":"2026-10-01","t":"0315","frp":17.1,"b":331.7,"c":1,"s":"SNPP","n":0}},{"type":"Feature","geometry":{"type":"Point","coordinates":[148.1801,-24.4303]},"properties":{"d":"2026-10-01","t":"0315","frp":9.3,"b":367.0,"c":2,"s":"SNPP","n":0}},{"type":"Feature","geometry":{"type":"Point","coordinates":[148.1846,-24.4299]},"properties":{"d":"2026-10-01","t":"0315","frp":9.3,"b":341.0,"c":1,"s":"SNPP","n":0}},{"type":"Feature","geometry":{"type":"Point","coordinates":[149.5331,-24.1703]},"properties":{"d":"2026-10-01","t":"0315","frp":6.7,"b":353.8,"c":1,"s":"SNPP","n":0}},{"type":"Feature","geometry":{"type":"Point","coordinates":[149.537,-24.1699]},"properties":{"d":"2026-10-01","t":"0315","frp":4.9,"b":349.4,"c":1,"s":"SNPP","n":0}},{"type":"Feature","geometry":{"type":"Point","coordinates":[149.541,-24.1696]},"properties":{"d":"2026-10-01","t":"0315","frp":4.9,"b":334.4,"c":1,"s":"SNPP","n":0}},{"type":"Feature","geometry":{"type":"Point","coordinates":[149.4166,-24.1695]},"properties":{"d":"2026-10-01","t":"0315","frp":4.9,"b":350.5,"c":1,"s":"SNPP","n":0}},{"type":"Feature","geometry":{"type":"Point","coordinates":[149.5327,-24.1694]},"properties":{"d":"2026-10-01","t":"0315","frp":6.1,"b":352.3,"c":1,"s":"SNPP","n":0}},{"type":"Feature","geometry":{"type":"Point","coordinates":[149.5367,-24.1691]},"properties":{"d":"2026-10-01","t":"0315","frp":5.1,"b":349.0,"c":1,"s":"SNPP","n":0}},{"type":"Feature","geometry":{"type":"Point","coordinates":[149.5406,-24.1687]},"properties":{"d":"2026-10-01","t":"0315","frp":5.1,"b":332.0,"c":1,"s":"SNPP","n":0}},{"type":"Feature","geometry":{"type":"Point","coordinates":[149.4161,-24.1679]},"properties":{"d":"2026-10-01","t":"0315","frp":6.3,"b":352.8,"c":1,"s":"SNPP","n":0}},{"type":"Feature","geometry":{"type":"Point","coordinates":[149.5444,-24.1636]},"properties":{"d":"2026-10-01","t":"0315","frp":4.4,"b":336.0,"c":1,"s":"SNPP","n":0}},{"type":"Feature","geometry":{"type":"Point","coordinates":[149.544,-24.1628]},"properties":{"d":"2026-10-01","t":"0315","frp":5.6,"b":345.3,"c":1,"s":"SNPP","n":0}},{"type":"Feature","geometry":{"type":"Point","coordinates":[149.5281,-24.1595]},"properties":{"d":"2026-10-01","t":"0315","frp":1.9,"b":331.6,"c":1,"s":"SNPP","n":0}},{"type":"Feature","geometry":{"type":"Point","coordinates":[149.5277,-24.1586]},"properties":{"d":"2026-10-01","t":"0315","frp":2.5,"b":333.9,"c":1,"s":"SNPP","n":0}},{"type":"Feature","geometry":{"type":"Point","coordinates":[149.5197,-24.1546]},"properties":{"d":"2026-10-01","t":"0315","frp":5.8,"b":331.4,"c":1,"s":"SNPP","n":0}},{"type":"Feature","geometry":{"type":"Point","coordinates":[149.5154,-24.154]},"properties":{"d":"2026-10-01","t":"0315","frp":3.0,"b":338.0,"c":1,"s":"SNPP","n":0}},{"type":"Feature","geometry":{"type":"Point","coordinates":[149.5193,-24.1537]},"properties":{"d":"2026-10-01","t":"0315","frp":5.0,"b":330.6,"c":1,"s":"SNPP","n":0}},{"type":"Feature","geometry":{"type":"Point","coordinates":[149.5154,-24.1494]},"properties":{"d":"2026-10-01","t":"0315","frp":5.0,"b":352.4,"c":1,"s":"SNPP","n":0}},{"type":"Feature","geometry":{"type":"Point","coordinates":[149.5145,-24.1383]},"properties":{"d":"2026-10-01","t":"0315","frp":3.8,"b":354.1,"c":1,"s":"SNPP","n":0}},{"type":"Feature","geometry":{"type":"Point","coordinates":[149.5138,-24.1327]},"properties":{"d":"2026-10-01","t":"0315","frp":4.2,"b":349.0,"c":1,"s":"SNPP","n":0}},{"type":"Feature","geometry":{"type":"Point","coordinates":[151.0371,-23.7935]},"properties":{"d":"2026-10-01","t":"0315","frp":5.1,"b":339.8,"c":1,"s":"SNPP","n":0}},{"type":"Feature","geometry":{"type":"Point","coordinates":[149.6139,-23.3366]},"properties":{"d":"2026-10-01","t":"0315","frp":8.6,"b":355.0,"c":1,"s":"SNPP","n":0}},{"type":"Feature","geometry":{"type":"Point","coordinates":[149.6133,-23.3312]},"properties":{"d":"2026-10-01","t":"0315","frp":29.5,"b":351.3,"c":1,"s":"SNPP","n":0}},{"type":"Feature","geometry":{"type":"Point","coordinates":[149.6172,-23.3308]},"properties":{"d":"2026-10-01","t":"0315","frp":28.1,"b":367.0,"c":2,"s":"SNPP","n":0}},{"type":"Feature","geometry":{"type":"Point","coordinates":[148.332,-23.3043]},"properties":{"d":"2026-10-01","t":"0315","frp":1.3,"b":331.0,"c":1,"s":"SNPP","n":0}},{"type":"Feature","geometry":{"type":"Point","coordinates":[148.1532,-22.6451]},"properties":{"d":"2026-10-01","t":"0315","frp":8.6,"b":367.0,"c":2,"s":"SNPP","n":0}},{"type":"Feature","geometry":{"type":"Point","coordinates":[147.4864,-22.6448]},"properties":{"d":"2026-10-01","t":"0315","frp":5.3,"b":338.7,"c":1,"s":"SNPP","n":0}},{"type":"Feature","geometry":{"type":"Point","coordinates":[148.1578,-22.6447]},"properties":{"d":"2026-10-01","t":"0315","frp":8.6,"b":367.0,"c":2,"s":"SNPP","n":0}},{"type":"Feature","geometry":{"type":"Point","coordinates":[147.4865,-22.6437]},"properties":{"d":"2026-10-01","t":"0315","frp":6.7,"b":345.8,"c":1,"s":"SNPP","n":0}},{"type":"Feature","geometry":{"type":"Point","coordinates":[150.2766,-22.6423]},"properties":{"d":"2026-10-01","t":"0315","frp":4.4,"b":350.0,"c":1,"s":"SNPP","n":0}},{"type":"Feature","geometry":{"type":"Point","coordinates":[150.2806,-22.6419]},"properties":{"d":"2026-10-01","t":"0315","frp":4.4,"b":350.2,"c":1,"s":"SNPP","n":0}},{"type":"Feature","geometry":{"type":"Point","coordinates":[148.1527,-22.6391]},"properties":{"d":"2026-10-01","t":"0315","frp":15.2,"b":343.0,"c":1,"s":"SNPP","n":0}},{"type":"Feature","geometry":{"type":"Point","coordinates":[148.1573,-22.6387]},"properties":{"d":"2026-10-01","t":"0315","frp":15.2,"b":367.0,"c":2,"s":"SNPP","n":0}},{"type":"Feature","geometry":{"type":"Point","coordinates":[147.4858,-22.6386]},"properties":{"d":"2026-10-01","t":"0315","frp":8.2,"b":342.2,"c":1,"s":"SNPP","n":0}},{"type":"Feature","geometry":{"type":"Point","coordinates":[148.1619,-22.6383]},"properties":{"d":"2026-10-01","t":"0315","frp":34.3,"b":356.7,"c":1,"s":"SNPP","n":0}},{"type":"Feature","geometry":{"type":"Point","coordinates":[148.1665,-22.638]},"properties":{"d":"2026-10-01","t":"0315","frp":34.3,"b":367.0,"c":2,"s":"SNPP","n":0}},{"type":"Feature","geometry":{"type":"Point","coordinates":[148.1711,-22.6376]},"properties":{"d":"2026-10-01","t":"0315","frp":25.8,"b":367.0,"c":2,"s":"SNPP","n":0}},{"type":"Feature","geometry":{"type":"Point","coordinates":[147.4859,-22.6375]},"properties":{"d":"2026-10-01","t":"0315","frp":6.7,"b":335.2,"c":1,"s":"SNPP","n":0}},{"type":"Feature","geometry":{"type":"Point","coordinates":[148.1615,-22.6324]},"properties":{"d":"2026-10-01","t":"0315","frp":34.3,"b":352.9,"c":1,"s":"SNPP","n":0}},{"type":"Feature","geometry":{"type":"Point","coordinates":[147.0909,-22.6134]},"properties":{"d":"2026-10-01","t":"0315","frp":6.8,"b":338.6,"c":1,"s":"SNPP","n":0}},{"type":"Feature","geometry":{"type":"Point","coordinates":[148.7243,-21.1109]},"properties":{"d":"2026-10-01","t":"0315","frp":4.0,"b":352.0,"c":1,"s":"SNPP","n":0}},{"type":"Feature","geometry":{"type":"Point","coordinates":[146.1831,-19.5921]},"properties":{"d":"2026-10-01","t":"0317","frp":7.4,"b":339.7,"c":1,"s":"SNPP","n":0}},{"type":"Feature","geometry":{"type":"Point","coordinates":[146.1887,-19.5917]},"properties":{"d":"2026-10-01","t":"0317","frp":8.0,"b":336.8,"c":1,"s":"SNPP","n":0}},{"type":"Feature","geometry":{"type":"Point","coordinates":[146.1827,-19.5856]},"properties":{"d":"2026-10-01","t":"0317","frp":4.0,"b":332.7,"c":1,"s":"SNPP","n":0}},{"type":"Feature","geometry":{"type":"Point","coordinates":[147.0358,-19.2506]},"properties":{"d":"2026-10-01","t":"0317","frp":24.4,"b":367.0,"c":2,"s":"SNPP","n":0}},{"type":"Feature","geometry":{"type":"Point","coordinates":[147.0339,-19.2499]},"properties":{"d":"2026-10-01","t":"0317","frp":16.9,"b":354.9,"c":1,"s":"SNPP","n":0}},{"type":"Feature","geometry":{"type":"Point","coordinates":[147.0379,-19.2496]},"properties":{"d":"2026-10-01","t":"0317","frp":20.5,"b":353.4,"c":1,"s":"SNPP","n":0}},{"type":"Feature","geometry":{"type":"Point","coordinates":[144.7183,-18.6473]},"properties":{"d":"2026-10-01","t":"0317","frp":22.7,"b":347.6,"c":1,"s":"SNPP","n":0}},{"type":"Feature","geometry":{"type":"Point","coordinates":[144.7252,-18.6467]},"properties":{"d":"2026-10-01","t":"0317","frp":22.7,"b":353.6,"c":1,"s":"SNPP","n":0}},{"type":"Feature","geometry":{"type":"Point","coordinates":[144.7319,-18.6462]},"properties":{"d":"2026-10-01","t":"0317","frp":56.6,"b":367.0,"c":2,"s":"SNPP","n":0}},{"type":"Feature","geometry":{"type":"Point","coordinates":[144.7111,-18.6409]},"properties":{"d":"2026-10-01","t":"0317","frp":10.0,"b":343.1,"c":1,"s":"SNPP","n":0}},{"type":"Feature","geometry":{"type":"Point","coordinates":[144.7089,-18.6291]},"properties":{"d":"2026-10-01","t":"0317","frp":5.3,"b":335.4,"c":1,"s":"SNPP","n":0}},{"type":"Feature","geometry":{"type":"Point","coordinates":[144.7157,-18.6285]},"properties":{"d":"2026-10-01","t":"0317","frp":5.3,"b":339.6,"c":1,"s":"SNPP","n":0}},{"type":"Feature","geometry":{"type":"Point","coordinates":[144.7292,-18.6273]},"properties":{"d":"2026-10-01","t":"0317","frp":9.5,"b":343.9,"c":1,"s":"SNPP","n":0}},{"type":"Feature","geometry":{"type":"Point","coordinates":[144.7103,-18.6268]},"properties":{"d":"2026-10-01","t":"0317","frp":13.9,"b":340.9,"c":1,"s":"SNPP","n":0}},{"type":"Feature","geometry":{"type":"Point","coordinates":[144.7171,-18.6263]},"properties":{"d":"2026-10-01","t":"0317","frp":22.8,"b":341.0,"c":1,"s":"SNPP","n":0}},{"type":"Feature","geometry":{"type":"Point","coordinates":[144.7306,-18.6252]},"properties":{"d":"2026-10-01","t":"0317","frp":15.3,"b":350.2,"c":1,"s":"SNPP","n":0}},{"type":"Feature","geometry":{"type":"Point","coordinates":[144.7221,-18.6209]},"properties":{"d":"2026-10-01","t":"0317","frp":7.9,"b":334.6,"c":1,"s":"SNPP","n":0}},{"type":"Feature","geometry":{"type":"Point","coordinates":[144.7288,-18.6203]},"properties":{"d":"2026-10-01","t":"0317","frp":7.9,"b":341.4,"c":1,"s":"SNPP","n":0}},{"type":"Feature","geometry":{"type":"Point","coordinates":[144.7157,-18.6053]},"properties":{"d":"2026-10-01","t":"0317","frp":6.8,"b":334.4,"c":1,"s":"SNPP","n":0}},{"type":"Feature","geometry":{"type":"Point","coordinates":[144.7226,-18.6047]},"properties":{"d":"2026-10-01","t":"0317","frp":6.8,"b":331.2,"c":1,"s":"SNPP","n":0}},{"type":"Feature","geometry":{"type":"Point","coordinates":[144.7071,-18.6011]},"properties":{"d":"2026-10-01","t":"0317","frp":16.6,"b":347.2,"c":1,"s":"SNPP","n":0}},{"type":"Feature","geometry":{"type":"Point","coordinates":[144.7139,-18.6005]},"properties":{"d":"2026-10-01","t":"0317","frp":16.6,"b":367.0,"c":2,"s":"SNPP","n":0}},{"type":"Feature","geometry":{"type":"Point","coordinates":[144.7208,-18.5999]},"properties":{"d":"2026-10-01","t":"0317","frp":21.7,"b":351.1,"c":1,"s":"SNPP","n":0}},{"type":"Feature","geometry":{"type":"Point","coordinates":[144.7015,-18.5994]},"properties":{"d":"2026-10-01","t":"0317","frp":13.8,"b":336.4,"c":1,"s":"SNPP","n":0}},{"type":"Feature","geometry":{"type":"Point","coordinates":[144.7083,-18.5988]},"properties":{"d":"2026-10-01","t":"0317","frp":13.8,"b":367.0,"c":2,"s":"SNPP","n":0}},{"type":"Feature","geometry":{"type":"Point","coordinates":[144.7152,-18.5983]},"properties":{"d":"2026-10-01","t":"0317","frp":18.4,"b":367.0,"c":2,"s":"SNPP","n":0}},{"type":"Feature","geometry":{"type":"Point","coordinates":[144.722,-18.5977]},"properties":{"d":"2026-10-01","t":"0317","frp":18.4,"b":353.8,"c":1,"s":"SNPP","n":0}},{"type":"Feature","geometry":{"type":"Point","coordinates":[144.7066,-18.594]},"properties":{"d":"2026-10-01","t":"0317","frp":23.1,"b":367.0,"c":2,"s":"SNPP","n":0}},{"type":"Feature","geometry":{"type":"Point","coordinates":[144.7135,-18.5935]},"properties":{"d":"2026-10-01","t":"0317","frp":23.1,"b":367.0,"c":2,"s":"SNPP","n":0}},{"type":"Feature","geometry":{"type":"Point","coordinates":[144.7203,-18.5929]},"properties":{"d":"2026-10-01","t":"0317","frp":35.4,"b":367.0,"c":2,"s":"SNPP","n":0}},{"type":"Feature","geometry":{"type":"Point","coordinates":[144.7078,-18.5918]},"properties":{"d":"2026-10-01","t":"0317","frp":13.8,"b":367.0,"c":2,"s":"SNPP","n":0}},{"type":"Feature","geometry":{"type":"Point","coordinates":[144.7147,-18.5913]},"properties":{"d":"2026-10-01","t":"0317","frp":18.4,"b":367.0,"c":2,"s":"SNPP","n":0}},{"type":"Feature","geometry":{"type":"Point","coordinates":[144.7216,-18.5907]},"properties":{"d":"2026-10-01","t":"0317","frp":18.4,"b":356.1,"c":1,"s":"SNPP","n":0}},{"type":"Feature","geometry":{"type":"Point","coordinates":[144.5417,-15.6287]},"properties":{"d":"2026-10-01","t":"0317","frp":11.0,"b":334.6,"c":1,"s":"SNPP","n":0}},{"type":"Feature","geometry":{"type":"Point","coordinates":[144.548,-15.6281]},"properties":{"d":"2026-10-01","t":"0317","frp":7.0,"b":329.0,"c":1,"s":"SNPP","n":0}},{"type":"Feature","geometry":{"type":"Point","coordinates":[144.543,-15.6275]},"properties":{"d":"2026-10-01","t":"0317","frp":12.6,"b":332.5,"c":1,"s":"SNPP","n":0}},{"type":"Feature","geometry":{"type":"Point","coordinates":[144.5586,-15.6202]},"properties":{"d":"2026-10-01","t":"0317","frp":11.1,"b":340.0,"c":1,"s":"SNPP","n":0}},{"type":"Feature","geometry":{"type":"Point","coordinates":[144.5545,-15.6194]},"properties":{"d":"2026-10-01","t":"0317","frp":6.5,"b":331.6,"c":1,"s":"SNPP","n":0}},{"type":"Feature","geometry":{"type":"Point","coordinates":[144.5597,-15.6189]},"properties":{"d":"2026-10-01","t":"0317","frp":6.5,"b":328.8,"c":1,"s":"SNPP","n":0}},{"type":"Feature","geometry":{"type":"Point","coordinates":[144.6023,-15.6022]},"properties":{"d":"2026-10-01","t":"0317","frp":3.6,"b":330.1,"c":1,"s":"SNPP","n":0}},{"type":"Feature","geometry":{"type":"Point","coordinates":[144.6036,-15.6007]},"properties":{"d":"2026-10-01","t":"0317","frp":7.8,"b":329.0,"c":1,"s":"SNPP","n":0}},{"type":"Feature","geometry":{"type":"Point","coordinates":[144.6137,-15.5874]},"properties":{"d":"2026-10-01","t":"0317","frp":7.7,"b":333.5,"c":1,"s":"SNPP","n":0}},{"type":"Feature","geometry":{"type":"Point","coordinates":[144.6152,-15.5857]},"properties":{"d":"2026-10-01","t":"0317","frp":8.1,"b":337.9,"c":1,"s":"SNPP","n":0}},{"type":"Feature","geometry":{"type":"Point","coordinates":[144.5767,-15.5482]},"properties":{"d":"2026-10-01","t":"0317","frp":7.1,"b":333.2,"c":1,"s":"SNPP","n":0}},{"type":"Feature","geometry":{"type":"Point","coordinates":[144.1831,-15.4551]},"properties":{"d":"2026-10-01","t":"0317","frp":9.1,"b":331.9,"c":1,"s":"SNPP","n":0}},{"type":"Feature","geometry":{"type":"Point","coordinates":[144.1849,-15.4541]},"properties":{"d":"2026-10-01","t":"0317","frp":10.1,"b":328.4,"c":1,"s":"SNPP","n":0}},{"type":"Feature","geometry":{"type":"Point","coordinates":[143.2549,-14.0248]},"properties":{"d":"2026-10-01","t":"0317","frp":6.5,"b":330.4,"c":1,"s":"SNPP","n":0}},{"type":"Feature","geometry":{"type":"Point","coordinates":[143.2624,-14.0241]},"properties":{"d":"2026-10-01","t":"0317","frp":6.5,"b":332.8,"c":1,"s":"SNPP","n":0}},{"type":"Feature","geometry":{"type":"Point","coordinates":[150.9441,-9.9519]},"properties":{"d":"2026-10-01","t":"0317","frp":3.5,"b":329.9,"c":1,"s":"SNPP","n":0}},{"type":"Feature","geometry":{"type":"Point","coordinates":[149.4339,-9.8219]},"properties":{"d":"2026-10-01","t":"0317","frp":4.4,"b":330.6,"c":1,"s":"SNPP","n":0}},{"type":"Feature","geometry":{"type":"Point","coordinates":[148.7181,-9.782]},"properties":{"d":"2026-10-01","t":"0317","frp":3.6,"b":327.2,"c":1,"s":"SNPP","n":0}},{"type":"Feature","geometry":{"type":"Point","coordinates":[149.9905,-9.6516]},"properties":{"d":"2026-10-01","t":"0317","frp":1.4,"b":332.7,"c":1,"s":"SNPP","n":0}},{"type":"Feature","geometry":{"type":"Point","coordinates":[149.9498,-9.6482]},"properties":{"d":"2026-10-01","t":"0317","frp":3.4,"b":334.4,"c":1,"s":"SNPP","n":0}},{"type":"Feature","geometry":{"type":"Point","coordinates":[149.5258,-9.6084]},"properties":{"d":"2026-10-01","t":"0317","frp":7.0,"b":345.3,"c":1,"s":"SNPP","n":0}},{"type":"Feature","geometry":{"type":"Point","coordinates":[149.5267,-9.6044]},"properties":{"d":"2026-10-01","t":"0317","frp":12.7,"b":340.7,"c":1,"s":"SNPP","n":0}},{"type":"Feature","geometry":{"type":"Point","coordinates":[147.4443,-9.5014]},"properties":{"d":"2026-10-01","t":"0317","frp":2.9,"b":334.9,"c":1,"s":"SNPP","n":0}},{"type":"Feature","geometry":{"type":"Point","coordinates":[147.4334,-9.4773]},"properties":{"d":"2026-10-01","t":"0317","frp":3.5,"b":350.1,"c":1,"s":"SNPP","n":0}},{"type":"Feature","geometry":{"type":"Point","coordinates":[147.4343,-9.4758]},"properties":{"d":"2026-10-01","t":"0317","frp":8.3,"b":350.8,"c":1,"s":"SNPP","n":0}},{"type":"Feature","geometry":{"type":"Point","coordinates":[147.4325,-9.4721]},"properties":{"d":"2026-10-01","t":"0317","frp":3.5,"b":332.9,"c":1,"s":"SNPP","n":0}},{"type":"Feature","geometry":{"type":"Point","coordinates":[148.3135,-9.465]},"properties":{"d":"2026-10-01","t":"0317","frp":5.4,"b":332.2,"c":1,"s":"SNPP","n":0}},{"type":"Feature","geometry":{"type":"Point","coordinates":[148.3128,-9.4644]},"properties":{"d":"2026-10-01","t":"0317","frp":3.3,"b":331.3,"c":1,"s":"SNPP","n":0}},{"type":"Feature","geometry":{"type":"Point","coordinates":[148.766,-9.4162]},"properties":{"d":"2026-10-01","t":"0317","frp":4.7,"b":334.1,"c":1,"s":"SNPP","n":0}},{"type":"Feature","geometry":{"type":"Point","coordinates":[148.84,-9.4114]},"properties":{"d":"2026-10-01","t":"0317","frp":16.7,"b":342.4,"c":1,"s":"SNPP","n":0}},{"type":"Feature","geometry":{"type":"Point","coordinates":[147.4256,-9.4031]},"properties":{"d":"2026-10-01","t":"0317","frp":2.6,"b":329.5,"c":1,"s":"SNPP","n":0}},{"type":"Feature","geometry":{"type":"Point","coordinates":[148.7619,-9.393]},"properties":{"d":"2026-10-01","t":"0317","frp":6.7,"b":337.4,"c":1,"s":"SNPP","n":0}},{"type":"Feature","geometry":{"type":"Point","coordinates":[148.7575,-9.3927]},"properties":{"d":"2026-10-01","t":"0317","frp":5.4,"b":340.7,"c":1,"s":"SNPP","n":0}},{"type":"Feature","geometry":{"type":"Point","coordinates":[148.7725,-9.3915]},"properties":{"d":"2026-10-01","t":"0317","frp":7.8,"b":339.8,"c":1,"s":"SNPP","n":0}},{"type":"Feature","geometry":{"type":"Point","coordinates":[148.7681,-9.3914]},"properties":{"d":"2026-10-01","t":"0317","frp":8.7,"b":328.0,"c":1,"s":"SNPP","n":0}},{"type":"Feature","geometry":{"type":"Point","coordinates":[148.7734,-9.3907]},"properties":{"d":"2026-10-01","t":"0317","frp":8.7,"b":348.9,"c":1,"s":"SNPP","n":0}},{"type":"Feature","geometry":{"type":"Point","coordinates":[148.7665,-9.3874]},"properties":{"d":"2026-10-01","t":"0317","frp":6.7,"b":330.5,"c":1,"s":"SNPP","n":0}},{"type":"Feature","geometry":{"type":"Point","coordinates":[148.7622,-9.3872]},"properties":{"d":"2026-10-01","t":"0317","frp":5.4,"b":329.2,"c":1,"s":"SNPP","n":0}},{"type":"Feature","geometry":{"type":"Point","coordinates":[148.7718,-9.3867]},"properties":{"d":"2026-10-01","t":"0317","frp":7.8,"b":341.4,"c":1,"s":"SNPP","n":0}},{"type":"Feature","geometry":{"type":"Point","coordinates":[147.2819,-9.3783]},"properties":{"d":"2026-10-01","t":"0317","frp":2.4,"b":328.1,"c":1,"s":"SNPP","n":0}},{"type":"Feature","geometry":{"type":"Point","coordinates":[149.0791,-9.3702]},"properties":{"d":"2026-10-01","t":"0317","frp":3.2,"b":330.9,"c":1,"s":"SNPP","n":0}},{"type":"Feature","geometry":{"type":"Point","coordinates":[149.0776,-9.3688]},"properties":{"d":"2026-10-01","t":"0317","frp":2.3,"b":331.8,"c":1,"s":"SNPP","n":0}},{"type":"Feature","geometry":{"type":"Point","coordinates":[149.0674,-9.3574]},"properties":{"d":"2026-10-01","t":"0317","frp":4.4,"b":328.0,"c":1,"s":"SNPP","n":0}},{"type":"Feature","geometry":{"type":"Point","coordinates":[148.7731,-9.3571]},"properties":{"d":"2026-10-01","t":"0317","frp":33.2,"b":353.7,"c":1,"s":"SNPP","n":0}},{"type":"Feature","geometry":{"type":"Point","coordinates":[149.0724,-9.3567]},"properties":{"d":"2026-10-01","t":"0317","frp":4.4,"b":341.3,"c":1,"s":"SNPP","n":0}},{"type":"Feature","geometry":{"type":"Point","coordinates":[149.0658,-9.356]},"properties":{"d":"2026-10-01","t":"0317","frp":4.3,"b":327.5,"c":1,"s":"SNPP","n":0}},{"type":"Feature","geometry":{"type":"Point","coordinates":[149.0709,-9.3553]},"properties":{"d":"2026-10-01","t":"0317","frp":9.1,"b":331.6,"c":1,"s":"SNPP","n":0}},{"type":"Feature","geometry":{"type":"Point","coordinates":[149.0186,-9.3481]},"properties":{"d":"2026-10-01","t":"0317","frp":6.5,"b":333.2,"c":1,"s":"SNPP","n":0}},{"type":"Feature","geometry":{"type":"Point","coordinates":[148.9918,-9.3421]},"properties":{"d":"2026-10-01","t":"0317","frp":3.1,"b":331.2,"c":1,"s":"SNPP","n":0}},{"type":"Feature","geometry":{"type":"Point","coordinates":[148.7862,-9.3357]},"properties":{"d":"2026-10-01","t":"0317","frp":33.3,"b":328.3,"c":1,"s":"SNPP","n":0}},{"type":"Feature","geometry":{"type":"Point","coordinates":[148.7915,-9.335]},"properties":{"d":"2026-10-01","t":"0317","frp":33.3,"b":367.0,"c":2,"s":"SNPP","n":0}},{"type":"Feature","geometry":{"type":"Point","coordinates":[148.9488,-9.3334]},"properties":{"d":"2026-10-01","t":"0317","frp":17.2,"b":341.6,"c":1,"s":"SNPP","n":0}},{"type":"Feature","geometry":{"type":"Point","coordinates":[148.9482,-9.3286]},"properties":{"d":"2026-10-01","t":"0317","frp":11.6,"b":343.8,"c":1,"s":"SNPP","n":0}},{"type":"Feature","geometry":{"type":"Point","coordinates":[147.263,-9.3173]},"properties":{"d":"2026-10-01","t":"0317","frp":2.1,"b":331.8,"c":1,"s":"SNPP","n":0}},{"type":"Feature","geometry":{"type":"Point","coordinates":[149.1515,-9.3155]},"properties":{"d":"2026-10-01","t":"0317","frp":2.9,"b":328.2,"c":1,"s":"SNPP","n":0}},{"type":"Feature","geometry":{"type":"Point","coordinates":[147.2554,-9.3129]},"properties":{"d":"2026-10-01","t":"0317","frp":2.0,"b":326.9,"c":1,"s":"SNPP","n":0}},{"type":"Feature","geometry":{"type":"Point","coordinates":[147.2589,-9.3125]},"properties":{"d":"2026-10-01","t":"0317","frp":2.1,"b":326.9,"c":1,"s":"SNPP","n":0}},{"type":"Feature","geometry":{"type":"Point","coordinates":[149.164,-9.2947]},"properties":{"d":"2026-10-01","t":"0317","frp":4.5,"b":331.1,"c":1,"s":"SNPP","n":0}},{"type":"Feature","geometry":{"type":"Point","coordinates":[149.1689,-9.294]},"properties":{"d":"2026-10-01","t":"0317","frp":4.5,"b":333.7,"c":1,"s":"SNPP","n":0}},{"type":"Feature","geometry":{"type":"Point","coordinates":[148.8559,-9.2831]},"properties":{"d":"2026-10-01","t":"0317","frp":5.1,"b":328.4,"c":1,"s":"SNPP","n":0}},{"type":"Feature","geometry":{"type":"Point","coordinates":[148.9898,-9.2796]},"properties":{"d":"2026-10-01","t":"0317","frp":14.3,"b":341.4,"c":1,"s":"SNPP","n":0}},{"type":"Feature","geometry":{"type":"Point","coordinates":[147.1214,-9.2735]},"properties":{"d":"2026-10-01","t":"0317","frp":4.6,"b":348.1,"c":1,"s":"SNPP","n":0}},{"type":"Feature","geometry":{"type":"Point","coordinates":[147.1629,-9.2735]},"properties":{"d":"2026-10-01","t":"0317","frp":4.4,"b":328.3,"c":1,"s":"SNPP","n":0}},{"type":"Feature","geometry":{"type":"Point","coordinates":[148.9837,-9.2707]},"properties":{"d":"2026-10-01","t":"0317","frp":9.7,"b":339.3,"c":1,"s":"SNPP","n":0}},{"type":"Feature","geometry":{"type":"Point","coordinates":[148.9809,-9.2707]},"properties":{"d":"2026-10-01","t":"0317","frp":9.2,"b":341.4,"c":1,"s":"SNPP","n":0}},{"type":"Feature","geometry":{"type":"Point","coordinates":[147.1534,-9.2256]},"properties":{"d":"2026-10-01","t":"0317","frp":2.4,"b":334.2,"c":1,"s":"SNPP","n":0}},{"type":"Feature","geometry":{"type":"Point","coordinates":[148.6039,-9.204]},"properties":{"d":"2026-10-01","t":"0317","frp":5.7,"b":339.9,"c":1,"s":"SNPP","n":0}},{"type":"Feature","geometry":{"type":"Point","coordinates":[148.6011,-9.2011]},"properties":{"d":"2026-10-01","t":"0317","frp":11.5,"b":340.7,"c":1,"s":"SNPP","n":0}},{"type":"Feature","geometry":{"type":"Point","coordinates":[148.6032,-9.1992]},"properties":{"d":"2026-10-01","t":"0317","frp":5.4,"b":333.6,"c":1,"s":"SNPP","n":0}},{"type":"Feature","geometry":{"type":"Point","coordinates":[148.6293,-9.1909]},"properties":{"d":"2026-10-01","t":"0317","frp":6.2,"b":331.0,"c":1,"s":"SNPP","n":0}},{"type":"Feature","geometry":{"type":"Point","coordinates":[148.6538,-9.1495]},"properties":{"d":"2026-10-01","t":"0317","frp":7.7,"b":340.1,"c":1,"s":"SNPP","n":0}},{"type":"Feature","geometry":{"type":"Point","coordinates":[148.5857,-9.1066]},"properties":{"d":"2026-10-01","t":"0317","frp":7.0,"b":338.3,"c":1,"s":"SNPP","n":0}},{"type":"Feature","geometry":{"type":"Point","coordinates":[148.5879,-9.1039]},"properties":{"d":"2026-10-01","t":"0317","frp":6.0,"b":338.8,"c":1,"s":"SNPP","n":0}},{"type":"Feature","geometry":{"type":"Point","coordinates":[148.5905,-9.101]},"properties":{"d":"2026-10-01","t":"0317","frp":7.2,"b":328.0,"c":1,"s":"SNPP","n":0}},{"type":"Feature","geometry":{"type":"Point","coordinates":[148.5958,-9.1002]},"properties":{"d":"2026-10-01","t":"0317","frp":7.2,"b":329.6,"c":1,"s":"SNPP","n":0}},{"type":"Feature","geometry":{"type":"Point","coordinates":[148.5872,-9.0991]},"properties":{"d":"2026-10-01","t":"0317","frp":6.0,"b":331.2,"c":1,"s":"SNPP","n":0}},{"type":"Feature","geometry":{"type":"Point","coordinates":[148.5926,-9.0984]},"properties":{"d":"2026-10-01","t":"0317","frp":6.0,"b":331.4,"c":1,"s":"SNPP","n":0}},{"type":"Feature","geometry":{"type":"Point","coordinates":[148.598,-9.0977]},"properties":{"d":"2026-10-01","t":"0317","frp":9.0,"b":342.3,"c":1,"s":"SNPP","n":0}},{"type":"Feature","geometry":{"type":"Point","coordinates":[148.5898,-9.0961]},"properties":{"d":"2026-10-01","t":"0317","frp":5.6,"b":332.5,"c":1,"s":"SNPP","n":0}},{"type":"Feature","geometry":{"type":"Point","coordinates":[148.5952,-9.0954]},"properties":{"d":"2026-10-01","t":"0317","frp":5.6,"b":334.9,"c":1,"s":"SNPP","n":0}},{"type":"Feature","geometry":{"type":"Point","coordinates":[147.1684,-9.0815]},"properties":{"d":"2026-10-01","t":"0317","frp":1.5,"b":330.4,"c":1,"s":"SNPP","n":0}},{"type":"Feature","geometry":{"type":"Point","coordinates":[146.9231,-9.0426]},"properties":{"d":"2026-10-01","t":"0317","frp":3.4,"b":331.7,"c":1,"s":"SNPP","n":0}},{"type":"Feature","geometry":{"type":"Point","coordinates":[147.2905,-9.0165]},"properties":{"d":"2026-10-01","t":"0317","frp":3.3,"b":334.2,"c":1,"s":"SNPP","n":0}},{"type":"Feature","geometry":{"type":"Point","coordinates":[142.56,-9.0142]},"properties":{"d":"2026-10-01","t":"0317","frp":12.0,"b":355.9,"c":1,"s":"SNPP","n":0}},{"type":"Feature","geometry":{"type":"Point","coordinates":[142.5577,-9.0117]},"properties":{"d":"2026-10-01","t":"0317","frp":12.5,"b":353.1,"c":1,"s":"SNPP","n":0}},{"type":"Feature","geometry":{"type":"Point","coordinates":[143.1392,-13.478]},"properties":{"d":"2026-10-01","t":"0319","frp":6.2,"b":326.9,"c":1,"s":"SNPP","n":0}},{"type":"Feature","geometry":{"type":"Point","coordinates":[143.1447,-13.47]},"properties":{"d":"2026-10-01","t":"0319","frp":6.2,"b":335.2,"c":1,"s":"SNPP","n":0}},{"type":"Feature","geometry":{"type":"Point","coordinates":[143.1448,-13.4647]},"properties":{"d":"2026-10-01","t":"0319","frp":9.8,"b":351.6,"c":1,"s":"SNPP","n":0}},{"type":"Feature","geometry":{"type":"Point","coordinates":[143.1437,-13.4628]},"properties":{"d":"2026-10-01","t":"0319","frp":10.7,"b":349.4,"c":1,"s":"SNPP","n":0}},{"type":"Feature","geometry":{"type":"Point","coordinates":[143.1437,-13.4575]},"properties":{"d":"2026-10-01","t":"0319","frp":9.8,"b":332.0,"c":1,"s":"SNPP","n":0}},{"type":"Feature","geometry":{"type":"Point","coordinates":[143.1427,-13.4556]},"properties":{"d":"2026-10-01","t":"0319","frp":10.7,"b":331.8,"c":1,"s":"SNPP","n":0}},{"type":"Feature","geometry":{"type":"Point","coordinates":[143.1356,-13.451]},"properties":{"d":"2026-10-01","t":"0319","frp":13.0,"b":347.6,"c":1,"s":"SNPP","n":0}},{"type":"Feature","geometry":{"type":"Point","coordinates":[143.1347,-13.4491]},"properties":{"d":"2026-10-01","t":"0319","frp":14.3,"b":347.5,"c":1,"s":"SNPP","n":0}},{"type":"Feature","geometry":{"type":"Point","coordinates":[143.1268,-13.4426]},"properties":{"d":"2026-10-01","t":"0319","frp":8.3,"b":332.7,"c":1,"s":"SNPP","n":0}},{"type":"Feature","geometry":{"type":"Point","coordinates":[143.1115,-13.4387]},"properties":{"d":"2026-10-01","t":"0319","frp":9.6,"b":340.7,"c":1,"s":"SNPP","n":0}},{"type":"Feature","geometry":{"type":"Point","coordinates":[143.1191,-13.4379]},"properties":{"d":"2026-10-01","t":"0319","frp":9.6,"b":327.8,"c":1,"s":"SNPP","n":0}},{"type":"Feature","geometry":{"type":"Point","coordinates":[143.1107,-13.4369]},"properties":{"d":"2026-10-01","t":"0319","frp":8.9,"b":345.0,"c":1,"s":"SNPP","n":0}},{"type":"Feature","geometry":{"type":"Point","coordinates":[143.1182,-13.4362]},"properties":{"d":"2026-10-01","t":"0319","frp":9.9,"b":326.9,"c":1,"s":"SNPP","n":0}},{"type":"Feature","geometry":{"type":"Point","coordinates":[143.1032,-13.4321]},"properties":{"d":"2026-10-01","t":"0319","frp":10.7,"b":338.0,"c":1,"s":"SNPP","n":0}},{"type":"Feature","geometry":{"type":"Point","coordinates":[143.1025,-13.4305]},"properties":{"d":"2026-10-01","t":"0319","frp":8.9,"b":328.8,"c":1,"s":"SNPP","n":0}},{"type":"Feature","geometry":{"type":"Point","coordinates":[143.4084,-13.1541]},"properties":{"d":"2026-10-01","t":"0319","frp":9.5,"b":341.9,"c":1,"s":"SNPP","n":0}}]}