{"type":"FeatureCollection","features":[{"type":"Feature","geometry":{"type":"Point","coordinates":[147.6178,-40.9621]},"properties":{"d":"2026-09-29","t":"0310","frp":7.2,"b":337.6,"c":1,"s":"N21","n":0}},{"type":"Feature","geometry":{"type":"Point","coordinates":[147.6151,-40.9603]},"properties":{"d":"2026-09-29","t":"0310","frp":5.9,"b":342.0,"c":1,"s":"N21","n":0}},{"type":"Feature","geometry":{"type":"Point","coordinates":[147.0596,-38.2819]},"properties":{"d":"2026-09-29","t":"0313","frp":5.5,"b":342.1,"c":1,"s":"N21","n":0}},{"type":"Feature","geometry":{"type":"Point","coordinates":[147.0567,-38.279]},"properties":{"d":"2026-09-29","t":"0313","frp":6.9,"b":332.0,"c":1,"s":"N21","n":0}},{"type":"Feature","geometry":{"type":"Point","coordinates":[148.5256,-36.5205]},"properties":{"d":"2026-09-29","t":"0313","frp":1.9,"b":330.1,"c":1,"s":"N21","n":0}},{"type":"Feature","geometry":{"type":"Point","coordinates":[146.6445,-36.3666]},"properties":{"d":"2026-09-29","t":"0313","frp":8.7,"b":346.9,"c":1,"s":"N21","n":0}},{"type":"Feature","geometry":{"type":"Point","coordinates":[149.0906,-36.2779]},"properties":{"d":"2026-09-29","t":"0313","frp":3.5,"b":340.5,"c":1,"s":"N21","n":0}},{"type":"Feature","geometry":{"type":"Point","coordinates":[149.0895,-36.2779]},"properties":{"d":"2026-09-29","t":"0313","frp":4.4,"b":338.7,"c":1,"s":"N21","n":0}},{"type":"Feature","geometry":{"type":"Point","coordinates":[148.8421,-36.0877]},"properties":{"d":"2026-09-29","t":"0313","frp":3.2,"b":331.5,"c":1,"s":"N21","n":0}},{"type":"Feature","geometry":{"type":"Point","coordinates":[148.8413,-36.0836]},"properties":{"d":"2026-09-29","t":"0313","frp":2.7,"b":335.1,"c":1,"s":"N21","n":0}},{"type":"Feature","geometry":{"type":"Point","coordinates":[148.7695,-35.872]},"properties":{"d":"2026-09-29","t":"0313","frp":3.1,"b":328.6,"c":1,"s":"N21","n":0}},{"type":"Feature","geometry":{"type":"Point","coordinates":[148.7715,-35.8705]},"properties":{"d":"2026-09-29","t":"0313","frp":4.5,"b":348.0,"c":1,"s":"N21","n":0}},{"type":"Feature","geometry":{"type":"Point","coordinates":[145.0764,-35.5304]},"properties":{"d":"2026-09-29","t":"0313","frp":11.4,"b":355.9,"c":0,"s":"N21","n":0}},{"type":"Feature","geometry":{"type":"Point","coordinates":[145.0762,-35.5239]},"properties":{"d":"2026-09-29","t":"0313","frp":5.9,"b":336.3,"c":1,"s":"N21","n":0}},{"type":"Feature","geometry":{"type":"Point","coordinates":[148.2477,-34.8485]},"properties":{"d":"2026-09-29","t":"0313","frp":3.6,"b":328.9,"c":1,"s":"N21","n":0}},{"type":"Feature","geometry":{"type":"Point","coordinates":[148.2474,-34.8468]},"properties":{"d":"2026-09-29","t":"0313","frp":4.3,"b":331.8,"c":1,"s":"N21","n":0}},{"type":"Feature","geometry":{"type":"Point","coordinates":[146.1747,-34.592]},"properties":{"d":"2026-09-29","t":"0313","frp":7.0,"b":331.0,"c":1,"s":"N21","n":0}},{"type":"Feature","geometry":{"type":"Point","coordinates":[150.8829,-34.4578]},"properties":{"d":"2026-09-29","t":"0313","frp":8.7,"b":326.1,"c":0,"s":"N21","n":0}},{"type":"Feature","geometry":{"type":"Point","coordinates":[150.8767,-34.4537]},"properties":{"d":"2026-09-29","t":"0313","frp":5.0,"b":330.5,"c":1,"s":"N21","n":0}},{"type":"Feature","geometry":{"type":"Point","coordinates":[145.481,-33.2221]},"properties":{"d":"2026-09-29","t":"0313","frp":4.8,"b":344.0,"c":1,"s":"N21","n":0}},{"type":"Feature","geometry":{"type":"Point","coordinates":[145.4717,-33.2179]},"properties":{"d":"2026-09-29","t":"0313","frp":38.9,"b":345.8,"c":1,"s":"N21","n":0}},{"type":"Feature","geometry":{"type":"Point","coordinates":[145.4774,-33.2176]},"properties":{"d":"2026-09-29","t":"0313","frp":38.9,"b":352.4,"c":1,"s":"N21","n":0}},{"type":"Feature","geometry":{"type":"Point","coordinates":[145.4831,-33.2173]},"properties":{"d":"2026-09-29","t":"0313","frp":37.1,"b":367.0,"c":2,"s":"N21","n":0}},{"type":"Feature","geometry":{"type":"Point","coordinates":[145.4692,-33.2164]},"properties":{"d":"2026-09-29","t":"0313","frp":57.8,"b":338.5,"c":1,"s":"N21","n":0}},{"type":"Feature","geometry":{"type":"Point","coordinates":[145.4749,-33.2161]},"properties":{"d":"2026-09-29","t":"0313","frp":57.8,"b":367.0,"c":2,"s":"N21","n":0}},{"type":"Feature","geometry":{"type":"Point","coordinates":[145.4806,-33.2159]},"properties":{"d":"2026-09-29","t":"0313","frp":90.5,"b":354.8,"c":1,"s":"N21","n":0}},{"type":"Feature","geometry":{"type":"Point","coordinates":[145.4771,-33.2114]},"properties":{"d":"2026-09-29","t":"0313","frp":72.2,"b":294.7,"c":0,"s":"N21","n":0}},{"type":"Feature","geometry":{"type":"Point","coordinates":[145.4828,-33.2111]},"properties":{"d":"2026-09-29","t":"0313","frp":85.3,"b":367.0,"c":2,"s":"N21","n":0}},{"type":"Feature","geometry":{"type":"Point","coordinates":[145.4803,-33.2097]},"properties":{"d":"2026-09-29","t":"0313","frp":90.5,"b":353.5,"c":1,"s":"N21","n":0}},{"type":"Feature","geometry":{"type":"Point","coordinates":[149.982,-33.1554]},"properties":{"d":"2026-09-29","t":"0313","frp":21.5,"b":354.6,"c":1,"s":"N21","n":0}},{"type":"Feature","geometry":{"type":"Point","coordinates":[149.9814,-33.1506]},"properties":{"d":"2026-09-29","t":"0313","frp":21.5,"b":342.0,"c":1,"s":"N21","n":0}},{"type":"Feature","geometry":{"type":"Point","coordinates":[147.6903,-32.8311]},"properties":{"d":"2026-09-29","t":"0313","frp":3.1,"b":329.8,"c":1,"s":"N21","n":0}},{"type":"Feature","geometry":{"type":"Point","coordinates":[147.6809,-32.8207]},"properties":{"d":"2026-09-29","t":"0313","frp":10.0,"b":340.2,"c":1,"s":"N21","n":0}},{"type":"Feature","geometry":{"type":"Point","coordinates":[147.6852,-32.8204]},"properties":{"d":"2026-09-29","t":"0313","frp":15.8,"b":367.0,"c":2,"s":"N21","n":0}},{"type":"Feature","geometry":{"type":"Point","coordinates":[147.9687,-32.8178]},"properties":{"d":"2026-09-29","t":"0313","frp":2.5,"b":328.7,"c":1,"s":"N21","n":0}},{"type":"Feature","geometry":{"type":"Point","coordinates":[146.6113,-32.7408]},"properties":{"d":"2026-09-29","t":"0313","frp":17.6,"b":367.0,"c":2,"s":"N21","n":0}},{"type":"Feature","geometry":{"type":"Point","coordinates":[146.6139,-32.7404]},"properties":{"d":"2026-09-29","t":"0313","frp":18.2,"b":367.0,"c":2,"s":"N21","n":0}},{"type":"Feature","geometry":{"type":"Point","coordinates":[146.5766,-32.7253]},"properties":{"d":"2026-09-29","t":"0313","frp":5.7,"b":342.2,"c":1,"s":"N21","n":0}},{"type":"Feature","geometry":{"type":"Point","coordinates":[146.579,-32.7248]},"properties":{"d":"2026-09-29","t":"0313","frp":5.3,"b":336.4,"c":1,"s":"N21","n":0}},{"type":"Feature","geometry":{"type":"Point","coordinates":[146.5716,-32.7197]},"properties":{"d":"2026-09-29","t":"0313","frp":11.1,"b":341.5,"c":1,"s":"N21","n":0}},{"type":"Feature","geometry":{"type":"Point","coordinates":[146.566,-32.7083]},"properties":{"d":"2026-09-29","t":"0313","frp":5.9,"b":342.1,"c":1,"s":"N21","n":0}},{"type":"Feature","geometry":{"type":"Point","coordinates":[146.6256,-32.3781]},"properties":{"d":"2026-09-29","t":"0313","frp":19.0,"b":367.0,"c":2,"s":"N21","n":0}},{"type":"Feature","geometry":{"type":"Point","coordinates":[146.6299,-32.3721]},"properties":{"d":"2026-09-29","t":"0313","frp":9.0,"b":330.1,"c":1,"s":"N21","n":0}},{"type":"Feature","geometry":{"type":"Point","coordinates":[146.6347,-32.3718]},"properties":{"d":"2026-09-29","t":"0313","frp":9.0,"b":344.8,"c":1,"s":"N21","n":0}},{"type":"Feature","geometry":{"type":"Point","coordinates":[146.5825,-32.3106]},"properties":{"d":"2026-09-29","t":"0313","frp":4.4,"b":331.9,"c":0,"s":"N21","n":0}},{"type":"Feature","geometry":{"type":"Point","coordinates":[149.8347,-32.1684]},"properties":{"d":"2026-09-29","t":"0313","frp":4.1,"b":331.0,"c":1,"s":"N21","n":0}},{"type":"Feature","geometry":{"type":"Point","coordinates":[152.0833,-32.1631]},"properties":{"d":"2026-09-29","t":"0313","frp":2.6,"b":330.9,"c":1,"s":"N21","n":0}},{"type":"Feature","geometry":{"type":"Point","coordinates":[146.5833,-32.3105]},"properties":{"d":"2026-09-29","t":"0315","frp":4.7,"b":331.9,"c":0,"s":"N21","n":0}},{"type":"Feature","geometry":{"type":"Point","coordinates":[145.615,-32.3056]},"properties":{"d":"2026-09-29","t":"0315","frp":10.5,"b":331.8,"c":1,"s":"N21","n":0}},{"type":"Feature","geometry":{"type":"Point","coordinates":[145.6092,-32.2998]},"properties":{"d":"2026-09-29","t":"0315","frp":15.1,"b":367.0,"c":2,"s":"N21","n":0}},{"type":"Feature","geometry":{"type":"Point","coordinates":[146.5798,-31.7039]},"properties":{"d":"2026-09-29","t":"0315","frp":2.6,"b":343.9,"c":1,"s":"N21","n":0}},{"type":"Feature","geometry":{"type":"Point","coordinates":[146.5802,-31.7033]},"properties":{"d":"2026-09-29","t":"0315","frp":1.2,"b":334.5,"c":1,"s":"N21","n":0}},{"type":"Feature","geometry":{"type":"Point","coordinates":[151.0367,-31.6537]},"properties":{"d":"2026-09-29","t":"0315","frp":7.8,"b":338.8,"c":1,"s":"N21","n":0}},{"type":"Feature","geometry":{"type":"Point","coordinates":[151.0344,-31.6527]},"properties":{"d":"2026-09-29","t":"0315","frp":6.1,"b":340.8,"c":1,"s":"N21","n":0}},{"type":"Feature","geometry":{"type":"Point","coordinates":[150.9464,-31.622]},"properties":{"d":"2026-09-29","t":"0315","frp":9.2,"b":336.1,"c":1,"s":"N21","n":0}},{"type":"Feature","geometry":{"type":"Point","coordinates":[150.9512,-31.6215]},"properties":{"d":"2026-09-29","t":"0315","frp":9.2,"b":347.5,"c":1,"s":"N21","n":0}},{"type":"Feature","geometry":{"type":"Point","coordinates":[150.9561,-31.621]},"properties":{"d":"2026-09-29","t":"0315","frp":4.8,"b":331.6,"c":1,"s":"N21","n":0}},{"type":"Feature","geometry":{"type":"Point","coordinates":[147.7328,-31.535]},"properties":{"d":"2026-09-29","t":"0315","frp":4.1,"b":336.6,"c":1,"s":"N21","n":0}},{"type":"Feature","geometry":{"type":"Point","coordinates":[147.7323,-31.5296]},"properties":{"d":"2026-09-29","t":"0315","frp":4.1,"b":350.2,"c":1,"s":"N21","n":0}},{"type":"Feature","geometry":{"type":"Point","coordinates":[147.7363,-31.5293]},"properties":{"d":"2026-09-29","t":"0315","frp":4.1,"b":330.0,"c":0,"s":"N21","n":0}},{"type":"Feature","geometry":{"type":"Point","coordinates":[146.6397,-31.2624]},"properties":{"d":"2026-09-29","t":"0315","frp":17.2,"b":367.0,"c":2,"s":"N21","n":0}},{"type":"Feature","geometry":{"type":"Point","coordinates":[146.6397,-31.261]},"properties":{"d":"2026-09-29","t":"0315","frp":16.7,"b":367.0,"c":2,"s":"N21","n":0}},{"type":"Feature","geometry":{"type":"Point","coordinates":[151.5036,-31.2159]},"properties":{"d":"2026-09-29","t":"0315","frp":6.2,"b":341.0,"c":1,"s":"N21","n":0}},{"type":"Feature","geometry":{"type":"Point","coordinates":[151.7311,-31.1931]},"properties":{"d":"2026-09-29","t":"0315","frp":2.9,"b":326.9,"c":1,"s":"N21","n":0}},{"type":"Feature","geometry":{"type":"Point","coordinates":[147.0461,-31.1711]},"properties":{"d":"2026-09-29","t":"0315","frp":8.7,"b":348.0,"c":1,"s":"N21","n":0}},{"type":"Feature","geometry":{"type":"Point","coordinates":[147.0504,-31.1708]},"properties":{"d":"2026-09-29","t":"0315","frp":8.7,"b":367.0,"c":2,"s":"N21","n":0}},{"type":"Feature","geometry":{"type":"Point","coordinates":[147.0547,-31.1705]},"properties":{"d":"2026-09-29","t":"0315","frp":7.2,"b":338.3,"c":1,"s":"N21","n":0}},{"type":"Feature","geometry":{"type":"Point","coordinates":[145.764,-31.0707]},"properties":{"d":"2026-09-29","t":"0315","frp":10.1,"b":367.0,"c":2,"s":"N21","n":0}},{"type":"Feature","geometry":{"type":"Point","coordinates":[151.9258,-31.0323]},"properties":{"d":"2026-09-29","t":"0315","frp":6.0,"b":349.3,"c":1,"s":"N21","n":0}},{"type":"Feature","geometry":{"type":"Point","coordinates":[151.9232,-31.0314]},"properties":{"d":"2026-09-29","t":"0315","frp":3.5,"b":332.5,"c":1,"s":"N21","n":0}},{"type":"Feature","geometry":{"type":"Point","coordinates":[151.9274,-31.0309]},"properties":{"d":"2026-09-29","t":"0315","frp":4.1,"b":328.0,"c":1,"s":"N21","n":0}},{"type":"Feature","geometry":{"type":"Point","coordinates":[146.5169,-30.8841]},"properties":{"d":"2026-09-29","t":"0315","frp":4.9,"b":342.4,"c":1,"s":"N21","n":0}},{"type":"Feature","geometry":{"type":"Point","coordinates":[146.5119,-30.8786]},"properties":{"d":"2026-09-29","t":"0315","frp":6.4,"b":335.9,"c":0,"s":"N21","n":0}},{"type":"Feature","geometry":{"type":"Point","coordinates":[146.5165,-30.8783]},"properties":{"d":"2026-09-29","t":"0315","frp":5.8,"b":338.8,"c":1,"s":"N21","n":0}},{"type":"Feature","geometry":{"type":"Point","coordinates":[147.7267,-30.6743]},"properties":{"d":"2026-09-29","t":"0315","frp":5.5,"b":339.0,"c":1,"s":"N21","n":0}},{"type":"Feature","geometry":{"type":"Point","coordinates":[151.4435,-30.1782]},"properties":{"d":"2026-09-29","t":"0315","frp":6.4,"b":340.3,"c":1,"s":"N21","n":0}},{"type":"Feature","geometry":{"type":"Point","coordinates":[151.448,-30.1777]},"properties":{"d":"2026-09-29","t":"0315","frp":6.4,"b":329.1,"c":1,"s":"N21","n":0}},{"type":"Feature","geometry":{"type":"Point","coordinates":[147.9959,-29.1626]},"properties":{"d":"2026-09-29","t":"0315","frp":7.4,"b":354.6,"c":1,"s":"N21","n":0}},{"type":"Feature","geometry":{"type":"Point","coordinates":[147.9963,-29.1613]},"properties":{"d":"2026-09-29","t":"0315","frp":7.4,"b":345.4,"c":1,"s":"N21","n":0}},{"type":"Feature","geometry":{"type":"Point","coordinates":[153.4929,-28.1878]},"properties":{"d":"2026-09-29","t":"0315","frp":3.6,"b":326.5,"c":1,"s":"N21","n":0}},{"type":"Feature","geometry":{"type":"Point","coordinates":[148.7047,-27.8744]},"properties":{"d":"2026-09-29","t":"0315","frp":4.5,"b":336.4,"c":1,"s":"N21","n":0}},{"type":"Feature","geometry":{"type":"Point","coordinates":[148.7689,-27.7967]},"properties":{"d":"2026-09-29","t":"0315","frp":6.6,"b":334.9,"c":1,"s":"N21","n":0}},{"type":"Feature","geometry":{"type":"Point","coordinates":[146.4337,-27.0744]},"properties":{"d":"2026-09-29","t":"0315","frp":32.3,"b":354.2,"c":1,"s":"N21","n":0}},{"type":"Feature","geometry":{"type":"Point","coordinates":[146.4378,-27.074]},"properties":{"d":"2026-09-29","t":"0315","frp":32.3,"b":346.0,"c":1,"s":"N21","n":0}},{"type":"Feature","geometry":{"type":"Point","coordinates":[146.4419,-27.0737]},"properties":{"d":"2026-09-29","t":"0315","frp":30.8,"b":367.0,"c":2,"s":"N21","n":0}},{"type":"Feature","geometry":{"type":"Point","coordinates":[146.4342,-27.0733]},"properties":{"d":"2026-09-29","t":"0315","frp":33.7,"b":350.3,"c":1,"s":"N21","n":0}},{"type":"Feature","geometry":{"type":"Point","coordinates":[146.4383,-27.073]},"properties":{"d":"2026-09-29","t":"0315","frp":33.7,"b":346.7,"c":1,"s":"N21","n":0}},{"type":"Feature","geometry":{"type":"Point","coordinates":[146.4424,-27.0727]},"properties":{"d":"2026-09-29","t":"0315","frp":29.9,"b":367.0,"c":2,"s":"N21","n":0}},{"type":"Feature","geometry":{"type":"Point","coordinates":[147.5514,-26.4536]},"properties":{"d":"2026-09-29","t":"0315","frp":3.0,"b":335.8,"c":0,"s":"N21","n":0}},{"type":"Feature","geometry":{"type":"Point","coordinates":[148.0513,-25.5179]},"properties":{"d":"2026-09-29","t":"0315","frp":9.0,"b":338.5,"c":1,"s":"N21","n":0}},{"type":"Feature","geometry":{"type":"Point","coordinates":[150.3122,-22.6759]},"properties":{"d":"2026-09-29","t":"0317","frp":12.6,"b":340.4,"c":1,"s":"N21","n":0}},{"type":"Feature","geometry":{"type":"Point","coordinates":[150.3162,-22.6754]},"properties":{"d":"2026-09-29","t":"0317","frp":10.1,"b":343.1,"c":1,"s":"N21","n":0}},{"type":"Feature","geometry":{"type":"Point","coordinates":[150.3117,-22.6717]},"properties":{"d":"2026-09-29","t":"0317","frp":7.9,"b":340.2,"c":1,"s":"N21","n":0}},{"type":"Feature","geometry":{"type":"Point","coordinates":[150.2861,-22.6621]},"properties":{"d":"2026-09-29","t":"0317","frp":6.0,"b":335.2,"c":1,"s":"N21","n":0}},{"type":"Feature","geometry":{"type":"Point","coordinates":[150.2946,-22.6611]},"properties":{"d":"2026-09-29","t":"0317","frp":17.6,"b":367.0,"c":2,"s":"N21","n":0}},{"type":"Feature","geometry":{"type":"Point","coordinates":[150.2728,-22.6552]},"properties":{"d":"2026-09-29","t":"0317","frp":7.1,"b":344.6,"c":1,"s":"N21","n":0}},{"type":"Feature","geometry":{"type":"Point","coordinates":[147.486,-22.6324]},"properties":{"d":"2026-09-29","t":"0317","frp":9.5,"b":340.7,"c":1,"s":"N21","n":0}},{"type":"Feature","geometry":{"type":"Point","coordinates":[145.8657,-22.4829]},"properties":{"d":"2026-09-29","t":"0317","frp":6.7,"b":338.7,"c":1,"s":"N21","n":0}},{"type":"Feature","geometry":{"type":"Point","coordinates":[145.8614,-22.4778]},"properties":{"d":"2026-09-29","t":"0317","frp":14.3,"b":355.3,"c":1,"s":"N21","n":0}},{"type":"Feature","geometry":{"type":"Point","coordinates":[145.8652,-22.4774]},"properties":{"d":"2026-09-29","t":"0317","frp":6.7,"b":351.2,"c":1,"s":"N21","n":0}},{"type":"Feature","geometry":{"type":"Point","coordinates":[148.6779,-21.636]},"properties":{"d":"2026-09-29","t":"0317","frp":1.6,"b":334.1,"c":1,"s":"N21","n":0}},{"type":"Feature","geometry":{"type":"Point","coordinates":[148.6761,-21.6349]},"properties":{"d":"2026-09-29","t":"0317","frp":5.1,"b":334.9,"c":1,"s":"N21","n":0}},{"type":"Feature","geometry":{"type":"Point","coordinates":[149.2971,-21.3889]},"properties":{"d":"2026-09-29","t":"0317","frp":6.2,"b":334.8,"c":1,"s":"N21","n":0}},{"type":"Feature","geometry":{"type":"Point","coordinates":[149.2965,-21.3846]},"properties":{"d":"2026-09-29","t":"0317","frp":6.5,"b":337.5,"c":1,"s":"N21","n":0}},{"type":"Feature","geometry":{"type":"Point","coordinates":[146.5235,-19.3663]},"properties":{"d":"2026-09-29","t":"0317","frp":3.6,"b":330.7,"c":1,"s":"N21","n":0}},{"type":"Feature","geometry":{"type":"Point","coordinates":[145.5976,-18.6611]},"properties":{"d":"2026-09-29","t":"0317","frp":7.4,"b":343.5,"c":1,"s":"N21","n":0}},{"type":"Feature","geometry":{"type":"Point","coordinates":[145.5973,-18.6597]},"properties":{"d":"2026-09-29","t":"0317","frp":7.1,"b":341.8,"c":1,"s":"N21","n":0}},{"type":"Feature","geometry":{"type":"Point","coordinates":[145.3312,-17.5116]},"properties":{"d":"2026-09-29","t":"0317","frp":6.1,"b":334.4,"c":1,"s":"N21","n":0}},{"type":"Feature","geometry":{"type":"Point","coordinates":[144.5104,-14.7428]},"properties":{"d":"2026-09-29","t":"0317","frp":8.6,"b":341.2,"c":1,"s":"N21","n":0}},{"type":"Feature","geometry":{"type":"Point","coordinates":[144.514,-14.7424]},"properties":{"d":"2026-09-29","t":"0317","frp":5.9,"b":346.7,"c":1,"s":"N21","n":0}},{"type":"Feature","geometry":{"type":"Point","coordinates":[144.5177,-14.742]},"properties":{"d":"2026-09-29","t":"0317","frp":5.9,"b":329.1,"c":1,"s":"N21","n":0}},{"type":"Feature","geometry":{"type":"Point","coordinates":[144.5085,-14.7414]},"properties":{"d":"2026-09-29","t":"0317","frp":10.7,"b":349.7,"c":1,"s":"N21","n":0}},{"type":"Feature","geometry":{"type":"Point","coordinates":[144.5121,-14.741]},"properties":{"d":"2026-09-29","t":"0317","frp":8.6,"b":343.8,"c":1,"s":"N21","n":0}},{"type":"Feature","geometry":{"type":"Point","coordinates":[144.5157,-14.7405]},"properties":{"d":"2026-09-29","t":"0317","frp":8.6,"b":345.1,"c":1,"s":"N21","n":0}},{"type":"Feature","geometry":{"type":"Point","coordinates":[141.8286,-13.6474]},"properties":{"d":"2026-09-29","t":"0317","frp":14.3,"b":346.9,"c":1,"s":"N21","n":0}},{"type":"Feature","geometry":{"type":"Point","coordinates":[141.8254,-13.6455]},"properties":{"d":"2026-09-29","t":"0317","frp":10.2,"b":330.0,"c":1,"s":"N21","n":0}},{"type":"Feature","geometry":{"type":"Point","coordinates":[141.8307,-13.6449]},"properties":{"d":"2026-09-29","t":"0317","frp":10.2,"b":346.3,"c":1,"s":"N21","n":0}},{"type":"Feature","geometry":{"type":"Point","coordinates":[141.8334,-13.6404]},"properties":{"d":"2026-09-29","t":"0317","frp":9.7,"b":331.2,"c":1,"s":"N21","n":0}},{"type":"Feature","geometry":{"type":"Point","coordinates":[141.8387,-13.6399]},"properties":{"d":"2026-09-29","t":"0317","frp":9.7,"b":331.8,"c":1,"s":"N21","n":0}},{"type":"Feature","geometry":{"type":"Point","coordinates":[141.8407,-13.6373]},"properties":{"d":"2026-09-29","t":"0317","frp":20.0,"b":344.1,"c":1,"s":"N21","n":0}},{"type":"Feature","geometry":{"type":"Point","coordinates":[141.8433,-13.6329]},"properties":{"d":"2026-09-29","t":"0317","frp":17.9,"b":340.2,"c":1,"s":"N21","n":0}},{"type":"Feature","geometry":{"type":"Point","coordinates":[141.8454,-13.6303]},"properties":{"d":"2026-09-29","t":"0317","frp":10.4,"b":336.4,"c":1,"s":"N21","n":0}},{"type":"Feature","geometry":{"type":"Point","coordinates":[141.8502,-13.6234]},"properties":{"d":"2026-09-29","t":"0317","frp":10.4,"b":347.3,"c":1,"s":"N21","n":0}},{"type":"Feature","geometry":{"type":"Point","coordinates":[141.8554,-13.6228]},"properties":{"d":"2026-09-29","t":"0317","frp":9.1,"b":331.6,"c":1,"s":"N21","n":0}},{"type":"Feature","geometry":{"type":"Point","coordinates":[141.8549,-13.6164]},"properties":{"d":"2026-09-29","t":"0317","frp":10.5,"b":329.5,"c":1,"s":"N21","n":0}},{"type":"Feature","geometry":{"type":"Point","coordinates":[141.9972,-13.0654]},"properties":{"d":"2026-09-29","t":"0317","frp":7.6,"b":336.0,"c":1,"s":"N21","n":0}},{"type":"Feature","geometry":{"type":"Point","coordinates":[142.0707,-12.6022]},"properties":{"d":"2026-09-29","t":"0317","frp":10.0,"b":340.9,"c":1,"s":"N21","n":0}},{"type":"Feature","geometry":{"type":"Point","coordinates":[142.065,-12.5966]},"properties":{"d":"2026-09-29","t":"0317","frp":10.0,"b":342.8,"c":1,"s":"N21","n":0}},{"type":"Feature","geometry":{"type":"Point","coordinates":[142.0643,-12.5904]},"properties":{"d":"2026-09-29","t":"0317","frp":10.0,"b":332.9,"c":1,"s":"N21","n":0}},{"type":"Feature","geometry":{"type":"Point","coordinates":[141.8888,-12.299]},"properties":{"d":"2026-09-29","t":"0317","frp":5.6,"b":330.9,"c":1,"s":"N21","n":0}},{"type":"Feature","geometry":{"type":"Point","coordinates":[142.0641,-12.0861]},"properties":{"d":"2026-09-29","t":"0317","frp":7.2,"b":328.8,"c":1,"s":"N21","n":0}},{"type":"Feature","geometry":{"type":"Point","coordinates":[142.0044,-11.8623]},"properties":{"d":"2026-09-29","t":"0317","frp":5.2,"b":329.8,"c":1,"s":"N21","n":0}},{"type":"Feature","geometry":{"type":"Point","coordinates":[142.1433,-11.416]},"properties":{"d":"2026-09-29","t":"0317","frp":13.0,"b":330.9,"c":1,"s":"N21","n":0}},{"type":"Feature","geometry":{"type":"Point","coordinates":[142.1526,-11.4149]},"properties":{"d":"2026-09-29","t":"0317","frp":16.7,"b":340.9,"c":1,"s":"N21","n":0}},{"type":"Feature","geometry":{"type":"Point","coordinates":[150.9176,-10.6241]},"properties":{"d":"2026-09-29","t":"0317","frp":10.0,"b":342.7,"c":1,"s":"N21","n":0}},{"type":"Feature","geometry":{"type":"Point","coordinates":[144.5756,-15.5815]},"properties":{"d":"2026-09-29","t":"0319","frp":12.7,"b":347.1,"c":1,"s":"N21","n":0}},{"type":"Feature","geometry":{"type":"Point","coordinates":[144.5791,-15.5811]},"properties":{"d":"2026-09-29","t":"0319","frp":12.7,"b":349.9,"c":1,"s":"N21","n":0}},{"type":"Feature","geometry":{"type":"Point","coordinates":[144.5721,-15.5809]},"properties":{"d":"2026-09-29","t":"0319","frp":6.0,"b":335.7,"c":1,"s":"N21","n":0}},{"type":"Feature","geometry":{"type":"Point","coordinates":[144.5828,-15.5807]},"properties":{"d":"2026-09-29","t":"0319","frp":19.7,"b":367.0,"c":2,"s":"N21","n":0}},{"type":"Feature","geometry":{"type":"Point","coordinates":[144.5757,-15.5805]},"properties":{"d":"2026-09-29","t":"0319","frp":10.8,"b":348.7,"c":1,"s":"N21","n":0}},{"type":"Feature","geometry":{"type":"Point","coordinates":[144.5792,-15.5801]},"properties":{"d":"2026-09-29","t":"0319","frp":10.8,"b":367.0,"c":2,"s":"N21","n":0}},{"type":"Feature","geometry":{"type":"Point","coordinates":[144.5904,-15.5799]},"properties":{"d":"2026-09-29","t":"0319","frp":7.2,"b":339.3,"c":1,"s":"N21","n":0}},{"type":"Feature","geometry":{"type":"Point","coordinates":[144.5829,-15.5797]},"properties":{"d":"2026-09-29","t":"0319","frp":15.8,"b":367.0,"c":2,"s":"N21","n":0}},{"type":"Feature","geometry":{"type":"Point","coordinates":[144.8013,-15.5789]},"properties":{"d":"2026-09-29","t":"0319","frp":9.9,"b":367.0,"c":2,"s":"N21","n":0}},{"type":"Feature","geometry":{"type":"Point","coordinates":[144.5905,-15.5788]},"properties":{"d":"2026-09-29","t":"0319","frp":3.7,"b":334.5,"c":1,"s":"N21","n":0}},{"type":"Feature","geometry":{"type":"Point","coordinates":[144.5679,-15.5767]},"properties":{"d":"2026-09-29","t":"0319","frp":12.4,"b":367.0,"c":2,"s":"N21","n":0}},{"type":"Feature","geometry":{"type":"Point","coordinates":[144.5714,-15.5763]},"properties":{"d":"2026-09-29","t":"0319","frp":12.4,"b":337.1,"c":1,"s":"N21","n":0}},{"type":"Feature","geometry":{"type":"Point","coordinates":[144.568,-15.5758]},"properties":{"d":"2026-09-29","t":"0319","frp":18.1,"b":367.0,"c":2,"s":"N21","n":0}},{"type":"Feature","geometry":{"type":"Point","coordinates":[144.8002,-15.5735]},"properties":{"d":"2026-09-29","t":"0319","frp":9.9,"b":343.9,"c":1,"s":"N21","n":0}},{"type":"Feature","geometry":{"type":"Point","coordinates":[144.5781,-15.5701]},"properties":{"d":"2026-09-29","t":"0319","frp":6.8,"b":336.8,"c":1,"s":"N21","n":0}},{"type":"Feature","geometry":{"type":"Point","coordinates":[144.7849,-15.5697]},"properties":{"d":"2026-09-29","t":"0319","frp":4.7,"b":331.8,"c":1,"s":"N21","n":0}},{"type":"Feature","geometry":{"type":"Point","coordinates":[144.5819,-15.5697]},"properties":{"d":"2026-09-29","t":"0319","frp":10.2,"b":345.1,"c":1,"s":"N21","n":0}},{"type":"Feature","geometry":{"type":"Point","coordinates":[144.5782,-15.5691]},"properties":{"d":"2026-09-29","t":"0319","frp":8.6,"b":340.1,"c":1,"s":"N21","n":0}},{"type":"Feature","geometry":{"type":"Point","coordinates":[144.7921,-15.5689]},"properties":{"d":"2026-09-29","t":"0319","frp":9.4,"b":343.6,"c":1,"s":"N21","n":0}},{"type":"Feature","geometry":{"type":"Point","coordinates":[144.5821,-15.5687]},"properties":{"d":"2026-09-29","t":"0319","frp":8.4,"b":331.1,"c":1,"s":"N21","n":0}},{"type":"Feature","geometry":{"type":"Point","coordinates":[144.7956,-15.5686]},"properties":{"d":"2026-09-29","t":"0319","frp":12.7,"b":367.0,"c":2,"s":"N21","n":0}},{"type":"Feature","geometry":{"type":"Point","coordinates":[141.613,-15.3484]},"properties":{"d":"2026-09-29","t":"0319","frp":5.7,"b":333.9,"c":1,"s":"N21","n":0}},{"type":"Feature","geometry":{"type":"Point","coordinates":[141.6188,-15.3479]},"properties":{"d":"2026-09-29","t":"0319","frp":8.9,"b":338.9,"c":1,"s":"N21","n":0}},{"type":"Feature","geometry":{"type":"Point","coordinates":[141.6152,-15.3429]},"properties":{"d":"2026-09-29","t":"0319","frp":59.8,"b":351.0,"c":1,"s":"N21","n":0}},{"type":"Feature","geometry":{"type":"Point","coordinates":[141.6146,-15.3363]},"properties":{"d":"2026-09-29","t":"0319","frp":59.8,"b":339.4,"c":1,"s":"N21","n":0}},{"type":"Feature","geometry":{"type":"Point","coordinates":[141.6204,-15.3357]},"properties":{"d":"2026-09-29","t":"0319","frp":54.6,"b":367.0,"c":2,"s":"N21","n":0}},{"type":"Feature","geometry":{"type":"Point","coordinates":[141.6118,-15.3352]},"properties":{"d":"2026-09-29","t":"0319","frp":66.5,"b":345.0,"c":1,"s":"N21","n":0}},{"type":"Feature","geometry":{"type":"Point","coordinates":[141.6261,-15.3351]},"properties":{"d":"2026-09-29","t":"0319","frp":54.6,"b":337.8,"c":1,"s":"N21","n":0}},{"type":"Feature","geometry":{"type":"Point","coordinates":[141.6175,-15.3347]},"properties":{"d":"2026-09-29","t":"0319","frp":76.8,"b":351.3,"c":1,"s":"N21","n":0}},{"type":"Feature","geometry":{"type":"Point","coordinates":[141.6233,-15.3341]},"properties":{"d":"2026-09-29","t":"0319","frp":76.8,"b":367.0,"c":2,"s":"N21","n":0}},{"type":"Feature","geometry":{"type":"Point","coordinates":[141.7265,-15.2984]},"properties":{"d":"2026-09-29","t":"0319","frp":9.5,"b":331.2,"c":1,"s":"N21","n":0}},{"type":"Feature","geometry":{"type":"Point","coordinates":[141.719,-15.2793]},"properties":{"d":"2026-09-29","t":"0319","frp":9.7,"b":338.5,"c":1,"s":"N21","n":0}},{"type":"Feature","geometry":{"type":"Point","coordinates":[141.7247,-15.2788]},"properties":{"d":"2026-09-29","t":"0319","frp":9.7,"b":351.9,"c":1,"s":"N21","n":0}},{"type":"Feature","geometry":{"type":"Point","coordinates":[142.2562,-11.1026]},"properties":{"d":"2026-09-29","t":"0319","frp":7.6,"b":327.1,"c":1,"s":"N21","n":0}},{"type":"Feature","geometry":{"type":"Point","coordinates":[142.2653,-11.1015]},"properties":{"d":"2026-09-29","t":"0319","frp":4.8,"b":327.7,"c":1,"s":"N21","n":0}},{"type":"Feature","geometry":{"type":"Point","coordinates":[142.2698,-11.101]},"properties":{"d":"2026-09-29","t":"0319","frp":4.8,"b":325.0,"c":1,"s":"N21","n":0}},{"type":"Feature","geometry":{"type":"Point","coordinates":[142.2375,-11.0621]},"properties":{"d":"2026-09-29","t":"0319","frp":13.6,"b":338.7,"c":1,"s":"N21","n":0}},{"type":"Feature","geometry":{"type":"Point","coordinates":[142.242,-11.0615]},"properties":{"d":"2026-09-29","t":"0319","frp":9.6,"b":337.6,"c":1,"s":"N21","n":0}},{"type":"Feature","geometry":{"type":"Point","coordinates":[142.2382,-11.0599]},"properties":{"d":"2026-09-29","t":"0319","frp":15.1,"b":353.6,"c":1,"s":"N21","n":0}},{"type":"Feature","geometry":{"type":"Point","coordinates":[150.4646,-10.2057]},"properties":{"d":"2026-09-29","t":"0319","frp":11.2,"b":334.2,"c":0,"s":"N21","n":0}},{"type":"Feature","geometry":{"type":"Point","coordinates":[149.8847,-10.1561]},"properties":{"d":"2026-09-29","t":"0319","frp":4.8,"b":331.1,"c":1,"s":"N21","n":0}},{"type":"Feature","geometry":{"type":"Point","coordinates":[147.9843,-10.0802]},"properties":{"d":"2026-09-29","t":"0319","frp":3.7,"b":334.3,"c":1,"s":"N21","n":0}},{"type":"Feature","geometry":{"type":"Point","coordinates":[147.9725,-10.0737]},"properties":{"d":"2026-09-29","t":"0319","frp":4.3,"b":339.0,"c":1,"s":"N21","n":0}},{"type":"Feature","geometry":{"type":"Point","coordinates":[147.758,-10.0288]},"properties":{"d":"2026-09-29","t":"0319","frp":4.6,"b":333.3,"c":1,"s":"N21","n":0}},{"type":"Feature","geometry":{"type":"Point","coordinates":[147.9994,-10.0288]},"properties":{"d":"2026-09-29","t":"0319","frp":4.7,"b":336.1,"c":1,"s":"N21","n":0}},{"type":"Feature","geometry":{"type":"Point","coordinates":[147.7586,-10.0283]},"properties":{"d":"2026-09-29","t":"0319","frp":2.4,"b":337.1,"c":1,"s":"N21","n":0}},{"type":"Feature","geometry":{"type":"Point","coordinates":[151.0711,-10.0238]},"properties":{"d":"2026-09-29","t":"0319","frp":3.9,"b":330.8,"c":1,"s":"N21","n":0}},{"type":"Feature","geometry":{"type":"Point","coordinates":[147.8363,-10.022]},"properties":{"d":"2026-09-29","t":"0319","frp":7.3,"b":341.1,"c":1,"s":"N21","n":0}},{"type":"Feature","geometry":{"type":"Point","coordinates":[147.9487,-10.0027]},"properties":{"d":"2026-09-29","t":"0319","frp":6.7,"b":345.1,"c":1,"s":"N21","n":0}},{"type":"Feature","geometry":{"type":"Point","coordinates":[147.9477,-10.0019]},"properties":{"d":"2026-09-29","t":"0319","frp":3.8,"b":340.2,"c":1,"s":"N21","n":0}},{"type":"Feature","geometry":{"type":"Point","coordinates":[150.9983,-9.9749]},"properties":{"d":"2026-09-29","t":"0319","frp":2.9,"b":330.6,"c":1,"s":"N21","n":0}},{"type":"Feature","geometry":{"type":"Point","coordinates":[148.0016,-9.9408]},"properties":{"d":"2026-09-29","t":"0319","frp":3.0,"b":330.7,"c":1,"s":"N21","n":0}},{"type":"Feature","geometry":{"type":"Point","coordinates":[148.012,-9.9148]},"properties":{"d":"2026-09-29","t":"0319","frp":5.7,"b":336.4,"c":1,"s":"N21","n":0}},{"type":"Feature","geometry":{"type":"Point","coordinates":[147.7931,-9.8992]},"properties":{"d":"2026-09-29","t":"0319","frp":5.0,"b":346.0,"c":1,"s":"N21","n":0}},{"type":"Feature","geometry":{"type":"Point","coordinates":[147.6685,-9.8832]},"properties":{"d":"2026-09-29","t":"0319","frp":2.5,"b":330.4,"c":1,"s":"N21","n":0}},{"type":"Feature","geometry":{"type":"Point","coordinates":[147.7605,-9.8788]},"properties":{"d":"2026-09-29","t":"0319","frp":2.2,"b":333.6,"c":1,"s":"N21","n":0}},{"type":"Feature","geometry":{"type":"Point","coordinates":[149.5877,-9.8369]},"properties":{"d":"2026-09-29","t":"0319","frp":5.3,"b":331.3,"c":0,"s":"N21","n":0}},{"type":"Feature","geometry":{"type":"Point","coordinates":[149.2844,-9.831]},"properties":{"d":"2026-09-29","t":"0319","frp":13.9,"b":337.3,"c":0,"s":"N21","n":0}},{"type":"Feature","geometry":{"type":"Point","coordinates":[149.2887,-9.8304]},"properties":{"d":"2026-09-29","t":"0319","frp":17.1,"b":338.5,"c":0,"s":"N21","n":0}},{"type":"Feature","geometry":{"type":"Point","coordinates":[149.2926,-9.8299]},"properties":{"d":"2026-09-29","t":"0319","frp":17.1,"b":330.5,"c":0,"s":"N21","n":0}},{"type":"Feature","geometry":{"type":"Point","coordinates":[149.2793,-9.8279]},"properties":{"d":"2026-09-29","t":"0319","frp":13.6,"b":336.6,"c":0,"s":"N21","n":0}},{"type":"Feature","geometry":{"type":"Point","coordinates":[149.2919,-9.8262]},"properties":{"d":"2026-09-29","t":"0319","frp":36.2,"b":349.1,"c":0,"s":"N21","n":0}},{"type":"Feature","geometry":{"type":"Point","coordinates":[149.2787,-9.8242]},"properties":{"d":"2026-09-29","t":"0319","frp":13.6,"b":342.6,"c":0,"s":"N21","n":0}},{"type":"Feature","geometry":{"type":"Point","coordinates":[149.2731,-9.8212]},"properties":{"d":"2026-09-29","t":"0319","frp":28.0,"b":345.0,"c":1,"s":"N21","n":0}},{"type":"Feature","geometry":{"type":"Point","coordinates":[149.278,-9.8205]},"properties":{"d":"2026-09-29","t":"0319","frp":18.1,"b":336.7,"c":0,"s":"N21","n":0}},{"type":"Feature","geometry":{"type":"Point","coordinates":[149.2738,-9.8187]},"properties":{"d":"2026-09-29","t":"0319","frp":7.7,"b":333.9,"c":0,"s":"N21","n":0}},{"type":"Feature","geometry":{"type":"Point","coordinates":[149.2986,-9.8177]},"properties":{"d":"2026-09-29","t":"0319","frp":14.8,"b":338.5,"c":0,"s":"N21","n":0}},{"type":"Feature","geometry":{"type":"Point","coordinates":[149.2731,-9.815]},"properties":{"d":"2026-09-29","t":"0319","frp":7.7,"b":339.2,"c":1,"s":"N21","n":0}},{"type":"Feature","geometry":{"type":"Point","coordinates":[149.2993,-9.815]},"properties":{"d":"2026-09-29","t":"0319","frp":28.8,"b":334.4,"c":1,"s":"N21","n":0}},{"type":"Feature","geometry":{"type":"Point","coordinates":[149.2904,-9.815]},"properties":{"d":"2026-09-29","t":"0319","frp":21.6,"b":339.7,"c":0,"s":"N21","n":0}},{"type":"Feature","geometry":{"type":"Point","coordinates":[149.2983,-9.8139]},"properties":{"d":"2026-09-29","t":"0319","frp":14.8,"b":349.9,"c":1,"s":"N21","n":0}},{"type":"Feature","geometry":{"type":"Point","coordinates":[149.2717,-9.8138]},"properties":{"d":"2026-09-29","t":"0319","frp":11.3,"b":338.9,"c":1,"s":"N21","n":0}},{"type":"Feature","geometry":{"type":"Point","coordinates":[147.8668,-9.7978]},"properties":{"d":"2026-09-29","t":"0319","frp":6.6,"b":331.0,"c":1,"s":"N21","n":0}},{"type":"Feature","geometry":{"type":"Point","coordinates":[148.7104,-9.7806]},"properties":{"d":"2026-09-29","t":"0319","frp":6.3,"b":335.7,"c":1,"s":"N21","n":0}},{"type":"Feature","geometry":{"type":"Point","coordinates":[148.7079,-9.7794]},"properties":{"d":"2026-09-29","t":"0319","frp":12.2,"b":338.0,"c":1,"s":"N21","n":0}},{"type":"Feature","geometry":{"type":"Point","coordinates":[148.7122,-9.7788]},"properties":{"d":"2026-09-29","t":"0319","frp":8.1,"b":332.3,"c":1,"s":"N21","n":0}},{"type":"Feature","geometry":{"type":"Point","coordinates":[148.7098,-9.7768]},"properties":{"d":"2026-09-29","t":"0319","frp":17.3,"b":347.5,"c":1,"s":"N21","n":0}},{"type":"Feature","geometry":{"type":"Point","coordinates":[148.7172,-9.7679]},"properties":{"d":"2026-09-29","t":"0319","frp":5.8,"b":334.7,"c":1,"s":"N21","n":0}},{"type":"Feature","geometry":{"type":"Point","coordinates":[147.7913,-9.7456]},"properties":{"d":"2026-09-29","t":"0319","frp":5.2,"b":340.0,"c":1,"s":"N21","n":0}},{"type":"Feature","geometry":{"type":"Point","coordinates":[147.7853,-9.7298]},"properties":{"d":"2026-09-29","t":"0319","frp":2.6,"b":331.6,"c":1,"s":"N21","n":0}},{"type":"Feature","geometry":{"type":"Point","coordinates":[147.55,-9.7257]},"properties":{"d":"2026-09-29","t":"0319","frp":3.6,"b":332.6,"c":1,"s":"N21","n":0}},{"type":"Feature","geometry":{"type":"Point","coordinates":[147.546,-9.722]},"properties":{"d":"2026-09-29","t":"0319","frp":3.6,"b":338.6,"c":1,"s":"N21","n":0}},{"type":"Feature","geometry":{"type":"Point","coordinates":[147.7604,-9.7166]},"properties":{"d":"2026-09-29","t":"0319","frp":5.9,"b":340.0,"c":1,"s":"N21","n":0}},{"type":"Feature","geometry":{"type":"Point","coordinates":[147.764,-9.7161]},"properties":{"d":"2026-09-29","t":"0319","frp":3.5,"b":335.3,"c":1,"s":"N21","n":0}},{"type":"Feature","geometry":{"type":"Point","coordinates":[147.6056,-9.7136]},"properties":{"d":"2026-09-29","t":"0319","frp":2.3,"b":329.7,"c":0,"s":"N21","n":0}},{"type":"Feature","geometry":{"type":"Point","coordinates":[147.4535,-9.7054]},"properties":{"d":"2026-09-29","t":"0319","frp":3.4,"b":331.6,"c":1,"s":"N21","n":0}},{"type":"Feature","geometry":{"type":"Point","coordinates":[147.8189,-9.6962]},"properties":{"d":"2026-09-29","t":"0319","frp":5.8,"b":341.1,"c":1,"s":"N21","n":0}},{"type":"Feature","geometry":{"type":"Point","coordinates":[147.8184,-9.6959]},"properties":{"d":"2026-09-29","t":"0319","frp":5.0,"b":338.7,"c":1,"s":"N21","n":0}},{"type":"Feature","geometry":{"type":"Point","coordinates":[149.8648,-9.6885]},"properties":{"d":"2026-09-29","t":"0319","frp":7.5,"b":332.4,"c":0,"s":"N21","n":0}},{"type":"Feature","geometry":{"type":"Point","coordinates":[147.8535,-9.6874]},"properties":{"d":"2026-09-29","t":"0319","frp":3.4,"b":331.7,"c":1,"s":"N21","n":0}},{"type":"Feature","geometry":{"type":"Point","coordinates":[147.8529,-9.6869]},"properties":{"d":"2026-09-29","t":"0319","frp":3.9,"b":331.8,"c":1,"s":"N21","n":0}},{"type":"Feature","geometry":{"type":"Point","coordinates":[147.8918,-9.6731]},"properties":{"d":"2026-09-29","t":"0319","frp":3.9,"b":334.1,"c":1,"s":"N21","n":0}},{"type":"Feature","geometry":{"type":"Point","coordinates":[149.8108,-9.6705]},"properties":{"d":"2026-09-29","t":"0319","frp":6.2,"b":344.4,"c":1,"s":"N21","n":0}},{"type":"Feature","geometry":{"type":"Point","coordinates":[147.8274,-9.6657]},"properties":{"d":"2026-09-29","t":"0319","frp":3.4,"b":329.2,"c":0,"s":"N21","n":0}},{"type":"Feature","geometry":{"type":"Point","coordinates":[147.7941,-9.6621]},"properties":{"d":"2026-09-29","t":"0319","frp":2.8,"b":334.3,"c":1,"s":"N21","n":0}},{"type":"Feature","geometry":{"type":"Point","coordinates":[148.3139,-9.657]},"properties":{"d":"2026-09-29","t":"0319","frp":4.4,"b":329.8,"c":1,"s":"N21","n":0}},{"type":"Feature","geometry":{"type":"Point","coordinates":[147.6913,-9.6431]},"properties":{"d":"2026-09-29","t":"0319","frp":2.9,"b":336.9,"c":1,"s":"N21","n":0}},{"type":"Feature","geometry":{"type":"Point","coordinates":[147.6948,-9.6426]},"properties":{"d":"2026-09-29","t":"0319","frp":5.9,"b":334.2,"c":1,"s":"N21","n":0}},{"type":"Feature","geometry":{"type":"Point","coordinates":[149.8092,-9.6302]},"properties":{"d":"2026-09-29","t":"0319","frp":6.6,"b":346.8,"c":1,"s":"N21","n":0}},{"type":"Feature","geometry":{"type":"Point","coordinates":[149.8102,-9.6285]},"properties":{"d":"2026-09-29","t":"0319","frp":21.8,"b":346.8,"c":0,"s":"N21","n":0}},{"type":"Feature","geometry":{"type":"Point","coordinates":[149.8086,-9.6266]},"properties":{"d":"2026-09-29","t":"0319","frp":6.6,"b":335.0,"c":0,"s":"N21","n":0}},{"type":"Feature","geometry":{"type":"Point","coordinates":[148.5835,-9.6196]},"properties":{"d":"2026-09-29","t":"0319","frp":4.8,"b":333.9,"c":1,"s":"N21","n":0}},{"type":"Feature","geometry":{"type":"Point","coordinates":[151.0184,-9.6183]},"properties":{"d":"2026-09-29","t":"0319","frp":4.2,"b":331.6,"c":1,"s":"N21","n":0}},{"type":"Feature","geometry":{"type":"Point","coordinates":[147.6514,-9.6032]},"properties":{"d":"2026-09-29","t":"0319","frp":2.2,"b":329.8,"c":1,"s":"N21","n":0}},{"type":"Feature","geometry":{"type":"Point","coordinates":[148.7722,-9.601]},"properties":{"d":"2026-09-29","t":"0319","frp":16.0,"b":341.4,"c":1,"s":"N21","n":0}},{"type":"Feature","geometry":{"type":"Point","coordinates":[148.615,-9.5503]},"properties":{"d":"2026-09-29","t":"0319","frp":7.2,"b":342.6,"c":1,"s":"N21","n":0}},{"type":"Feature","geometry":{"type":"Point","coordinates":[148.5011,-9.5467]},"properties":{"d":"2026-09-29","t":"0319","frp":11.9,"b":337.4,"c":1,"s":"N21","n":0}},{"type":"Feature","geometry":{"type":"Point","coordinates":[147.3266,-9.5466]},"properties":{"d":"2026-09-29","t":"0319","frp":3.9,"b":331.1,"c":1,"s":"N21","n":0}},{"type":"Feature","geometry":{"type":"Point","coordinates":[147.3261,-9.5456]},"properties":{"d":"2026-09-29","t":"0319","frp":3.9,"b":330.6,"c":0,"s":"N21","n":0}},{"type":"Feature","geometry":{"type":"Point","coordinates":[148.5005,-9.5428]},"properties":{"d":"2026-09-29","t":"0319","frp":4.7,"b":332.2,"c":1,"s":"N21","n":0}},{"type":"Feature","geometry":{"type":"Point","coordinates":[148.6923,-9.5041]},"properties":{"d":"2026-09-29","t":"0319","frp":9.3,"b":334.3,"c":1,"s":"N21","n":0}},{"type":"Feature","geometry":{"type":"Point","coordinates":[148.4393,-9.4828]},"properties":{"d":"2026-09-29","t":"0319","frp":7.3,"b":333.9,"c":1,"s":"N21","n":0}},{"type":"Feature","geometry":{"type":"Point","coordinates":[148.8442,-9.4556]},"properties":{"d":"2026-09-29","t":"0319","frp":4.4,"b":332.0,"c":1,"s":"N21","n":0}},{"type":"Feature","geometry":{"type":"Point","coordinates":[147.0877,-9.4408]},"properties":{"d":"2026-09-29","t":"0319","frp":10.5,"b":340.6,"c":1,"s":"N21","n":0}},{"type":"Feature","geometry":{"type":"Point","coordinates":[148.7561,-9.4296]},"properties":{"d":"2026-09-29","t":"0319","frp":5.9,"b":332.8,"c":1,"s":"N21","n":0}},{"type":"Feature","geometry":{"type":"Point","coordinates":[148.7636,-9.413]},"properties":{"d":"2026-09-29","t":"0319","frp":5.0,"b":330.3,"c":1,"s":"N21","n":0}},{"type":"Feature","geometry":{"type":"Point","coordinates":[148.773,-9.4116]},"properties":{"d":"2026-09-29","t":"0319","frp":7.2,"b":330.8,"c":1,"s":"N21","n":0}},{"type":"Feature","geometry":{"type":"Point","coordinates":[148.762,-9.4015]},"properties":{"d":"2026-09-29","t":"0319","frp":8.7,"b":340.2,"c":1,"s":"N21","n":0}},{"type":"Feature","geometry":{"type":"Point","coordinates":[147.2273,-9.3999]},"properties":{"d":"2026-09-29","t":"0319","frp":2.1,"b":334.2,"c":1,"s":"N21","n":0}},{"type":"Feature","geometry":{"type":"Point","coordinates":[148.7614,-9.3977]},"properties":{"d":"2026-09-29","t":"0319","frp":5.1,"b":338.0,"c":1,"s":"N21","n":0}},{"type":"Feature","geometry":{"type":"Point","coordinates":[148.7662,-9.3971]},"properties":{"d":"2026-09-29","t":"0319","frp":5.1,"b":331.7,"c":1,"s":"N21","n":0}},{"type":"Feature","geometry":{"type":"Point","coordinates":[147.3952,-9.3936]},"properties":{"d":"2026-09-29","t":"0319","frp":4.8,"b":333.1,"c":1,"s":"N21","n":0}},{"type":"Feature","geometry":{"type":"Point","coordinates":[148.7656,-9.3932]},"properties":{"d":"2026-09-29","t":"0319","frp":5.1,"b":336.0,"c":1,"s":"N21","n":0}},{"type":"Feature","geometry":{"type":"Point","coordinates":[148.7123,-9.393]},"properties":{"d":"2026-09-29","t":"0319","frp":7.0,"b":330.9,"c":1,"s":"N21","n":0}},{"type":"Feature","geometry":{"type":"Point","coordinates":[148.7703,-9.3926]},"properties":{"d":"2026-09-29","t":"0319","frp":6.0,"b":332.9,"c":1,"s":"N21","n":0}},{"type":"Feature","geometry":{"type":"Point","coordinates":[148.775,-9.3919]},"properties":{"d":"2026-09-29","t":"0319","frp":6.0,"b":330.4,"c":0,"s":"N21","n":0}},{"type":"Feature","geometry":{"type":"Point","coordinates":[147.3946,-9.3895]},"properties":{"d":"2026-09-29","t":"0319","frp":3.2,"b":329.3,"c":0,"s":"N21","n":0}},{"type":"Feature","geometry":{"type":"Point","coordinates":[148.7651,-9.3894]},"properties":{"d":"2026-09-29","t":"0319","frp":3.6,"b":333.5,"c":1,"s":"N21","n":0}},{"type":"Feature","geometry":{"type":"Point","coordinates":[147.2332,-9.3862]},"properties":{"d":"2026-09-29","t":"0319","frp":3.9,"b":341.4,"c":1,"s":"N21","n":0}},{"type":"Feature","geometry":{"type":"Point","coordinates":[149.0743,-9.3724]},"properties":{"d":"2026-09-29","t":"0319","frp":3.5,"b":333.4,"c":1,"s":"N21","n":0}},{"type":"Feature","geometry":{"type":"Point","coordinates":[149.0733,-9.365]},"properties":{"d":"2026-09-29","t":"0319","frp":3.9,"b":330.9,"c":0,"s":"N21","n":0}},{"type":"Feature","geometry":{"type":"Point","coordinates":[149.0591,-9.3631]},"properties":{"d":"2026-09-29","t":"0319","frp":13.7,"b":334.7,"c":0,"s":"N21","n":0}},{"type":"Feature","geometry":{"type":"Point","coordinates":[148.7849,-9.3595]},"properties":{"d":"2026-09-29","t":"0319","frp":6.8,"b":331.3,"c":1,"s":"N21","n":0}},{"type":"Feature","geometry":{"type":"Point","coordinates":[148.7655,-9.3583]},"properties":{"d":"2026-09-29","t":"0319","frp":6.7,"b":330.6,"c":0,"s":"N21","n":0}},{"type":"Feature","geometry":{"type":"Point","coordinates":[149.1274,-9.3572]},"properties":{"d":"2026-09-29","t":"0319","frp":11.2,"b":336.1,"c":0,"s":"N21","n":0}},{"type":"Feature","geometry":{"type":"Point","coordinates":[149.0205,-9.3533]},"properties":{"d":"2026-09-29","t":"0319","frp":4.5,"b":333.3,"c":1,"s":"N21","n":0}},{"type":"Feature","geometry":{"type":"Point","coordinates":[148.7983,-9.3425]},"properties":{"d":"2026-09-29","t":"0319","frp":18.3,"b":345.3,"c":1,"s":"N21","n":0}},{"type":"Feature","geometry":{"type":"Point","coordinates":[148.7968,-9.3423]},"properties":{"d":"2026-09-29","t":"0319","frp":9.4,"b":333.8,"c":0,"s":"N21","n":0}},{"type":"Feature","geometry":{"type":"Point","coordinates":[148.803,-9.3418]},"properties":{"d":"2026-09-29","t":"0319","frp":7.3,"b":331.3,"c":1,"s":"N21","n":0}},{"type":"Feature","geometry":{"type":"Point","coordinates":[149.0748,-9.3418]},"properties":{"d":"2026-09-29","t":"0319","frp":8.5,"b":341.3,"c":1,"s":"N21","n":0}},{"type":"Feature","geometry":{"type":"Point","coordinates":[148.8015,-9.3416]},"properties":{"d":"2026-09-29","t":"0319","frp":16.3,"b":344.5,"c":1,"s":"N21","n":0}},{"type":"Feature","geometry":{"type":"Point","coordinates":[147.287,-9.3405]},"properties":{"d":"2026-09-29","t":"0319","frp":11.6,"b":352.0,"c":1,"s":"N21","n":0}},{"type":"Feature","geometry":{"type":"Point","coordinates":[147.2875,-9.3392]},"properties":{"d":"2026-09-29","t":"0319","frp":13.5,"b":341.9,"c":1,"s":"N21","n":0}},{"type":"Feature","geometry":{"type":"Point","coordinates":[148.8024,-9.338]},"properties":{"d":"2026-09-29","t":"0319","frp":4.7,"b":333.3,"c":1,"s":"N21","n":0}},{"type":"Feature","geometry":{"type":"Point","coordinates":[147.199,-9.3346]},"properties":{"d":"2026-09-29","t":"0319","frp":5.2,"b":342.4,"c":1,"s":"N21","n":0}},{"type":"Feature","geometry":{"type":"Point","coordinates":[149.0263,-9.3257]},"properties":{"d":"2026-09-29","t":"0319","frp":8.0,"b":333.1,"c":0,"s":"N21","n":0}},{"type":"Feature","geometry":{"type":"Point","coordinates":[148.7664,-9.3199]},"properties":{"d":"2026-09-29","t":"0319","frp":5.2,"b":336.0,"c":1,"s":"N21","n":0}},{"type":"Feature","geometry":{"type":"Point","coordinates":[147.2882,-9.3135]},"properties":{"d":"2026-09-29","t":"0319","frp":5.6,"b":338.6,"c":1,"s":"N21","n":0}},{"type":"Feature","geometry":{"type":"Point","coordinates":[147.2875,-9.3093]},"properties":{"d":"2026-09-29","t":"0319","frp":5.6,"b":342.2,"c":1,"s":"N21","n":0}},{"type":"Feature","geometry":{"type":"Point","coordinates":[149.0917,-9.2807]},"properties":{"d":"2026-09-29","t":"0319","frp":4.8,"b":336.9,"c":1,"s":"N21","n":0}},{"type":"Feature","geometry":{"type":"Point","coordinates":[147.2112,-9.2772]},"properties":{"d":"2026-09-29","t":"0319","frp":1.6,"b":330.7,"c":1,"s":"N21","n":0}},{"type":"Feature","geometry":{"type":"Point","coordinates":[147.1591,-9.2757]},"properties":{"d":"2026-09-29","t":"0319","frp":8.9,"b":340.3,"c":1,"s":"N21","n":0}},{"type":"Feature","geometry":{"type":"Point","coordinates":[147.2106,-9.273]},"properties":{"d":"2026-09-29","t":"0319","frp":4.0,"b":342.1,"c":1,"s":"N21","n":0}},{"type":"Feature","geometry":{"type":"Point","coordinates":[147.0856,-9.2685]},"properties":{"d":"2026-09-29","t":"0319","frp":16.0,"b":347.6,"c":1,"s":"N21","n":0}},{"type":"Feature","geometry":{"type":"Point","coordinates":[147.5312,-9.2667]},"properties":{"d":"2026-09-29","t":"0319","frp":7.6,"b":331.5,"c":1,"s":"N21","n":0}},{"type":"Feature","geometry":{"type":"Point","coordinates":[147.1043,-9.2573]},"properties":{"d":"2026-09-29","t":"0319","frp":4.8,"b":339.4,"c":1,"s":"N21","n":0}},{"type":"Feature","geometry":{"type":"Point","coordinates":[147.1039,-9.2572]},"properties":{"d":"2026-09-29","t":"0319","frp":7.0,"b":339.4,"c":1,"s":"N21","n":0}},{"type":"Feature","geometry":{"type":"Point","coordinates":[147.0465,-9.2523]},"properties":{"d":"2026-09-29","t":"0319","frp":6.0,"b":339.8,"c":1,"s":"N21","n":0}},{"type":"Feature","geometry":{"type":"Point","coordinates":[147.2717,-9.2476]},"properties":{"d":"2026-09-29","t":"0319","frp":3.6,"b":330.0,"c":1,"s":"N21","n":0}},{"type":"Feature","geometry":{"type":"Point","coordinates":[150.9071,-9.2318]},"properties":{"d":"2026-09-29","t":"0319","frp":4.5,"b":332.0,"c":1,"s":"N21","n":0}},{"type":"Feature","geometry":{"type":"Point","coordinates":[152.8884,-9.2264]},"properties":{"d":"2026-09-29","t":"0319","frp":4.8,"b":332.2,"c":1,"s":"N21","n":0}},{"type":"Feature","geometry":{"type":"Point","coordinates":[148.5154,-9.1806]},"properties":{"d":"2026-09-29","t":"0319","frp":6.1,"b":333.9,"c":1,"s":"N21","n":0}},{"type":"Feature","geometry":{"type":"Point","coordinates":[147.0048,-9.1541]},"properties":{"d":"2026-09-29","t":"0319","frp":4.3,"b":330.8,"c":1,"s":"N21","n":0}},{"type":"Feature","geometry":{"type":"Point","coordinates":[141.2053,-9.1337]},"properties":{"d":"2026-09-29","t":"0319","frp":20.4,"b":367.0,"c":2,"s":"N21","n":0}},{"type":"Feature","geometry":{"type":"Point","coordinates":[148.9215,-9.1316]},"properties":{"d":"2026-09-29","t":"0319","frp":3.4,"b":331.2,"c":0,"s":"N21","n":0}},{"type":"Feature","geometry":{"type":"Point","coordinates":[148.9209,-9.1278]},"properties":{"d":"2026-09-29","t":"0319","frp":5.7,"b":331.2,"c":0,"s":"N21","n":0}},{"type":"Feature","geometry":{"type":"Point","coordinates":[141.9955,-9.1277]},"properties":{"d":"2026-09-29","t":"0319","frp":13.2,"b":342.8,"c":1,"s":"N21","n":0}},{"type":"Feature","geometry":{"type":"Point","coordinates":[141.2039,-9.1212]},"properties":{"d":"2026-09-29","t":"0319","frp":7.5,"b":336.4,"c":1,"s":"N21","n":0}},{"type":"Feature","geometry":{"type":"Point","coordinates":[141.9992,-9.1211]},"properties":{"d":"2026-09-29","t":"0319","frp":4.7,"b":332.9,"c":1,"s":"N21","n":0}},{"type":"Feature","geometry":{"type":"Point","coordinates":[141.2089,-9.1205]},"properties":{"d":"2026-09-29","t":"0319","frp":10.4,"b":330.3,"c":1,"s":"N21","n":0}},{"type":"Feature","geometry":{"type":"Point","coordinates":[141.1982,-9.1155]},"properties":{"d":"2026-09-29","t":"0319","frp":9.8,"b":349.4,"c":1,"s":"N21","n":0}},{"type":"Feature","geometry":{"type":"Point","coordinates":[141.2032,-9.1149]},"properties":{"d":"2026-09-29","t":"0319","frp":9.8,"b":336.0,"c":1,"s":"N21","n":0}},{"type":"Feature","geometry":{"type":"Point","coordinates":[141.9173,-9.1132]},"properties":{"d":"2026-09-29","t":"0319","frp":6.9,"b":345.0,"c":1,"s":"N21","n":0}},{"type":"Feature","geometry":{"type":"Point","coordinates":[141.2124,-9.1074]},"properties":{"d":"2026-09-29","t":"0319","frp":48.6,"b":349.2,"c":1,"s":"N21","n":0}},{"type":"Feature","geometry":{"type":"Point","coordinates":[141.2174,-9.1067]},"properties":{"d":"2026-09-29","t":"0319","frp":73.5,"b":367.0,"c":2,"s":"N21","n":0}},{"type":"Feature","geometry":{"type":"Point","coordinates":[141.6517,-9.0968]},"properties":{"d":"2026-09-29","t":"0319","frp":12.6,"b":347.3,"c":1,"s":"N21","n":0}},{"type":"Feature","geometry":{"type":"Point","coordinates":[141.6511,-9.0958]},"properties":{"d":"2026-09-29","t":"0319","frp":8.1,"b":334.0,"c":1,"s":"N21","n":0}},{"type":"Feature","geometry":{"type":"Point","coordinates":[142.0889,-9.0917]},"properties":{"d":"2026-09-29","t":"0319","frp":9.4,"b":342.2,"c":1,"s":"N21","n":0}},{"type":"Feature","geometry":{"type":"Point","coordinates":[141.6457,-9.0903]},"properties":{"d":"2026-09-29","t":"0319","frp":8.1,"b":338.4,"c":1,"s":"N21","n":0}},{"type":"Feature","geometry":{"type":"Point","coordinates":[142.0882,-9.0858]},"properties":{"d":"2026-09-29","t":"0319","frp":21.6,"b":367.0,"c":2,"s":"N21","n":0}},{"type":"Feature","geometry":{"type":"Point","coordinates":[142.0788,-9.0809]},"properties":{"d":"2026-09-29","t":"0319","frp":17.7,"b":335.9,"c":1,"s":"N21","n":0}},{"type":"Feature","geometry":{"type":"Point","coordinates":[142.0832,-9.0804]},"properties":{"d":"2026-09-29","t":"0319","frp":21.6,"b":367.0,"c":2,"s":"N21","n":0}},{"type":"Feature","geometry":{"type":"Point","coordinates":[142.0875,-9.0798]},"properties":{"d":"2026-09-29","t":"0319","frp":21.6,"b":340.2,"c":1,"s":"N21","n":0}},{"type":"Feature","geometry":{"type":"Point","coordinates":[142.021,-9.0481]},"properties":{"d":"2026-09-29","t":"0319","frp":7.1,"b":329.7,"c":1,"s":"N21","n":0}},{"type":"Feature","geometry":{"type":"Point","coordinates":[140.9964,-9.0284]},"properties":{"d":"2026-09-29","t":"0319","frp":6.1,"b":336.9,"c":1,"s":"N21","n":0}}]}